{"version": 0.6, "generator": "Overpass API 0.7.62.5 1bd436f1", "osm3s": {"timestamp_osm_base": "2025-05-30T23:00:16Z", "copyright": "The data included in this document is from www.openstreetmap.org. The data is made available under ODbL."}, "elements": [{"type": "node", "id": 470006025, "lat": 50.0503615, "lon": 19.9488582, "tags": {"addr:housenumber": "18", "addr:postcode": "31-060", "addr:street": "\u015awi\u0119tego Wawrzy\u0144ca", "amenity": "bar", "check_date": "2024-10-15", "name": "Duffy's Irish Bar", "name:en": "Duffy's Irish Bar", "phone": "+48 662 376 093"}}, {"type": "node", "id": 475387269, "lat": 50.0641913, "lon": 19.9357634, "tags": {"amenity": "bar", "check_date:opening_hours": "2024-06-10", "name": "Bubble Toast", "opening_hours": "Mo-Fr 00:00-01:00,16:00-24:00; Sa,Su 00:00-02:00,12:00-24:00", "website": "https://www.facebook.com/bubbletoast/"}}, {"type": "node", "id": 475387289, "lat": 50.0634133, "lon": 19.9351467, "tags": {"addr:housenumber": "2", "addr:street": "Plac Szczepa\u0144ski", "amenity": "bar", "check_date:opening_hours": "2023-12-27", "name": "Scandale Royal", "opening_hours": "Mo-Fr 08:00-24:00; Sa,Su 00:00-01:00,08:00-24:00", "opening_hours:signed": "no", "website": "https://scandale.pl"}}, {"type": "node", "id": 488257898, "lat": 50.0626424, "lon": 19.9348721, "tags": {"addr:city": "Krak\u00f3w", "addr:housenumber": "13", "addr:postcode": "31-009", "addr:street": "Szewska", "amenity": "bar", "check_date": "2024-08-03", "name": "BaniaLuka", "phone": "+48 790 770 648", "website": "http://banialuka.com/"}}, {"type": "node", "id": 488257977, "lat": 50.0628083, "lon": 19.9340609, "tags": {"amenity": "bar", "brand": "Pijalnia W\u00f3dki i Piwa", "brand:wikidata": "Q86681898", "check_date": "2023-03-29", "contact:phone": "+48731151555", "cuisine": "local", "name": "Pijalnia W\u00f3dki i Piwa", "opening_hours": "24/7"}}, {"type": "node", "id": 490986519, "lat": 50.0649554, "lon": 19.9392162, "tags": {"amenity": "bar", "cuisine": "regional", "name": "Eau de Vie Bar", "opening_hours": "Mo-Su 14:00-22:00"}}, {"type": "node", "id": 1416935184, "lat": 50.0403206, "lon": 19.9998223, "tags": {"amenity": "bar", "name": "Jad\u0142odajnia \"Ma\u0142a chatka\"", "opening_hours": "Mo-Fr 08:00-18:00; Sa 09:00-16:00; Su 10:00-16:00"}}, {"type": "node", "id": 1417621475, "lat": 50.0337204, "lon": 19.9728926, "tags": {"addr:city": "Krak\u00f3w", "addr:postcode": "30-556", "addr:street": "Dworcowa", "amenity": "bar", "name": "Pijalnia", "opening_hours": "Mo-Sa 11:00-21:00", "outdoor_seating": "yes", "smoking": "outside"}}, {"type": "node", "id": 1499199594, "lat": 50.0458298, "lon": 19.949197, "tags": {"amenity": "bar", "name": "Pod Lwem"}}, {"type": "node", "id": 1499199677, "lat": 50.0459891, "lon": 19.9492311, "tags": {"addr:housenumber": "1", "addr:street": "Nadwi\u015bla\u0144ska", "amenity": "bar", "indoor_seating": "yes", "name": "Cawa Cafe & Wine", "opening_hours": "Mo-Th 08:30-22:00; Fr 08:30-22:00; Sa 09:30-23:00; Su 09:30-21:00", "outdoor_seating": "yes", "wheelchair": "no"}}, {"type": "node", "id": 1937953219, "lat": 50.0527703, "lon": 19.9439343, "tags": {"addr:city": "Krak\u00f3w", "addr:country": "PL", "addr:housenumber": "20", "addr:postcode": "31-055", "addr:street": "Miodowa", "amenity": "bar", "name": "Propaganda", "opening_hours": "12:00-02:00", "phone": "+48 600331922", "website": "https://www.pubpropaganda.pl/"}}, {"type": "node", "id": 2000510876, "lat": 50.0628648, "lon": 19.9343324, "tags": {"addr:city": "Krak\u00f3w", "addr:country": "PL", "addr:housenumber": "21", "addr:postcode": "31-009", "addr:street": "Szewska", "amenity": "bar", "name": "Mr.Black", "opening_hours": "Su-Th 17:00-01:00; Fr,Sa 17:00-02:30", "payment:cash": "yes", "payment:mastercard": "yes", "payment:visa": "yes", "phone": "+48884727837", "website": "https://mrblack.online/"}}, {"type": "node", "id": 2135508853, "lat": 50.0507887, "lon": 19.9456835, "tags": {"amenity": "bar", "name": "Bill Hickman", "opening_hours:signed": "no"}}, {"type": "node", "id": 2135508856, "lat": 50.0505296, "lon": 19.9444781, "tags": {"addr:city": "Krak\u00f3w", "addr:housenumber": "9", "addr:postcode": "31-056", "addr:street": "J\u00f3zefa", "amenity": "bar", "name": "Eszeweria", "opening_hours": "Mo-Su 10:00-02:00"}}, {"type": "node", "id": 2348490966, "lat": 50.0575551, "lon": 19.9377151, "tags": {"amenity": "bar", "check_date": "2025-01-02", "name": "Pianola", "opening_hours": "Mo-Th 09:00-24:00, Fr,Sa 09:00-01:00, Su 10:00-24:00"}}, {"type": "node", "id": 2429269442, "lat": 50.0695823, "lon": 19.935911, "tags": {"addr:city": "Krak\u00f3w", "addr:country": "PL", "addr:housenumber": "28", "addr:postcode": "31-142", "addr:street": "Krowoderska", "amenity": "bar", "cuisine": "pizza", "name": "Daddy's Pizza & Billard", "opening_hours": "Mo-Su 17:00-00:00", "phone": "607 504 656", "website": "https://www.facebook.com/DaddysBillard/"}}, {"type": "node", "id": 2909101107, "lat": 50.0450142, "lon": 19.9479698, "tags": {"amenity": "bar", "name": "bar .punkt", "name:en": "bar .punkt", "name:pl": "bar .punkt", "opening_hours": "Mon - closed, Tue-Thu 13:00-23:00, Fri 13:00-02:00, Sat 11:00-02:00, Sun 11:00-23:00", "website": "https://www.facebook.com/bar.punkt.krk/"}}, {"type": "node", "id": 2996173010, "lat": 50.0487813, "lon": 19.9423261, "tags": {"addr:city": "Krak\u00f3w", "addr:country": "PL", "addr:housenumber": "3", "addr:postcode": "31-064", "addr:street": "W\u0119g\u0142owa", "amenity": "bar", "name": "The Trust", "opening_hours": "We-Th 12:00-00:00; Fr-Sa 12:00-01:00; Su-Mo 12:00-23:00", "website": "https://thetrust.pl/"}}, {"type": "node", "id": 3014831559, "lat": 50.0521292, "lon": 19.9452475, "tags": {"addr:city": "Krak\u00f3w", "addr:housenumber": "1", "addr:postcode": "31-057", "addr:street": "Jonatana Warszauera", "amenity": "bar", "check_date": "2024-02-20", "check_date:opening_hours": "2024-03-17", "internet_access": "wlan", "name": "Entropia", "opening_hours:signed": "no", "smoking": "outside", "website": "http://klubentropia.pl/"}}, {"type": "node", "id": 3045575263, "lat": 50.0657707, "lon": 20.0454301, "tags": {"amenity": "bar", "layer": "-1", "name": "Bar \"777\"", "opening_hours": "Mo-Fr 08:00-17:00; Sa 10:00-16:00; Su 11:00-16:00", "smoking": "no"}}, {"type": "node", "id": 3073824533, "lat": 50.0563895, "lon": 19.9458846, "tags": {"addr:city": "Krak\u00f3w", "addr:housenumber": "91", "addr:postcode": "31-031", "addr:street": "J\u00f3zefa Dietla", "amenity": "bar", "name": "Layla Lounge Bar", "outdoor_seating": "yes"}}, {"type": "node", "id": 3080535343, "lat": 50.0640936, "lon": 19.9360545, "tags": {"addr:city": "Krak\u00f3w", "addr:country": "PL", "addr:housenumber": "6", "addr:postcode": "31-011", "addr:street": "Plac Szczepa\u0144ski", "amenity": "bar", "name": "Bania Luka", "name:pl": "Bania Luka"}}, {"type": "node", "id": 3084457195, "lat": 50.0569448, "lon": 19.9462998, "tags": {"addr:city": "Krak\u00f3w", "addr:housenumber": "97", "addr:postcode": "31-031", "addr:street": "J\u00f3zefa Dietla", "alt_name": "Poligamia First Floor Bar", "amenity": "bar", "name": "Poli"}}, {"type": "node", "id": 3120752830, "lat": 50.0464778, "lon": 19.9555769, "tags": {"addr:city": "Krak\u00f3w", "addr:housenumber": "2", "addr:postcode": "30-548", "addr:street": "Lwowska", "amenity": "bar", "email": "galaxyhookahkrk@gmail.com", "name": "GALAXY HOOKAH", "opening_hours": "Mo-Su 16:00-03:00", "payment:cards": "yes", "payment:cash": "yes", "payment:credit_cards": "yes", "payment:debit_cards": "yes", "payment:mastercard": "yes", "payment:visa": "yes", "phone": "+48 535222654", "smoking": "dedicated", "start_date": "03.08.2018", "website": "https://instagram.com/galaxyhookah.krakow"}}, {"type": "node", "id": 3145305435, "lat": 50.0658166, "lon": 19.9254805, "tags": {"addr:city": "Krak\u00f3w", "addr:housenumber": "23", "addr:postcode": "31-126", "addr:street": "Czarnowiejska", "amenity": "bar", "email": "biuro@winnegrono.krakow.pl", "internet_access": "yes", "internet_access:fee": "no", "name": "Winne Grono", "opening_hours": "Mo-Su 12:00-24:00", "phone": "+48 12 623 78 96", "smoking": "isolated", "website": "https://www.winnegrono.krakow.pl/"}}, {"type": "node", "id": 3152861309, "lat": 50.0438347, "lon": 19.9539593, "tags": {"amenity": "bar", "disused:amenity": "restaurant", "name": "Kuchnia Polska", "opening_hours": "closed"}}, {"type": "node", "id": 3260836045, "lat": 50.0595613, "lon": 19.9510171, "tags": {"amenity": "bar", "name": "Pod Chocho\u0142ami"}}, {"type": "node", "id": 3370708505, "lat": 50.0673493, "lon": 19.9445276, "tags": {"amenity": "bar", "name": "AStopbar"}}, {"type": "node", "id": 3518806954, "lat": 50.0608886, "lon": 19.934928, "tags": {"amenity": "bar", "name": "TU i \u00d3wdzie", "website": "https://www.facebook.com/tuiowdziekrakow"}}, {"type": "node", "id": 3545840264, "lat": 50.059709, "lon": 19.9378667, "tags": {"amenity": "bar", "brand": "Pijana Wi\u015bnia", "brand:wikidata": "Q120651326", "check_date": "2025-04-20", "drink:liquor": "yes", "name": "Pijana Wi\u015bnia", "opening_hours": "Mo-Th 12:00-00:00; Fr-Su 12:00-02:00", "shop": "alcohol", "website": "https://www.facebook.com/pages/Pijana-Wi%C5%9Bnia/297425134265002"}}, {"type": "node", "id": 3556258577, "lat": 50.0603629, "lon": 19.9367431, "tags": {"addr:housenumber": "4", "addr:street": "Bracka", "amenity": "bar", "level": "2", "name": "Cocktail Bar&Bilard", "sport": "billiards", "website": "http://www.klub.krakow.pl/cb-3/", "wheelchair": "limited"}}, {"type": "node", "id": 3640795501, "lat": 50.0623806, "lon": 19.9275118, "tags": {"addr:city": "Krak\u00f3w", "addr:country": "PL", "addr:housenumber": "5", "addr:postcode": "31-115", "addr:street": "Garncarska", "amenity": "bar", "email": "wonder.years@interia.pl", "internet_access": "wlan", "internet_access:fee": "no", "name": "Cudowne Lata", "opening_hours": "Mo-Fr 09:00-00:00; Sa 10:00-00:00; Su 11:00-22:00", "phone": "+48 12 341 43 16", "website": "http://www.cudowne-lata.com.pl", "wheelchair": "no"}}, {"type": "node", "id": 3718830988, "lat": 50.1016466, "lon": 20.0121123, "tags": {"amenity": "bar", "check_date": "2024-02-12", "name": "Omega", "opening_hours": "Mo-Su 12:00-22:00"}}, {"type": "node", "id": 3771945957, "lat": 50.0482798, "lon": 19.9449719, "tags": {"amenity": "bar", "email": "winebar@mkondrat.pl", "name": "Barawino", "opening_hours": "Mo-Th 12:00-22:00, Fr-Sa 12:00-00:00, Su 12:00-22:00", "phone": "+48 668 671 712", "shop": "wine", "website": "https://www.barawino.pl/krakow"}}, {"type": "node", "id": 3801881362, "lat": 50.0603827, "lon": 19.936398, "tags": {"amenity": "bar", "name": "N'JOY", "website": "http://www.klub.krakow.pl/njoy/"}}, {"type": "node", "id": 4098210051, "lat": 50.0812961, "lon": 19.8818184}, {"type": "node", "id": 4098210052, "lat": 50.0813108, "lon": 19.881752, "tags": {"barrier": "gate"}}, {"type": "node", "id": 4098210053, "lat": 50.0813121, "lon": 19.8817424}, {"type": "node", "id": 4098210056, "lat": 50.0813365, "lon": 19.8817515}, {"type": "node", "id": 4101354202, "lat": 50.0813455, "lon": 19.8818833}, {"type": "node", "id": 4101354203, "lat": 50.0813598, "lon": 19.8817539}, {"type": "node", "id": 4101354204, "lat": 50.0813607, "lon": 19.8818614}, {"type": "node", "id": 4101354205, "lat": 50.0813656, "lon": 19.881854}, {"type": "node", "id": 4101354206, "lat": 50.0813774, "lon": 19.8818323}, {"type": "node", "id": 4221515092, "lat": 50.06029, "lon": 19.93907, "tags": {"addr:city": "Krak\u00f3w", "addr:housenumber": "8", "addr:postcode": "31-030", "addr:street": "Stolarska", "amenity": "bar", "cuisine": "fish", "name": "Ambasada \u015aledzia"}}, {"type": "node", "id": 4281228581, "lat": 50.061254, "lon": 19.94162, "tags": {"amenity": "bar", "check_date:opening_hours": "2024-07-10", "email": "wodkabar@gmail.com", "name": "W\u00f3dka Cafe Bar", "opening_hours": "Mo 15:00-24:00; Tu-Th 00:00-02:00,15:00-24:00; Fr-Su 00:00-02:00,13:00-24:00", "phone": "+48 12 4223214", "website": "http://wodkabar.pl/"}}, {"type": "node", "id": 4328871089, "lat": 50.0280705, "lon": 19.9101614, "tags": {"addr:city": "Krak\u00f3w", "addr:housenumber": "37c", "addr:postcode": "30-411", "addr:street": "Stefana Grota-Roweckiego", "amenity": "bar", "cuisine": "oriental", "internet_access": "wlan", "name": "Resto Bar orientalny Tre Xanh", "opening_hours": "Mo-Fr 11:00-20:30; Sa-Su 11:00-21:00", "phone": "122656269"}}, {"type": "node", "id": 4357448101, "lat": 50.0519428, "lon": 19.9465603, "tags": {"amenity": "bar", "contact:facebook": "https://www.facebook.com/szklanki/", "contact:instagram": "https://www.instagram.com/Szklanki_krakow/", "name": "Szklanki", "opening_hours": "Mo 16:00-23:00; Tu-Th 16:00-24:00; Fr 00:00-01:00,16:00-24:00; Sa,Su 00:00-02:00,15:00-24:00", "website": "https://szklanki.ontap.pl/"}}, {"type": "node", "id": 4382937303, "lat": 50.0636949, "lon": 19.9369065, "tags": {"addr:housenumber": "7", "addr:postcode": "31-014", "addr:street": "\u015awi\u0119tego Tomasza", "amenity": "bar", "description": "pijalnia czeskiego piwa", "name": "Posiad\u00f3wka", "opening_hours": "Mo 16:00-23:00; Tu-Fr 14:00-24:00; Sa 00:00-02:00,14:00-24:00; Su 00:00-02:00,14:00-23:00", "phone": "+48 12 422 10 28", "website": "https://posiadowka-diner.business.site"}}, {"type": "node", "id": 4396294404, "lat": 50.0528464, "lon": 19.9439983, "tags": {"amenity": "bar", "check_date": "2024-01-25", "internet_access": "wlan", "name": "La Habana", "opening_hours": "Su-Th 16:00-01:00, Fr,Sa 16:00-03:00"}}, {"type": "node", "id": 4397848046, "lat": 50.0511639, "lon": 19.9428427, "tags": {"addr:city": "Krak\u00f3w", "addr:housenumber": "14", "addr:postcode": "31-063", "addr:street": "Beera Meiselsa", "amenity": "bar", "check_date:opening_hours": "2024-02-20", "diet:vegetarian": "yes", "name": "Noto", "opening_hours:signed": "no", "phone": "+48 668 145 225", "website": "https://ni-hao.pl//", "wheelchair": "yes"}}, {"type": "node", "id": 4420786640, "lat": 50.0488142, "lon": 19.9448231, "tags": {"addr:housenumber": "10", "addr:street": "Plac Wolnica", "amenity": "bar", "check_date:opening_hours": "2024-03-17", "name": "MashRoom", "opening_hours:signed": "no", "outdoor_seating": "yes", "website": "https://www.facebook.com/mashroomkrakow"}}, {"type": "node", "id": 4529384787, "lat": 50.0605926, "lon": 19.9356188, "tags": {"addr:city": "Krak\u00f3w", "addr:housenumber": "3-5", "addr:postcode": "31-005", "addr:street": "Bracka", "amenity": "bar", "name": "Spok\u00f3j i Cisza"}}, {"type": "node", "id": 4590510780, "lat": 50.0510376, "lon": 19.9390116, "tags": {"addr:city": "Krak\u00f3w", "addr:housenumber": "8", "addr:postcode": "31-069", "addr:street": "Sukiennicza", "amenity": "bar", "indoor_seating": "yes", "name": "Eliksir", "outdoor_seating": "yes"}}, {"type": "node", "id": 4659379690, "lat": 50.0604638, "lon": 19.9390589, "tags": {"addr:city": "Krak\u00f3w", "addr:housenumber": "5/3", "addr:postcode": "33-332", "addr:street": "Stolarska", "amenity": "bar", "layer": "1", "name": "Pauza", "name:en": "Pauza", "name:pl": "Pauza", "phone": "+48 608 601 501", "website": "http://pauza.pl"}}, {"type": "node", "id": 4692389877, "lat": 50.063934, "lon": 19.9271703, "tags": {"addr:housenumber": "3", "addr:street": "Czysta", "amenity": "bar", "check_date": "2025-03-07", "check_date:opening_hours": "2025-03-07", "name": "Kufle i Widelce", "opening_hours": "Mo,Tu 12:00-23:00, We,Th 12:00-24:00, Fr,Sa 15:00-24:00, Su 12:00-22:00"}}, {"type": "node", "id": 4728249344, "lat": 50.0537501, "lon": 19.9492244, "tags": {"amenity": "bar", "check_date": "2024-02-20", "name": "Zaraz Wracam Tu", "opening_hours": "Mo-Th 15:00-02:00; Fr-Sa 15:00-03:00; Su 15:00-01:00", "wheelchair": "limited"}}, {"type": "node", "id": 5066242775, "lat": 50.0642869, "lon": 19.9408129, "tags": {"amenity": "bar", "check_date": "2025-02-08", "name": "Pijana Wi\u015bnia", "wheelchair": "no"}}, {"type": "node", "id": 5070017489, "lat": 50.0649004, "lon": 19.9385527, "tags": {"addr:street": "S\u0142awkowska", "amenity": "bar", "internet_access": "wlan", "level": "-1", "lgbtq": "primary", "name": "Lindo"}}, {"type": "node", "id": 5115875616, "lat": 50.0487688, "lon": 19.9638406, "tags": {"addr:city": "Krak\u00f3w", "addr:housenumber": "5", "addr:street": "Tadeusza Romanowicza", "amenity": "bar", "name": "Emalia Zablocie", "phone": "578 364 376", "postal_code": "30-702", "website": "https://emaliazablocie.pl/", "wheelchair": "yes"}}, {"type": "node", "id": 5795561153, "lat": 50.0458264, "lon": 19.9489471, "tags": {"addr:city": "Krak\u00f3w", "addr:housenumber": "4", "addr:street": "J\u00f3zefi\u0144ska", "amenity": "bar", "brewery": "yes;various", "email": "miejscowka@miejscowka.eu", "name": "Miejsc\u00f3wka", "outdoor_seating": "yes", "phone": "+48 574 619 575", "smoking": "outside", "website": "http://miejscowka.eu/"}}, {"type": "node", "id": 5813034653, "lat": 50.0613081, "lon": 19.9352312, "tags": {"amenity": "bar", "internet_access": "wlan", "name": "Czeczotka", "opening_hours": "Mo 11:00-24:00, Tu-Th 10:00-24:00, Su 10:00-24:00; Th,Fr 10:00-01:00"}}, {"type": "node", "id": 5853036063, "lat": 50.0455072, "lon": 19.936128, "tags": {"amenity": "bar", "name": "Lato", "wheelchair": "limited"}}, {"type": "node", "id": 5924577941, "lat": 50.0675889, "lon": 19.9336206, "tags": {"addr:housenumber": "1", "addr:street": "Stefana Batorego", "amenity": "bar", "level": "-1", "name": "BarOn", "note": "Gry Planszowe i Konsole", "opening_hours": "Mo-We 17:00-24:00, Th-Sa 17:00-01:00, Su 17:00-22:00"}}, {"type": "node", "id": 5945480980, "lat": 50.050609, "lon": 19.9497007, "tags": {"amenity": "bar", "drink:wine": "yes", "name": "Czarna Owca", "opening_hours": "Mo-Su 00:00-01:00,16:00-24:00", "website": "http://www.czarnaowcawinobar.pl/"}}, {"type": "node", "id": 5945604779, "lat": 50.0489291, "lon": 19.944778, "tags": {"addr:city": "Krak\u00f3w", "addr:housenumber": "9", "addr:street": "Plac Wolnica", "amenity": "bar", "name": "Pi\u0119kny Pies", "opening_hours": "Mo,Tu 18:00-02:00, We-Su 16:00-02:00", "website": "https://www.facebook.com/KlubPieknyPies/"}}, {"type": "node", "id": 6050976799, "lat": 50.0530855, "lon": 19.9455361, "tags": {"amenity": "bar", "check_date": "2024-01-25", "name": "Absynt"}}, {"type": "node", "id": 6053558146, "lat": 50.0608541, "lon": 19.9387368, "tags": {"amenity": "bar", "description": "Bar dwupi\u0119trowy", "lgbtq": "welcome", "name": "Budda Drink&Garden", "old:website": "http://www.budda-drink.com.pl/", "opening_hours": "Mo-Sa 14:00-01:00; Su 14:00-00:00", "outdoor_seating": "yes", "reservation": "yes", "website": "https://budda-drinkgarden.business.site/"}}, {"type": "node", "id": 6240768381, "lat": 50.0585163, "lon": 19.9381441, "tags": {"addr:city": "Krak\u00f3w", "amenity": "bar", "layer": "-1", "name": "Let's Sing"}}, {"type": "node", "id": 6431854315, "lat": 50.0532098, "lon": 19.9475482, "tags": {"amenity": "bar", "layer": "1", "name": "Sababa", "website": "http://sababa.pl"}}, {"type": "node", "id": 6431891634, "lat": 50.0540769, "lon": 19.9453568, "tags": {"amenity": "bar", "level": "-1", "name": "Dolce Vita", "opening_hours": "Mo-Su 20:00-04:00", "website": "https://klubdolcevita.com/pl/"}}, {"type": "node", "id": 6431927530, "lat": 50.0516149, "lon": 19.9432852, "tags": {"amenity": "bar", "level": "-1", "name": "Kicz"}}, {"type": "node", "id": 6512691589, "lat": 50.0586928, "lon": 19.9259298, "tags": {"amenity": "bar", "name": "Kornet"}}, {"type": "node", "id": 6515035663, "lat": 50.0517533, "lon": 19.9443279, "tags": {"amenity": "bar", "brand": "Pijalnia W\u00f3dki i Piwa", "brand:wikidata": "Q86681898", "name": "Pijalnia W\u00f3dki i Piwa", "opening_hours": "Mo-Th 14:00-02:00, Fr,Sa 10:00-05:00, Su 10:00-02:00"}}, {"type": "node", "id": 6636943189, "lat": 50.0377979, "lon": 20.0012886, "tags": {"amenity": "bar", "name": "Bar \"Stokrotka\"", "phone": "+48 518 644 548", "website": "http://www.barstokrotka.eu/"}}, {"type": "node", "id": 6680234530, "lat": 50.0511821, "lon": 19.9657628, "tags": {"amenity": "bar", "name": "Sto\u0142\u00f3wka studencka Krakowskiej Akademii"}}, {"type": "node", "id": 6775873198, "lat": 50.0705889, "lon": 19.9367861, "tags": {"addr:housenumber": "47/1", "addr:postcode": "31-147", "addr:street": "D\u0142uga", "amenity": "bar", "email": "manua.kea.krakow@gmail.com", "internet_access": "wlan", "name": "Mauna Kea", "opening_hours": "Su-Th 15:00-00:00; Fr-Sa 15:00-02:00", "phone": "737926485", "website": "http://facebook.com/mauna.kea.krakow"}}, {"type": "node", "id": 7004280571, "lat": 50.0642107, "lon": 19.9407494, "tags": {"amenity": "bar", "brand": "Pijalnia W\u00f3dki i Piwa", "brand:wikidata": "Q86681898", "name": "Pijalnia W\u00f3dki i Piwa"}}, {"type": "node", "id": 7090903738, "lat": 50.052269, "lon": 19.9489629, "tags": {"amenity": "bar", "name": "La Parisienne"}}, {"type": "node", "id": 7110978874, "lat": 50.0475857, "lon": 19.9434532, "tags": {"addr:city": "Krak\u00f3w", "addr:housenumber": "41", "addr:postcode": "31-066", "addr:street": "Krakowska", "amenity": "bar", "check_date:opening_hours": "2022-10-24", "name": "Kawiarnia Literacka", "opening_hours": "Mo-Su 11:00-23:00", "shop": "books", "website": "https://www.facebook.com/kawiarniaLITERACKAkrakowska41/"}}, {"type": "node", "id": 7111116648, "lat": 50.0519815, "lon": 19.9446193, "tags": {"addr:city": "Krak\u00f3w", "addr:housenumber": "9", "addr:postcode": "31-056", "addr:street": "Plac Nowy", "amenity": "bar", "name": "Zak\u0105ski u Ani", "opening_hours": "Mo-Su 15:00-00:00"}}, {"type": "node", "id": 7111116650, "lat": 50.051727, "lon": 19.9454856, "tags": {"addr:city": "Krak\u00f3w", "addr:housenumber": "14", "addr:postcode": "31-056", "addr:street": "Estery", "amenity": "bar", "name": "Kr\u00f3licze Oczy", "opening_hours": "Mo-Th 00:00-01:00,15:00-24:00; Fr 00:00-03:00,15:00-24:00; Sa,Su 00:00-03:00,12:00-24:00", "website": "https://www.facebook.com/krolicze.oczy"}}, {"type": "node", "id": 7818066096, "lat": 50.0617776, "lon": 19.9357419, "tags": {"addr:city": "Krak\u00f3w", "addr:housenumber": "29", "addr:street": "Rynek G\u0142\u00f3wny", "amenity": "bar", "check_date": "2024-07-10", "check_date:opening_hours": "2024-06-10", "name": "Vis-\u00e0-vis", "opening_hours": "Mo-Th 08:00-24:00, Fr-Su 08:00-01:00", "outdoor_seating": "yes", "payment:cash": "yes", "payment:credit_cards": "yes", "payment:debit_cards": "yes", "website": "https://zvis.pl/", "wikidata": "Q9368909", "wikipedia": "pl:Vis-\u00e0-vis (bar)"}}, {"type": "node", "id": 7983185187, "lat": 50.0636241, "lon": 19.9401883, "tags": {"addr:city": "Krak\u00f3w", "addr:housenumber": "26", "addr:postcode": "31-021", "addr:street": "Floria\u0144ska", "amenity": "bar", "check_date": "2024-08-03", "name": "Huki Muki", "website": "https://hukimuki.pl/"}}, {"type": "node", "id": 8003986785, "lat": 50.0604372, "lon": 19.9391713, "tags": {"addr:city": "Krak\u00f3w", "amenity": "bar", "name": "TramBar", "opening_hours": "Mo-Fr 17:00-24:00+; Sa,Su 17:00-22:00"}}, {"type": "node", "id": 8309266628, "lat": 50.0641637, "lon": 19.9377479, "tags": {"amenity": "bar", "name": "Pitbull Shisha Bar"}}, {"type": "node", "id": 8429208720, "lat": 50.0612932, "lon": 19.9424614, "tags": {"amenity": "bar", "name": "Busz", "opening_hours": "Tu-Fr 12:00-24:00; Sa,Su 00:00-02:00,12:00-24:00", "outdoor_seating": "yes", "website": "http://www.buszkrakow.pl/"}}, {"type": "node", "id": 9049540533, "lat": 50.0502848, "lon": 19.9427707, "tags": {"amenity": "bar", "check_date": "2022-11-25", "description": "Drink sweats and more", "name": "Siedem miliard\u00f3w u\u015bmiech\u00f3w, a Tw\u00f3j jest moim ulubionym.", "opening_hours": "Mo 18:00-23:07; Tu 15:00-24:00; We-Fr 00:00-00:07,15:07-24:00; Sa 00:00-01:07,15:07-24:00; Su 00:00-01:07,15:07-23:07", "website": "https://siedemmiliardowusmiechow.pl/"}}, {"type": "node", "id": 9236260969, "lat": 50.0597129, "lon": 19.9390534, "tags": {"addr:city": "Krak\u00f3w", "addr:housenumber": "10", "addr:street": "Stolarska", "amenity": "bar", "brewery": "yes;okocim", "name": "Vabank"}}, {"type": "node", "id": 9586135217, "lat": 50.0604301, "lon": 19.9388401, "tags": {"addr:housenumber": "5", "addr:street": "Stolarska", "amenity": "bar", "contact:facebook": "AmbasadaSledzia", "contact:instagram": "ambasada_sledzia", "name": "\u015aled\u017a u Fryzjera", "opening_hours": "Mo-Th 12:00-04:00; Fr-Sa 12:00-06:00", "phone": "+48 662 569460"}}, {"type": "node", "id": 9659451320, "lat": 50.0629759, "lon": 19.937215, "tags": {"amenity": "bar", "email": "laperocracovie@gmail.com", "level": "-1", "name": "L'Ap\u00e9ro", "opening_hours": "Tu-Su 17:00-23:45", "website": "https://m.facebook.com/Laperocracovie/"}}, {"type": "node", "id": 9870673117, "lat": 50.0610831, "lon": 19.938367, "tags": {"amenity": "bar", "check_date:opening_hours": "2023-03-29", "name": "Szara Bar", "opening_hours:signed": "no"}}, {"type": "node", "id": 9902023666, "lat": 50.0392921, "lon": 19.9809027, "tags": {"amenity": "bar"}}, {"type": "node", "id": 10032225210, "lat": 50.0458606, "lon": 19.9536373, "tags": {"amenity": "bar", "check_date": "2022-09-17", "name": "Targowa 2"}}, {"type": "node", "id": 10052493589, "lat": 50.0634804, "lon": 19.9349616, "tags": {"addr:housenumber": "2", "addr:street": "Plac Szczepa\u0144ski", "amenity": "bar", "drink:liquor": "yes", "name": "Wi\u015bniewski", "shop": "alcohol", "website": "https://wisniewski.ltd"}}, {"type": "node", "id": 10054869770, "lat": 50.0606108, "lon": 19.9384968, "tags": {"amenity": "bar", "name": "Szototo"}}, {"type": "node", "id": 10078449301, "lat": 50.061709, "lon": 19.9350483, "tags": {"amenity": "bar", "drink:wine": "yes", "name": "Dzikie Wino", "opening_hours": "Sa 12:00-24:00, Su 12:00-23:00, Mo-Fr 16:00-24:00", "website": "https://www.facebook.com/DzikieWinoWineBar/"}}, {"type": "node", "id": 10080817916, "lat": 50.0624417, "lon": 19.9362939, "tags": {"amenity": "bar", "name": "Mi\u0119dzymiastowa", "opening_hours": "Tu-Th 12:00-24:00, Fr,Sa 12:00-03:00, Su,Mo 12:00-23:00", "website": "https://www.facebook.com/miedzymiastowakrakow/"}}, {"type": "node", "id": 10090985158, "lat": 50.0579126, "lon": 19.944054, "tags": {"amenity": "bar", "name": "Vistula", "website": "https://www.facebook.com/VISTULA/"}}, {"type": "node", "id": 10093591518, "lat": 50.0549355, "lon": 19.9482487, "tags": {"amenity": "bar", "name": "The Moon Lounge Bar", "opening_hours": "Mo-Fr 00:00-02:00,16:00-24:00; Sa,Su 00:00-04:00,16:00-24:00", "website": "https://www.facebook.com/loungebarthemoon/"}}, {"type": "node", "id": 10110286131, "lat": 50.0515347, "lon": 19.9456071, "tags": {"addr:housenumber": "18", "addr:street": "Estery", "amenity": "bar", "name": "Nova Klubova", "phone": "+48 797 696 886", "website": "https://novaklubova.pl/klub/"}}, {"type": "node", "id": 10110286132, "lat": 50.0515828, "lon": 19.9455705, "tags": {"amenity": "bar", "name": "Komisariat", "opening_hours": "Su-We 16:00-04:00, Th 16:00-05:00, Fr,Sa 16:00-06:00", "website": "https://facebook.com/Komisariat.Klub/"}}, {"type": "node", "id": 10110286141, "lat": 50.0514084, "lon": 19.9440494, "tags": {"amenity": "bar", "name": "Trzcina", "website": "https://www.facebook.com/trzcinabar/"}}, {"type": "node", "id": 10117308062, "lat": 50.053012, "lon": 19.9461584, "tags": {"addr:city": "Krak\u00f3w", "addr:housenumber": "31", "addr:street": "Miodowa", "amenity": "bar", "check_date:opening_hours": "2024-03-17", "name": "Bang Bang", "opening_hours:signed": "no"}}, {"type": "node", "id": 10125150600, "lat": 50.0613558, "lon": 19.9421732, "tags": {"amenity": "bar", "name": "Movida", "website": "http://www.movida-bar.pl/"}}, {"type": "node", "id": 10125191412, "lat": 50.0484059, "lon": 19.9452531, "tags": {"amenity": "bar", "level": "-1", "name": "Baza", "opening_hours": "Mo-Th 00:00-02:15,16:00-24:00; Fr 00:00-02:15,12:00-24:00; Sa,Su 00:00-04:00,12:00-24:00", "website": "https://www.facebook.com/bazamostowa"}}, {"type": "node", "id": 10134130256, "lat": 50.0542625, "lon": 19.944181, "tags": {"amenity": "bar", "level": "-1", "name": "By Clouds", "website": "https://byclouds.pl/"}}, {"type": "node", "id": 10140009760, "lat": 50.0516864, "lon": 19.944368, "tags": {"amenity": "bar", "check_date:opening_hours": "2024-03-17", "name": "Kochanka Folk Shotbar", "opening_hours:signed": "no", "website": "https://www.facebook.com/kochankafolk"}}, {"type": "node", "id": 10153143115, "lat": 50.0511275, "lon": 19.9432505, "tags": {"amenity": "bar", "name": "Wino Metal", "opening_hours": "Su-Th 17:00-23:00; Fr,Sa 17:00-24:00", "website": "https://www.facebook.com/Wino-Metal-107829041680319"}}, {"type": "node", "id": 10155740797, "lat": 50.0439426, "lon": 19.950812, "tags": {"amenity": "bar", "community_centre": "cultural_centre", "name": "Globus", "website": "https://www.facebook.com/globusmusicclubkrakow"}}, {"type": "node", "id": 10205285455, "lat": 50.0515487, "lon": 19.9425183, "tags": {"amenity": "bar", "name": "Zlew"}}, {"type": "node", "id": 10222457068, "lat": 50.0516956, "lon": 19.9432374, "tags": {"amenity": "bar", "check_date": "2022-11-25", "description": "Mexican Cartel", "name": "Osiem miliard\u00f3w u\u015bmiech\u00f3w, a Tw\u00f3j jest moim ulubionym.", "opening_hours": "Mo-Th 00:00-00:08,16:08-24:00; Fr 00:00-00:08,15:08-24:00; Sa 00:00-02:08,15:08-24:00; Su 00:00-02:08,16:08-24:00", "website": "https://www.facebook.com/8miliardowusmiechow/"}}, {"type": "node", "id": 10222457069, "lat": 50.0515577, "lon": 19.9433145, "tags": {"amenity": "bar", "name": "Cyklop drink bar", "opening_hours": "Mo-Th 13:00-22:00; Fr,Sa 12:00-23:00; Su 12:00-22:00"}}, {"type": "node", "id": 10222575817, "lat": 50.0525393, "lon": 19.9447676, "tags": {"amenity": "bar", "check_date:opening_hours": "2024-03-17", "name": "Skwer", "opening_hours": "Mo-We 00:00-02:00,15:00-24:00; Th 00:00-02:00,10:00-24:00; Fr 00:00-03:00,10:00-24:00; Sa,Su 00:00-04:00,10:00-24:00", "opening_hours:signed": "no", "website": "https://www.facebook.com/skwer.bar"}}, {"type": "node", "id": 10222575830, "lat": 50.0522327, "lon": 19.9465561, "tags": {"amenity": "bar", "name": "Zagadka"}}, {"type": "node", "id": 10232142261, "lat": 50.0703428, "lon": 19.9050789, "tags": {"amenity": "bar", "name": "Cafe Piast", "opening_hours": "Mo-Sa 15:00-23:00", "website": "https://www.facebook.com/KawiarniaPiast"}}, {"type": "node", "id": 10580544496, "lat": 50.081039, "lon": 20.0137399, "tags": {"amenity": "bar"}}, {"type": "node", "id": 10719038406, "lat": 50.0789347, "lon": 19.9021534, "tags": {"amenity": "bar", "cuisine": "korean", "name": "The Bap - Korean soul food", "opening_hours": "Mo-Fr 11:30-20:00; Sa-Su 12:00-20:00"}}, {"type": "node", "id": 10792966686, "lat": 50.0634322, "lon": 19.9346072, "tags": {"amenity": "bar", "check_date": "2023-04-07", "name": "Betel"}}, {"type": "node", "id": 10828979709, "lat": 50.0529443, "lon": 19.9409275, "tags": {"addr:city": "Krak\u00f3w", "addr:housenumber": "12/14", "addr:postcode": "31-058", "addr:street": "Stradomska", "amenity": "bar", "name": "Hedwig's Club"}}, {"type": "node", "id": 10973790505, "lat": 50.0729749, "lon": 19.9174163, "tags": {"amenity": "bar", "contact:instagram": "baltyk.bar", "name": "Ba\u0142tyk", "opening_hours": "Su, Tu-Th 15:00-22:00; Mo, Fr-Sa 15:00-23:00"}}, {"type": "node", "id": 11094151020, "lat": 50.0603035, "lon": 19.935412, "tags": {"amenity": "bar", "name": "Lastriko"}}, {"type": "node", "id": 11097762397, "lat": 50.0646759, "lon": 19.939457, "tags": {"amenity": "bar", "name": "Foggy Shisha & Coctail Bar"}}, {"type": "node", "id": 11097762400, "lat": 50.0643024, "lon": 19.9408283, "tags": {"amenity": "bar", "brand": "Pijana Wi\u015bnia", "brand:wikidata": "Q120651326", "name": "Pijana Wi\u015bnia", "opening_hours": "Th 12:00-01:00; Fr-Sa 12:00-02:00; Su-We 12:00-24:00"}}, {"type": "node", "id": 11257459281, "lat": 50.0314328, "lon": 19.9401711, "tags": {"addr:city": "Krak\u00f3w", "addr:housenumber": "8a", "addr:postcode": "30-415", "addr:street": "Wadowicka", "amenity": "bar", "name": "Moja Resto Bar", "opening_hours": "Mo-Fr 09:00-17:00", "phone": "+48122964336", "website": "https://mojarestobar.pl/"}}, {"type": "node", "id": 11276691549, "lat": 50.0644349, "lon": 19.9470798, "tags": {"addr:city": "Krak\u00f3w", "addr:housenumber": "9", "addr:postcode": "31-034", "addr:street": "Lubicz", "amenity": "bar", "brewery": "yes;various", "name": "Sky Lobby Bar", "opening_hours": "Mo-Su 14:00-23:00"}}, {"type": "node", "id": 11541681285, "lat": 50.076865, "lon": 19.9055367, "tags": {"amenity": "bar", "name": "cafe (No4) bar"}}, {"type": "node", "id": 11547114274, "lat": 50.0511127, "lon": 19.9424056, "tags": {"amenity": "bar", "name": "Ciut Ciut"}}, {"type": "node", "id": 11548179565, "lat": 50.0527512, "lon": 19.9451043, "tags": {"amenity": "bar", "name": "Retro", "opening_hours": "Mo-Th 10:03-00:34, Fr,Sa 10:03-03:28"}}, {"type": "node", "id": 11552199041, "lat": 50.0517626, "lon": 19.9425969, "tags": {"amenity": "bar", "name": "Wi\u015bnioffka"}}, {"type": "node", "id": 11552563119, "lat": 50.0522598, "lon": 19.9425893, "tags": {"amenity": "bar", "name": "Gin Mill"}}, {"type": "node", "id": 11557905726, "lat": 50.0510002, "lon": 19.9498546, "tags": {"amenity": "bar", "name": "We\u017a\u017ce Krafta"}}, {"type": "node", "id": 11561271310, "lat": 50.0541489, "lon": 19.9454711, "tags": {"amenity": "bar", "name": "Bez_Nazwy"}}, {"type": "node", "id": 11616250296, "lat": 50.0516824, "lon": 19.9434804, "tags": {"amenity": "bar", "name": "Cwane Wino", "opening_hours": "Mo-Su 11:00-17:00"}}, {"type": "node", "id": 11619946979, "lat": 50.0513174, "lon": 19.9448596, "tags": {"amenity": "bar", "check_date:opening_hours": "2024-03-17", "name": "Grzechu Warte", "opening_hours:signed": "no"}}, {"type": "node", "id": 11619946980, "lat": 50.0510158, "lon": 19.944916, "tags": {"amenity": "bar", "name": "Supernowa", "opening_hours": "Mo-Su 12:00+", "website": "https://www.facebook.com/supernowakrakow"}}, {"type": "node", "id": 11620082973, "lat": 50.0511867, "lon": 19.9438738, "tags": {"amenity": "bar", "name": "W\u00f3dka Cafe Bar"}}, {"type": "node", "id": 11632189181, "lat": 50.0506626, "lon": 19.9451572, "tags": {"amenity": "bar", "noname": "yes"}}, {"type": "node", "id": 11642957707, "lat": 50.0511613, "lon": 19.9420372, "tags": {"amenity": "bar", "name": "Galileo Lounge Bar", "opening_hours": "Mo-Th 18:00-01:00, Fr,Sa 18:00-02:00, Su 18:00-12:00", "phone": "+48 535 656 591", "website": "https://galileowinebar.wixsite.com/website"}}, {"type": "node", "id": 11853883469, "lat": 50.0493783, "lon": 19.9370558, "tags": {"addr:housenumber": "10", "addr:postcode": "31-071", "addr:street": "\u015awi\u0119tego Stanis\u0142awa", "amenity": "bar", "name": "Six rooftop", "opening_hours": "Mo-Sa 14:00-00:00; Su 14:00-23:00", "phone": "+48695 206 969"}}, {"type": "node", "id": 11867081211, "lat": 50.0522886, "lon": 19.9398859, "tags": {"addr:city": "Krak\u00f3w", "addr:housenumber": "2", "addr:postcode": "31-072", "addr:street": "Koletek", "amenity": "bar", "brewery": "yes;various", "contact:facebook": "https://www.facebook.com/profile.php?id=100091387856831", "name": "Prawda bar", "opening_hours": "Tu-Thu 18:00-00:00, Fri-Sat 18:00-02:00, Sun 18:00-00:00"}}, {"type": "node", "id": 12057881411, "lat": 50.062167, "lon": 19.9418589, "tags": {"amenity": "bar", "name": "Ivy Bar", "website": "https://www.instagram.com/ivy_bar_krakow/"}}, {"type": "node", "id": 12068087636, "lat": 50.0478067, "lon": 19.9606202, "tags": {"amenity": "bar", "wheelchair": "yes"}}, {"type": "node", "id": 12158301440, "lat": 50.0491343, "lon": 19.9598379, "tags": {"amenity": "bar", "check_date": "2024-09-05", "name": "Hookah Place"}}, {"type": "node", "id": 12188079501, "lat": 50.0812421, "lon": 19.8992893, "tags": {"amenity": "bar", "name": "Z\u0142oty R\u00f3g"}}, {"type": "node", "id": 12260707073, "lat": 50.0295013, "lon": 20.0528898, "tags": {"amenity": "bar", "email": "1karolina.kurek@gmail.com", "facebook": "https://www.facebook.com/1lemon12/", "name": "Lunch bar Lemon", "opening_hours": "Mo-Fr 06:00-16:00; Sa-Su off", "phone": "+48698199034"}}, {"type": "node", "id": 12344513749, "lat": 50.0777108, "lon": 20.0304209, "tags": {"amenity": "bar", "indoor_seating": "yes", "name": "Bar & pub Majka", "opening_hours": "Mo-Su 10:00-22:00", "outdoor_seating": "yes"}}, {"type": "node", "id": 12635781009, "lat": 50.0429753, "lon": 19.9458666, "tags": {"addr:city": "Krak\u00f3w", "addr:housenumber": "15", "addr:postcode": "30-504", "addr:street": "Kalwaryjska", "amenity": "bar", "contact:facebook": "https://www.facebook.com/people/Prawda-Bar/100091387856831/", "name": "Sojka bar", "opening_hours": "Tu-Th 18:00-00:00, Fr-Sa 18:00-02:00, Su 18:00-00:00", "wheelchair": "no"}}, {"type": "way", "id": 408129104, "nodes": [4098210053, 4098210052, 4098210051, 4101354202, 4101354204, 4101354205, 4101354206, 4101354203, 4098210056, 4098210053], "tags": {"amenity": "bar", "check_date:opening_hours": "2023-03-09", "name": "Paragraf 22", "opening_hours": "Mo-Fr 09:00-18:00"}}]}