{"version": 0.6, "generator": "Overpass API 0.7.62.5 1bd436f1", "osm3s": {"timestamp_osm_base": "2025-05-30T23:00:16Z", "copyright": "The data included in this document is from www.openstreetmap.org. The data is made available under ODbL."}, "elements": [{"type": "node", "id": 273530517, "lat": 50.0614476, "lon": 19.9363154}, {"type": "node", "id": 273530518, "lat": 50.0615472, "lon": 19.9363554}, {"type": "node", "id": 273530521, "lat": 50.0614983, "lon": 19.9365292}, {"type": "node", "id": 273530522, "lat": 50.0614016, "lon": 19.9364606}, {"type": "node", "id": 274260893, "lat": 50.0649973, "lon": 19.940697}, {"type": "node", "id": 275178527, "lat": 50.0649763, "lon": 19.9406938}, {"type": "node", "id": 275178543, "lat": 50.0649986, "lon": 19.9405685}, {"type": "node", "id": 341393253, "lat": 50.0652351, "lon": 19.9492281}, {"type": "node", "id": 470205533, "lat": 50.0498243, "lon": 19.9470889}, {"type": "node", "id": 471557484, "lat": 50.0649809, "lon": 19.9404162}, {"type": "node", "id": 471557535, "lat": 50.0632264, "lon": 19.9403302, "tags": {"addr:city": "Krak\u00f3w", "addr:country": "PL", "addr:housenumber": "25", "addr:street": "Floria\u0144ska", "email": "mf1@mp.pl", "name": "Muzeum Farmacji UJ", "name:en": "Museum of Pharmacy", "name:hu": "Patikam\u00fazeum", "name:pl": "Muzeum Farmacji UJ", "name:ru": "\u041c\u0443\u0437\u0435\u0439 \u0444\u0430\u0440\u043c\u0430\u0446\u0435\u0432\u0442\u0438\u043a\u0438", "opening_hours": "We-Sa 09:30-15:00; Tu 12:00-18:30", "phone": "+48 12 421 92 79", "tourism": "museum", "website": "http://muzeum.farmacja.uj.edu.pl", "wikidata": "Q11786965", "wikipedia": "pl:Muzeum Farmacji Collegium Medicum Uniwersytetu Jagiello\u0144skiego"}}, {"type": "node", "id": 471557583, "lat": 50.0615617, "lon": 19.9337367, "tags": {"fee": "yes", "name": "Muzeum Uniwersytetu Jagiello\u0144skiego", "name:de": "Museum des Jagiellonen-Universit\u00e4ts", "name:en": "University Museum", "name:hu": "Jagell\u00f3 Egyetem M\u00fazeuma", "ref:ckkp": "MA00421", "tourism": "museum", "website": "https://maius.uj.edu.pl/", "wikidata": "Q11787234", "wikipedia": "pl:Muzeum Uniwersytetu Jagiello\u0144skiego"}}, {"type": "node", "id": 471557838, "lat": 50.0627747, "lon": 19.936496, "tags": {"fee": "yes", "fee:conditional": "Tu @ Mo except temporary exhibitions", "museum": "history", "name": "Pa\u0142ac Krzysztofory", "name:en": "Krzysztofory Palace", "name:hu": "Krakk\u00f3i V\u00e1rost\u00f6rt\u00e9neti M\u00fazeum", "name:pl": "Pa\u0142ac Krzysztofory", "opening_hours": "Tu-Su 10:00-18:00", "tourism": "museum", "website": "https://muzeumkrakowa.pl/oddzialy/palac-krzysztofory"}}, {"type": "node", "id": 471635664, "lat": 50.0633496, "lon": 19.935964, "tags": {"addr:housenumber": "9", "addr:street": "Plac Szczepa\u0144ski", "check_date": "2023-09-24", "name": "Kamienica Szo\u0142ayskich", "official_name": "Kamienica Szo\u0142ayskich im. Feliksa Jasie\u0144skiego", "operator": "Muzeum Narodowe w Krakowie", "phone": "+48 12 433 54 50", "tourism": "museum"}}, {"type": "node", "id": 471984939, "lat": 50.0633709, "lon": 19.9282412}, {"type": "node", "id": 472032760, "lat": 50.0554747, "lon": 19.9415137, "tags": {"addr:city": "Krak\u00f3w", "addr:housenumber": "9", "addr:postcode": "31-049", "addr:street": "\u015awi\u0119tego Sebastiana", "fee": "yes", "free_day": "no", "museum": "nature", "name": "Muzeum Przyrodnicze PAN", "name:hu": "Lengyel Tudom\u00e1nyos Akad\u00e9mia Term\u00e9szettudom\u00e1nyi M\u00fazeuma", "opening_hours": "Tu-Fr 09:00-15:00; Sa, Su 10:00-18:00", "operator": "PAN", "tourism": "museum", "website": "http://www.isez.pan.krakow.pl/muzeum.html", "wikidata": "Q16580065", "wikipedia": "pl:Muzeum Przyrodnicze Instytutu Systematyki i Ewolucji Zwierz\u0105t PAN"}}, {"type": "node", "id": 472147189, "lat": 50.0508571, "lon": 19.9496775, "tags": {"addr:city": "Krak\u00f3w", "addr:country": "PL", "addr:housenumber": "18", "addr:street": "Dajw\u00f3r", "name": "\u017bydowskie Muzeum Galicja", "name:en": "Galicia Jewish Museum", "name:he": "\u05de\u05d5\u05d6\u05d9\u05d0\u05d5\u05df \u05d9\u05d4\u05d5\u05d3\u05d9", "name:hu": "Gal\u00edciai Zsid\u00f3 M\u00fazeum", "name:pl": "\u017bydowskie Muzeum Galicja", "opening_hours": "Mo-Su 10:00-18:00", "phone": "+48 12 421 68 42", "source:name:en": "http://www.galiciajewishmuseum.org/en", "tourism": "museum", "website": "https://galiciajewishmuseum.org/", "wikidata": "Q326670", "wikipedia": "pl:\u017bydowskie Muzeum Galicja w Krakowie"}}, {"type": "node", "id": 472147202, "lat": 50.0486624, "lon": 19.9434852, "tags": {"addr:housenumber": "1", "addr:street": "Plac Wolnica", "fee": "yes", "fee:conditional": "no @ (Tu except temporary exhibitions)", "name": "Muzeum Etnograficzne", "name:hu": "N\u00e9prajzi M\u00fazeum", "name:pl": "Muzeum Etnograficzne", "opening_hours": "Tu-Su 10:00-19:00", "tourism": "museum", "website": "https://etnomuzeum.eu/", "wikidata": "Q194616", "wikipedia": "en:Ethnographic Museum of Krak\u00f3w"}}, {"type": "node", "id": 472147275, "lat": 50.0478721, "lon": 19.9436844}, {"type": "node", "id": 475387282, "lat": 50.0635805, "lon": 19.9344469, "tags": {"addr:city": "Krak\u00f3w", "addr:housenumber": "3a", "addr:postcode": "31-011", "addr:street": "Plac Szczepa\u0144ski", "name": "Bunkier Sztuki", "name:hu": "M\u0171v\u00e9szetek Bunkere", "name:pl": "Bunkier Sztuki", "opening_hours": "Tu-Su 11:00-19:00", "tourism": "museum", "website": "https://bunkier.art.pl/", "wikidata": "Q11699302", "wikipedia": "pl:Galeria Sztuki Wsp\u00f3\u0142czesnej \u201eBunkier Sztuki\u201d"}}, {"type": "node", "id": 686915866, "lat": 50.0701822, "lon": 20.041052}, {"type": "node", "id": 686915873, "lat": 50.0698257, "lon": 20.0408962}, {"type": "node", "id": 686915880, "lat": 50.0697395, "lon": 20.0413794}, {"type": "node", "id": 686915887, "lat": 50.0700955, "lon": 20.0415351}, {"type": "node", "id": 968360655, "lat": 50.0815422, "lon": 20.0364942, "tags": {"addr:city": "Krak\u00f3w", "addr:country": "PL", "addr:housenumber": "23", "addr:place": "Osiedle G\u00f3rali", "fee": "no", "name": "Muzeum Czynu Zbrojnego", "name:en": "Museum of Armed Deed", "name:hu": "Hadt\u00f6rt\u00e9netni M\u00fazeum", "tourism": "museum", "wikidata": "Q11786944", "wikipedia": "pl:Muzeum Czynu Zbrojnego w Krakowie"}}, {"type": "node", "id": 979972831, "lat": 50.0462364, "lon": 19.9541481, "tags": {"addr:city": "Krak\u00f3w", "addr:housenumber": "18", "addr:postcode": "30-530", "addr:street": "Plac Bohater\u00f3w Getta", "description:hu": "Az egykori vars\u00f3i gett\u00f3ban m\u0171k\u00f6d\u0151 egyetlen gy\u00f3gyszert\u00e1r", "fee": "yes", "fee:conditional": "no @ Th", "museum": "history", "name": "Apteka Pod Or\u0142em", "name:en": "Eagle Pharmacy", "name:hu": "Patika a Sas Alatt", "name:pl": "Apteka Pod Or\u0142em", "opening_hours": "We-Su 10:00-17:00", "operator": "Muzeum Krakowa", "operator:type": "public", "phone": "+48 12 656 56 25", "tourism": "museum", "website": "https://muzeumkrakowa.pl/oddzialy/apteka-pod-orlem", "wheelchair": "limited", "wheelchair:description": "jest wyci\u0105gana dostawka na schody", "wikidata": "Q5101454", "wikimedia_commons": "Category:Pharmacy Pod Or\u0142em", "wikipedia": "pl:Apteka Pod Or\u0142em w Krakowie"}}, {"type": "node", "id": 1169654843, "lat": 50.0756958, "lon": 19.9934818}, {"type": "node", "id": 1262680449, "lat": 50.0770174, "lon": 19.9938286}, {"type": "node", "id": 1262680451, "lat": 50.0789627, "lon": 19.9912373}, {"type": "node", "id": 1262680459, "lat": 50.0790876, "lon": 19.9935465}, {"type": "node", "id": 1262680463, "lat": 50.0774648, "lon": 19.993766}, {"type": "node", "id": 1332080339, "lat": 50.061996, "lon": 19.9377745, "tags": {"addr:city": "Krak\u00f3w", "addr:country": "PL", "addr:housenumber": "1", "addr:postcode": "31-042", "addr:street": "Rynek G\u0142\u00f3wny", "fee": "yes", "museum": "history", "name": "Rynek Podziemny", "name:en": "Rynek Underground", "name:hu": "F\u00f6ld alatti Piac t\u00e9r", "name:pl": "Rynek Podziemny", "name:ru": "\u041f\u043e\u0434\u0437\u0435\u043c\u0435\u043b\u044c\u0435 \u0440\u044b\u043d\u043a\u0430", "opening_hours": "Mo-Su 10:00-20:00; Tu 10:00-16:00; Nov-Mar: Mo,We,Th 10:00-19:00; Nov-Mar: Tu 10:00-14:00; Nov-Mar: Fr-Su 10:00-20:00", "operator": "Muzeum Krakowa", "operator:type": "public", "ref:ckkp": "MA00458", "tourism": "museum", "website": "https://muzeumkrakowa.pl/oddzialy/rynek-podziemny", "wheelchair": "limited", "wikidata": "Q5420576", "wikipedia": "pl:Podziemia Rynku w Krakowie"}}, {"type": "node", "id": 1391259505, "lat": 50.0632391, "lon": 19.9282635}, {"type": "node", "id": 1445724671, "lat": 50.0721103, "lon": 19.9487021}, {"type": "node", "id": 1445724690, "lat": 50.0722917, "lon": 19.948302}, {"type": "node", "id": 1445724709, "lat": 50.0724855, "lon": 19.9491122}, {"type": "node", "id": 1445724720, "lat": 50.072667, "lon": 19.9487129}, {"type": "node", "id": 1499189330, "lat": 50.0475405, "lon": 19.9611298}, {"type": "node", "id": 1499189335, "lat": 50.0474216, "lon": 19.9617403}, {"type": "node", "id": 1499189360, "lat": 50.0475025, "lon": 19.9615305}, {"type": "node", "id": 1499189366, "lat": 50.0475251, "lon": 19.9615336}, {"type": "node", "id": 1499189374, "lat": 50.0475253, "lon": 19.962274}, {"type": "node", "id": 1499189375, "lat": 50.0475027, "lon": 19.9617191}, {"type": "node", "id": 1499189378, "lat": 50.0473524, "lon": 19.9611886}, {"type": "node", "id": 1516798709, "lat": 50.0560885, "lon": 19.9371042, "tags": {"addr:city": "Krak\u00f3w", "addr:country": "PL", "addr:housenumber": "19", "addr:street": "Kanonicza", "name": "Muzeum Archidiecezjalne", "name:de": "Erzdi\u00f6zese-Museum", "name:hu": "F\u0151egyh\u00e1zmegyei M\u00fazeum", "name:pl": "Muzeum Archidiecezjalne", "tourism": "museum"}}, {"type": "node", "id": 1516840253, "lat": 50.0563019, "lon": 19.9372228, "tags": {"addr:city": "Krak\u00f3w", "description": "Oddzia\u0142 Muzeum Narodowego", "description:de": "Filiale des Nationalmuseums", "fee": "yes", "fee:conditional": "no @ Mo", "name": "Pa\u0142ac Biskupa Erazma Cio\u0142ka", "name:hu": "Erazm Cio\u0142ek (1492\u20131546) p\u00fcsp\u00f6k palot\u00e1ja", "opening_hours": "Tu 10:00-18:00, We-Su 10:00-16:00", "tourism": "museum", "website": "https://mnk.pl/oddzial/mnk-ciolek", "wheelchair": "yes", "wheelchair:description": "niemal nieograniczony, cz\u0119\u015b\u0107 jednej sali w galerii sztuki cerkiewnej ma stopie\u0144 bez podjazdu"}}, {"type": "node", "id": 1516929437, "lat": 50.0577217, "lon": 19.9365293}, {"type": "node", "id": 1516929440, "lat": 50.0572428, "lon": 19.9367199}, {"type": "node", "id": 1516929485, "lat": 50.0577781, "lon": 19.9362086}, {"type": "node", "id": 1516929660, "lat": 50.057856, "lon": 19.9361952}, {"type": "node", "id": 1516929666, "lat": 50.05769, "lon": 19.9365346}, {"type": "node", "id": 1516929684, "lat": 50.0577682, "lon": 19.9360689}, {"type": "node", "id": 1516929718, "lat": 50.0578463, "lon": 19.9360558}, {"type": "node", "id": 1516929727, "lat": 50.057714, "lon": 19.9364197}, {"type": "node", "id": 1516929733, "lat": 50.0573009, "lon": 19.9367042}, {"type": "node", "id": 1516929770, "lat": 50.0576825, "lon": 19.9364248}, {"type": "node", "id": 1649729848, "lat": 50.0476178, "lon": 19.9437757}, {"type": "node", "id": 1649729850, "lat": 50.0476525, "lon": 19.9439757}, {"type": "node", "id": 1649729933, "lat": 50.0479011, "lon": 19.9438854}, {"type": "node", "id": 1649730701, "lat": 50.0491303, "lon": 19.9466415}, {"type": "node", "id": 1657847558, "lat": 50.0644307, "lon": 19.9402656}, {"type": "node", "id": 1657847561, "lat": 50.0644543, "lon": 19.9399875}, {"type": "node", "id": 1657847595, "lat": 50.0645206, "lon": 19.9402904}, {"type": "node", "id": 1657847622, "lat": 50.0645331, "lon": 19.9397205}, {"type": "node", "id": 1657847660, "lat": 50.064647, "lon": 19.9403436}, {"type": "node", "id": 1657847697, "lat": 50.064687, "lon": 19.9403597}, {"type": "node", "id": 1657847739, "lat": 50.0647735, "lon": 19.9403656}, {"type": "node", "id": 1658773392, "lat": 50.063785, "lon": 19.9413187}, {"type": "node", "id": 1658773393, "lat": 50.0637792, "lon": 19.9411569}, {"type": "node", "id": 1658773394, "lat": 50.0637856, "lon": 19.9410375}, {"type": "node", "id": 1658773397, "lat": 50.0637912, "lon": 19.9413002}, {"type": "node", "id": 1658773398, "lat": 50.0638076, "lon": 19.941078}, {"type": "node", "id": 1658773403, "lat": 50.0638166, "lon": 19.941219}, {"type": "node", "id": 1658773406, "lat": 50.0638236, "lon": 19.9411966}, {"type": "node", "id": 1658773410, "lat": 50.0638526, "lon": 19.9411178}, {"type": "node", "id": 1658773424, "lat": 50.0638927, "lon": 19.9407291}, {"type": "node", "id": 1658773432, "lat": 50.0639634, "lon": 19.9407832}, {"type": "node", "id": 1658892271, "lat": 50.0473133, "lon": 19.9608643}, {"type": "node", "id": 1658892278, "lat": 50.0473742, "lon": 19.9604605}, {"type": "node", "id": 1658892284, "lat": 50.0473677, "lon": 19.96075}, {"type": "node", "id": 1658892288, "lat": 50.0474113, "lon": 19.9604734}, {"type": "node", "id": 1658892294, "lat": 50.0475283, "lon": 19.9608041}, {"type": "node", "id": 1658892299, "lat": 50.0474696, "lon": 19.9622646}, {"type": "node", "id": 1658892310, "lat": 50.0475128, "lon": 19.9619287}, {"type": "node", "id": 1658892313, "lat": 50.0475835, "lon": 19.961558}, {"type": "node", "id": 1658892315, "lat": 50.0476026, "lon": 19.9617716}, {"type": "node", "id": 1658892324, "lat": 50.0476325, "lon": 19.9615794}, {"type": "node", "id": 1658892329, "lat": 50.047667, "lon": 19.9609881}, {"type": "node", "id": 1658892542, "lat": 50.0480868, "lon": 19.9616191}, {"type": "node", "id": 1658892552, "lat": 50.0481047, "lon": 19.9614952}, {"type": "node", "id": 1658892575, "lat": 50.0481293, "lon": 19.9611467}, {"type": "node", "id": 1658892577, "lat": 50.0481269, "lon": 19.9615052}, {"type": "node", "id": 1658892595, "lat": 50.0481299, "lon": 19.9609582}, {"type": "node", "id": 1658892597, "lat": 50.0481416, "lon": 19.9612436}, {"type": "node", "id": 1658892602, "lat": 50.0481555, "lon": 19.9611551}, {"type": "node", "id": 1658892603, "lat": 50.0481455, "lon": 19.9619638}, {"type": "node", "id": 1658892604, "lat": 50.0481644, "lon": 19.9612538}, {"type": "node", "id": 1658892625, "lat": 50.0482451, "lon": 19.9616764}, {"type": "node", "id": 1679460170, "lat": 50.076739, "lon": 19.9900183}, {"type": "node", "id": 1679460196, "lat": 50.0767987, "lon": 19.989874}, {"type": "node", "id": 1679460250, "lat": 50.0770682, "lon": 19.9893109}, {"type": "node", "id": 1692479796, "lat": 50.0759519, "lon": 19.9936267}, {"type": "node", "id": 1692479808, "lat": 50.0761294, "lon": 19.9937193}, {"type": "node", "id": 1692479812, "lat": 50.0762873, "lon": 19.9908217}, {"type": "node", "id": 1692479814, "lat": 50.0762959, "lon": 19.9937399, "tags": {"access": "no", "barrier": "gate", "locked": "yes"}}, {"type": "node", "id": 1692479816, "lat": 50.076325, "lon": 19.9908397, "tags": {"access": "no", "barrier": "gate", "locked": "yes"}}, {"type": "node", "id": 1692479826, "lat": 50.076385, "lon": 19.9908655}, {"type": "node", "id": 1692479830, "lat": 50.0764325, "lon": 19.9908907}, {"type": "node", "id": 1692479839, "lat": 50.0769908, "lon": 19.9889453}, {"type": "node", "id": 1692479841, "lat": 50.0771894, "lon": 19.9887615}, {"type": "node", "id": 1692479855, "lat": 50.0774723, "lon": 19.9885874}, {"type": "node", "id": 1692479856, "lat": 50.0777506, "lon": 19.9894769}, {"type": "node", "id": 1692479857, "lat": 50.077757, "lon": 19.9895436}, {"type": "node", "id": 1692479859, "lat": 50.0778278, "lon": 19.9896295}, {"type": "node", "id": 1692479860, "lat": 50.0778782, "lon": 19.9896703}, {"type": "node", "id": 1692479861, "lat": 50.078015, "lon": 19.9897183}, {"type": "node", "id": 1692479862, "lat": 50.0782947, "lon": 19.9897466}, {"type": "node", "id": 1692479864, "lat": 50.0783908, "lon": 19.9897752}, {"type": "node", "id": 1692479866, "lat": 50.078463, "lon": 19.9898129}, {"type": "node", "id": 1692479875, "lat": 50.0785837, "lon": 19.9899142}, {"type": "node", "id": 1703041812, "lat": 50.0614668, "lon": 19.9363278}, {"type": "node", "id": 1703041814, "lat": 50.0614734, "lon": 19.9363001}, {"type": "node", "id": 1770404410, "lat": 50.0779994, "lon": 19.9936948}, {"type": "node", "id": 1770404416, "lat": 50.0787195, "lon": 19.9935974}, {"type": "node", "id": 2000518586, "lat": 50.0637111, "lon": 19.9412611}, {"type": "node", "id": 2000518588, "lat": 50.0637358, "lon": 19.9411846}, {"type": "node", "id": 2144930431, "lat": 50.0499791, "lon": 19.9478021}, {"type": "node", "id": 2319751946, "lat": 50.0636006, "lon": 19.9559687, "tags": {"entrance": "yes", "name": "Muzeum Ogrodu Botanicznego UJ", "name:hu": "Jagell\u00f3 Egyetem Botanikus Kertj\u00e9nek M\u00fazeuma", "name:pl": "Muzeum Ogrodu Botanicznego UJ", "official_name": "Muzeum Ogrodu Botanicznego i Pracownia Historii Botaniki im. J. Dyakowskiej", "opening_hours": "Th,Fr 10:00-14:00; Su 11:00-15:00; Oct 15-Apr 15 off", "start_date": "1994", "tourism": "museum", "website": "https://ogrod.uj.edu.pl/ogrod/ekspozycja-muzealna", "wikidata": "Q11787105", "wikipedia": "pl:Muzeum Ogrodu Botanicznego"}}, {"type": "node", "id": 2360485372, "lat": 50.078574, "lon": 19.9899032, "tags": {"barrier": "gate"}}, {"type": "node", "id": 2386999442, "lat": 50.0697821, "lon": 20.0411384, "tags": {"entrance": "service"}}, {"type": "node", "id": 2386999446, "lat": 50.0701107, "lon": 20.0414509}, {"type": "node", "id": 2386999447, "lat": 50.070119, "lon": 20.0414545}, {"type": "node", "id": 2386999448, "lat": 50.0701485, "lon": 20.0412903, "tags": {"entrance": "main"}}, {"type": "node", "id": 2386999449, "lat": 50.0701682, "lon": 20.0411294}, {"type": "node", "id": 2386999450, "lat": 50.0701768, "lon": 20.0411331}, {"type": "node", "id": 2401454000, "lat": 50.0599532, "lon": 19.9234287}, {"type": "node", "id": 2401454003, "lat": 50.0599761, "lon": 19.9235376}, {"type": "node", "id": 2401454016, "lat": 50.0600955, "lon": 19.9241043}, {"type": "node", "id": 2401454018, "lat": 50.0601161, "lon": 19.9242026}, {"type": "node", "id": 2402445931, "lat": 50.0549395, "lon": 19.9089443}, {"type": "node", "id": 2402445958, "lat": 50.0549646, "lon": 19.9087754}, {"type": "node", "id": 2402446018, "lat": 50.0550399, "lon": 19.9089768}, {"type": "node", "id": 2402446021, "lat": 50.0550453, "lon": 19.9089391}, {"type": "node", "id": 2402446027, "lat": 50.0550554, "lon": 19.9088759}, {"type": "node", "id": 2402446033, "lat": 50.0550587, "lon": 19.9089439}, {"type": "node", "id": 2402446035, "lat": 50.0550642, "lon": 19.9088087}, {"type": "node", "id": 2402446039, "lat": 50.0550678, "lon": 19.908881}, {"type": "node", "id": 2402570209, "lat": 50.0476379, "lon": 19.943879}, {"type": "node", "id": 2409354635, "lat": 50.0765182, "lon": 19.9906502, "tags": {"barrier": "gate"}}, {"type": "node", "id": 2409354636, "lat": 50.0766778, "lon": 19.990201}, {"type": "node", "id": 2409354637, "lat": 50.0767224, "lon": 19.9902864}, {"type": "node", "id": 2409354640, "lat": 50.0768137, "lon": 19.9900903}, {"type": "node", "id": 2414350315, "lat": 50.0581132, "lon": 19.9232546}, {"type": "node", "id": 2414350323, "lat": 50.0581281, "lon": 19.923356}, {"type": "node", "id": 2414350354, "lat": 50.0581618, "lon": 19.9231627}, {"type": "node", "id": 2414350361, "lat": 50.0581725, "lon": 19.9232347}, {"type": "node", "id": 2414350381, "lat": 50.0582032, "lon": 19.9238697}, {"type": "node", "id": 2414350416, "lat": 50.0583653, "lon": 19.9238142}, {"type": "node", "id": 2414350419, "lat": 50.0583685, "lon": 19.923839}, {"type": "node", "id": 2414350426, "lat": 50.0583811, "lon": 19.9238088}, {"type": "node", "id": 2414350430, "lat": 50.0583848, "lon": 19.9238343}, {"type": "node", "id": 2414350440, "lat": 50.0583965, "lon": 19.9229462}, {"type": "node", "id": 2414350445, "lat": 50.0584091, "lon": 19.923034}, {"type": "node", "id": 2414350605, "lat": 50.0585085, "lon": 19.9237654}, {"type": "node", "id": 2414350619, "lat": 50.0584612, "lon": 19.922939}, {"type": "node", "id": 2414350626, "lat": 50.0585413, "lon": 19.9228948}, {"type": "node", "id": 2414350670, "lat": 50.0586036, "lon": 19.922986}, {"type": "node", "id": 2414350719, "lat": 50.0586894, "lon": 19.9250131}, {"type": "node", "id": 2414350723, "lat": 50.0588221, "lon": 19.924862}, {"type": "node", "id": 2414350736, "lat": 50.0588362, "lon": 19.9249544}, {"type": "node", "id": 2414350738, "lat": 50.0588752, "lon": 19.9248418}, {"type": "node", "id": 2500433505, "lat": 50.0615045, "lon": 19.9365062}, {"type": "node", "id": 2500433506, "lat": 50.0615063, "lon": 19.9364999}, {"type": "node", "id": 2500433507, "lat": 50.0615139, "lon": 19.9364717, "tags": {"entrance": "main", "wikimedia_commons": "File:A 9 wie\u017ca ratuszowa Krak\u00f3w, Rynek G\u0142\u00f3wny Rafa\u0142 Peplinski 4.JPG"}}, {"type": "node", "id": 2500433509, "lat": 50.0615208, "lon": 19.9364477}, {"type": "node", "id": 2500433510, "lat": 50.0615226, "lon": 19.9364414}, {"type": "node", "id": 2620265141, "lat": 50.0647686, "lon": 19.9403035}, {"type": "node", "id": 2620265142, "lat": 50.0648357, "lon": 19.9403139}, {"type": "node", "id": 2620265143, "lat": 50.0648365, "lon": 19.9403716}, {"type": "node", "id": 2665050439, "lat": 50.0721826, "lon": 19.9484828, "tags": {"entrance": "main"}}, {"type": "node", "id": 2905885401, "lat": 50.0769019, "lon": 19.9896035, "tags": {"entrance": "main"}}, {"type": "node", "id": 2905885404, "lat": 50.0770326, "lon": 19.9892712}, {"type": "node", "id": 2931433162, "lat": 50.0477659, "lon": 19.9439395}, {"type": "node", "id": 2959413255, "lat": 50.0777526, "lon": 19.9894933, "tags": {"barrier": "gate"}}, {"type": "node", "id": 2975387887, "lat": 50.0476189, "lon": 19.9437809}, {"type": "node", "id": 2976663011, "lat": 50.0512505, "lon": 19.9484891}, {"type": "node", "id": 2976663015, "lat": 50.0512625, "lon": 19.9485658}, {"type": "node", "id": 2976663016, "lat": 50.0512645, "lon": 19.9485503}, {"type": "node", "id": 2976663027, "lat": 50.0513133, "lon": 19.9486542}, {"type": "node", "id": 2976663029, "lat": 50.0513195, "lon": 19.9484181}, {"type": "node", "id": 2976663032, "lat": 50.0513243, "lon": 19.948431}, {"type": "node", "id": 2976667813, "lat": 50.051297, "lon": 19.948651}, {"type": "node", "id": 2976667818, "lat": 50.0513027, "lon": 19.9486647}, {"type": "node", "id": 2976667824, "lat": 50.0513369, "lon": 19.9487114}, {"type": "node", "id": 2976667868, "lat": 50.0512782, "lon": 19.9485542}, {"type": "node", "id": 2976667869, "lat": 50.0512782, "lon": 19.9485705}, {"type": "node", "id": 2976667973, "lat": 50.0513076, "lon": 19.9486403}, {"type": "node", "id": 2976668034, "lat": 50.0513256, "lon": 19.9486862}, {"type": "node", "id": 2976668043, "lat": 50.051353, "lon": 19.9485093}, {"type": "node", "id": 2976668179, "lat": 50.0513806, "lon": 19.9488077}, {"type": "node", "id": 2976668236, "lat": 50.0514068, "lon": 19.9484669}, {"type": "node", "id": 2976668244, "lat": 50.0514705, "lon": 19.9487095}, {"type": "node", "id": 2976668255, "lat": 50.0514929, "lon": 19.9486946}, {"type": "node", "id": 2976668397, "lat": 50.0514734, "lon": 19.9487167}, {"type": "node", "id": 2978715421, "lat": 50.0497235, "lon": 19.9466241}, {"type": "node", "id": 2978720810, "lat": 50.0492493, "lon": 19.9481788}, {"type": "node", "id": 2978720905, "lat": 50.0495928, "lon": 19.94652}, {"type": "node", "id": 2978720917, "lat": 50.049627, "lon": 19.9466772}, {"type": "node", "id": 2978721047, "lat": 50.049496, "lon": 19.9464634}, {"type": "node", "id": 2978721150, "lat": 50.0495875, "lon": 19.9480347}, {"type": "node", "id": 2978721452, "lat": 50.0497826, "lon": 19.947899}, {"type": "node", "id": 2979055698, "lat": 50.0491251, "lon": 19.9471972}, {"type": "node", "id": 2979057560, "lat": 50.0491448, "lon": 19.947333}, {"type": "node", "id": 2979062646, "lat": 50.0494851, "lon": 19.9464155}, {"type": "node", "id": 2979078698, "lat": 50.0496416, "lon": 19.9479868}, {"type": "node", "id": 2979079781, "lat": 50.0490466, "lon": 19.9466951}, {"type": "node", "id": 2979079854, "lat": 50.0495894, "lon": 19.9480193}, {"type": "node", "id": 2998637662, "lat": 50.0572136, "lon": 19.9365168}, {"type": "node", "id": 2998637664, "lat": 50.0572789, "lon": 19.9364726}, {"type": "node", "id": 2998637676, "lat": 50.0575906, "lon": 19.9365492}, {"type": "node", "id": 2998637681, "lat": 50.0577274, "lon": 19.9357953}, {"type": "node", "id": 2998637683, "lat": 50.0577377, "lon": 19.9366806}, {"type": "node", "id": 2998640011, "lat": 50.0571733, "lon": 19.9362864}, {"type": "node", "id": 2998640012, "lat": 50.0571777, "lon": 19.9363247}, {"type": "node", "id": 2998640013, "lat": 50.0571808, "lon": 19.9363239}, {"type": "node", "id": 2998640028, "lat": 50.0573955, "lon": 19.9358503}, {"type": "node", "id": 2998640030, "lat": 50.0573966, "lon": 19.935855}, {"type": "node", "id": 2998640032, "lat": 50.057403, "lon": 19.9362441}, {"type": "node", "id": 2998640163, "lat": 50.0571919, "lon": 19.936282}, {"type": "node", "id": 2998640164, "lat": 50.0572342, "lon": 19.936722}, {"type": "node", "id": 2998640168, "lat": 50.0575249, "lon": 19.9366394}, {"type": "node", "id": 2998640172, "lat": 50.0575998, "lon": 19.936035}, {"type": "node", "id": 2998640178, "lat": 50.05761, "lon": 19.9366999}, {"type": "node", "id": 2998640180, "lat": 50.05761, "lon": 19.9367022}, {"type": "node", "id": 2998640186, "lat": 50.0577593, "lon": 19.9358369}, {"type": "node", "id": 2998640188, "lat": 50.0577658, "lon": 19.9366729}, {"type": "node", "id": 2998640189, "lat": 50.0577662, "lon": 19.9359146}, {"type": "node", "id": 2998640190, "lat": 50.0578562, "lon": 19.9358965}, {"type": "node", "id": 2998640191, "lat": 50.0578837, "lon": 19.9359185}, {"type": "node", "id": 2998640192, "lat": 50.0578896, "lon": 19.9360065}, {"type": "node", "id": 2998640193, "lat": 50.0578925, "lon": 19.9360062}, {"type": "node", "id": 2998640194, "lat": 50.0578997, "lon": 19.9366481}, {"type": "node", "id": 2998640195, "lat": 50.0579284, "lon": 19.9366434}, {"type": "node", "id": 2998640196, "lat": 50.0579334, "lon": 19.9366307}, {"type": "node", "id": 2998640197, "lat": 50.0579382, "lon": 19.936645}, {"type": "node", "id": 2998640352, "lat": 50.0571924, "lon": 19.9362885}, {"type": "node", "id": 2998640354, "lat": 50.0571942, "lon": 19.9364408}, {"type": "node", "id": 2998640355, "lat": 50.0571959, "lon": 19.9364404}, {"type": "node", "id": 2998640357, "lat": 50.0571976, "lon": 19.9364713}, {"type": "node", "id": 2998640358, "lat": 50.0572003, "lon": 19.9365198}, {"type": "node", "id": 2998640360, "lat": 50.057275, "lon": 19.9364941}, {"type": "node", "id": 2998640363, "lat": 50.0572828, "lon": 19.9364514}, {"type": "node", "id": 2998640365, "lat": 50.0573377, "lon": 19.9364385}, {"type": "node", "id": 2998640370, "lat": 50.0573652, "lon": 19.9358552}, {"type": "node", "id": 2998640371, "lat": 50.0573693, "lon": 19.935904}, {"type": "node", "id": 2998640373, "lat": 50.0573719, "lon": 19.9359047}, {"type": "node", "id": 2998640377, "lat": 50.0574683, "lon": 19.936413}, {"type": "node", "id": 2998640378, "lat": 50.0574804, "lon": 19.9364105}, {"type": "node", "id": 2998640379, "lat": 50.0574898, "lon": 19.9360521}, {"type": "node", "id": 2998640382, "lat": 50.0575091, "lon": 19.9364059}, {"type": "node", "id": 2998640385, "lat": 50.0575332, "lon": 19.936714}, {"type": "node", "id": 2998640389, "lat": 50.057564, "lon": 19.9367112}, {"type": "node", "id": 2998640391, "lat": 50.0575761, "lon": 19.9363244}, {"type": "node", "id": 2998640396, "lat": 50.0576654, "lon": 19.9360661}, {"type": "node", "id": 2998640404, "lat": 50.0576883, "lon": 19.9360623}, {"type": "node", "id": 2998640406, "lat": 50.0577292, "lon": 19.9366822}, {"type": "node", "id": 2998640844, "lat": 50.0573, "lon": 19.9366959}, {"type": "node", "id": 2998640850, "lat": 50.0574685, "lon": 19.9364148}, {"type": "node", "id": 2998640853, "lat": 50.0574804, "lon": 19.9364123}, {"type": "node", "id": 2998640945, "lat": 50.0575089, "lon": 19.9364045}, {"type": "node", "id": 2998640951, "lat": 50.0575159, "lon": 19.9363837}, {"type": "node", "id": 2998640953, "lat": 50.0575188, "lon": 19.9363832}, {"type": "node", "id": 2998640955, "lat": 50.0575204, "lon": 19.9364042}, {"type": "node", "id": 2998640962, "lat": 50.057674, "lon": 19.9360227}, {"type": "node", "id": 2998640963, "lat": 50.0576742, "lon": 19.9360252}, {"type": "node", "id": 2998640964, "lat": 50.0576763, "lon": 19.9360607}, {"type": "node", "id": 2998640965, "lat": 50.0576766, "lon": 19.9360642}, {"type": "node", "id": 2998640966, "lat": 50.0576778, "lon": 19.9360223}, {"type": "node", "id": 2998640967, "lat": 50.0576779, "lon": 19.9360245}, {"type": "node", "id": 2998640968, "lat": 50.0576801, "lon": 19.9360601}, {"type": "node", "id": 2998640969, "lat": 50.0576803, "lon": 19.9360636}, {"type": "node", "id": 2998640970, "lat": 50.0576838, "lon": 19.9363016}, {"type": "node", "id": 2998640971, "lat": 50.0576856, "lon": 19.936021}, {"type": "node", "id": 2998640972, "lat": 50.0577271, "lon": 19.9357999}, {"type": "node", "id": 2998640973, "lat": 50.057729, "lon": 19.9366797}, {"type": "node", "id": 2998640974, "lat": 50.0577375, "lon": 19.9366783}, {"type": "node", "id": 2998640975, "lat": 50.0577584, "lon": 19.9357875}, {"type": "node", "id": 2998640976, "lat": 50.0577626, "lon": 19.9358363}, {"type": "node", "id": 2998640979, "lat": 50.0577661, "lon": 19.9366757}, {"type": "node", "id": 2998640984, "lat": 50.0578999, "lon": 19.9366509}, {"type": "node", "id": 2998641045, "lat": 50.0575694, "lon": 19.936554}, {"type": "node", "id": 2998641048, "lat": 50.0575836, "lon": 19.9367073}, {"type": "node", "id": 2998641054, "lat": 50.0578568, "lon": 19.9358993}, {"type": "node", "id": 2998641057, "lat": 50.0578847, "lon": 19.9358919}, {"type": "node", "id": 2998641058, "lat": 50.0578867, "lon": 19.9359181}, {"type": "node", "id": 2998641061, "lat": 50.0578914, "lon": 19.936033}, {"type": "node", "id": 2998641064, "lat": 50.0578943, "lon": 19.9360326}, {"type": "node", "id": 2998641657, "lat": 50.0579287, "lon": 19.9366464}, {"type": "node", "id": 2998641660, "lat": 50.0579369, "lon": 19.9366298}, {"type": "node", "id": 3000790372, "lat": 50.0620181, "lon": 19.947218}, {"type": "node", "id": 3000790376, "lat": 50.0620387, "lon": 19.9473971}, {"type": "node", "id": 3000790378, "lat": 50.0620449, "lon": 19.9474557}, {"type": "node", "id": 3000790688, "lat": 50.0617346, "lon": 19.94747}, {"type": "node", "id": 3000790767, "lat": 50.0617163, "lon": 19.9472927}, {"type": "node", "id": 3001378974, "lat": 50.0620447, "lon": 19.9474511}, {"type": "node", "id": 3010730388, "lat": 50.0648969, "lon": 19.9403959}, {"type": "node", "id": 3010730393, "lat": 50.0650176, "lon": 19.9403114}, {"type": "node", "id": 3010730418, "lat": 50.0651025, "lon": 19.9400487}, {"type": "node", "id": 3010730419, "lat": 50.0651041, "lon": 19.9400064}, {"type": "node", "id": 3010730420, "lat": 50.0651072, "lon": 19.940746}, {"type": "node", "id": 3010740954, "lat": 50.0648298, "lon": 19.9402558}, {"type": "node", "id": 3010740955, "lat": 50.0648304, "lon": 19.9402655}, {"type": "node", "id": 3010740958, "lat": 50.0649363, "lon": 19.9404037}, {"type": "node", "id": 3010740960, "lat": 50.0649423, "lon": 19.9404041}, {"type": "node", "id": 3010740961, "lat": 50.0649424, "lon": 19.940408}, {"type": "node", "id": 3010740964, "lat": 50.0649685, "lon": 19.94069}, {"type": "node", "id": 3010740992, "lat": 50.0652862, "lon": 19.9416183}, {"type": "node", "id": 3010751470, "lat": 50.0650366, "lon": 19.9403788}, {"type": "node", "id": 3010751471, "lat": 50.0650435, "lon": 19.9403232}, {"type": "node", "id": 3010751484, "lat": 50.065146, "lon": 19.9399434}, {"type": "node", "id": 3010751485, "lat": 50.0651465, "lon": 19.9399387}, {"type": "node", "id": 3010751497, "lat": 50.0653145, "lon": 19.9414795}, {"type": "node", "id": 3010751498, "lat": 50.065317, "lon": 19.9414673}, {"type": "node", "id": 3010751502, "lat": 50.0653335, "lon": 19.94164}, {"type": "node", "id": 3010751508, "lat": 50.0653633, "lon": 19.9414873}, {"type": "node", "id": 3010764265, "lat": 50.0647738, "lon": 19.9403689}, {"type": "node", "id": 3010765923, "lat": 50.064825, "lon": 19.9400756}, {"type": "node", "id": 3010765924, "lat": 50.0648253, "lon": 19.9400658}, {"type": "node", "id": 3010766148, "lat": 50.0648274, "lon": 19.9400759}, {"type": "node", "id": 3010766150, "lat": 50.0648281, "lon": 19.9400656}, {"type": "node", "id": 3010766155, "lat": 50.0648391, "lon": 19.940381}, {"type": "node", "id": 3010766161, "lat": 50.0648424, "lon": 19.940385}, {"type": "node", "id": 3010766163, "lat": 50.0648493, "lon": 19.9403908}, {"type": "node", "id": 3010766169, "lat": 50.0648903, "lon": 19.9403954}, {"type": "node", "id": 3010766170, "lat": 50.0648904, "lon": 19.9403992}, {"type": "node", "id": 3010766873, "lat": 50.0648231, "lon": 19.9401255}, {"type": "node", "id": 3010766874, "lat": 50.0648231, "lon": 19.9401353}, {"type": "node", "id": 3010766876, "lat": 50.0648254, "lon": 19.9401351}, {"type": "node", "id": 3010766877, "lat": 50.064826, "lon": 19.9401247}, {"type": "node", "id": 3010766930, "lat": 50.0648355, "lon": 19.9399825}, {"type": "node", "id": 3010766931, "lat": 50.0648376, "lon": 19.9403815}, {"type": "node", "id": 3010766980, "lat": 50.0648395, "lon": 19.9403857}, {"type": "node", "id": 3010766982, "lat": 50.0648495, "lon": 19.9403866}, {"type": "node", "id": 3010766984, "lat": 50.0648971, "lon": 19.9404}, {"type": "node", "id": 3010767178, "lat": 50.0648326, "lon": 19.940255}, {"type": "node", "id": 3010767179, "lat": 50.0648327, "lon": 19.9402651}, {"type": "node", "id": 3010767435, "lat": 50.0648427, "lon": 19.9403898}, {"type": "node", "id": 3010767689, "lat": 50.0649361, "lon": 19.9404077}, {"type": "node", "id": 3010767840, "lat": 50.0649761, "lon": 19.940653}, {"type": "node", "id": 3010767843, "lat": 50.0649812, "lon": 19.9404123}, {"type": "node", "id": 3010767844, "lat": 50.0649819, "lon": 19.9406558}, {"type": "node", "id": 3010767845, "lat": 50.0649837, "lon": 19.9406172}, {"type": "node", "id": 3010767848, "lat": 50.0649871, "lon": 19.9404172}, {"type": "node", "id": 3010767849, "lat": 50.0649873, "lon": 19.940413}, {"type": "node", "id": 3010767850, "lat": 50.0649902, "lon": 19.9406209}, {"type": "node", "id": 3010767851, "lat": 50.0649921, "lon": 19.9404149}, {"type": "node", "id": 3010767853, "lat": 50.0649943, "lon": 19.9405667}, {"type": "node", "id": 3010767856, "lat": 50.0650018, "lon": 19.9403627}, {"type": "node", "id": 3010767859, "lat": 50.0650066, "lon": 19.9403644}, {"type": "node", "id": 3010767862, "lat": 50.0650132, "lon": 19.9403091}, {"type": "node", "id": 3010767870, "lat": 50.0650327, "lon": 19.9403768}, {"type": "node", "id": 3010767874, "lat": 50.0650228, "lon": 19.9407084}, {"type": "node", "id": 3010767876, "lat": 50.0650472, "lon": 19.9403252}, {"type": "node", "id": 3010767886, "lat": 50.0650582, "lon": 19.9400913}, {"type": "node", "id": 3010767891, "lat": 50.065121, "lon": 19.9399443}, {"type": "node", "id": 3010767894, "lat": 50.0651286, "lon": 19.9399475}, {"type": "node", "id": 3010767895, "lat": 50.0651312, "lon": 19.9399323}, {"type": "node", "id": 3010768847, "lat": 50.065113, "lon": 19.9399669}, {"type": "node", "id": 3010768848, "lat": 50.0651168, "lon": 19.9399685}, {"type": "node", "id": 3010768860, "lat": 50.0651957, "lon": 19.939972}, {"type": "node", "id": 3010768861, "lat": 50.0651967, "lon": 19.9399647}, {"type": "node", "id": 3010769438, "lat": 50.0652486, "lon": 19.9399937}, {"type": "node", "id": 3010769448, "lat": 50.0652889, "lon": 19.9416052}, {"type": "node", "id": 3010769449, "lat": 50.0653015, "lon": 19.9415432, "tags": {"barrier": "sally_port"}}, {"type": "node", "id": 3010769938, "lat": 50.0653157, "lon": 19.9415504}, {"type": "node", "id": 3010770044, "lat": 50.0653738, "lon": 19.9414918}, {"type": "node", "id": 3010770046, "lat": 50.0654039, "lon": 19.9418018}, {"type": "node", "id": 3010770061, "lat": 50.0656162, "lon": 19.9415058}, {"type": "node", "id": 3010770402, "lat": 50.0653438, "lon": 19.9416447}, {"type": "node", "id": 3010770809, "lat": 50.065418, "lon": 19.9418176}, {"type": "node", "id": 3010771443, "lat": 50.0655698, "lon": 19.9414394}, {"type": "node", "id": 3010771605, "lat": 50.0655688, "lon": 19.9415248, "tags": {"barrier": "sally_port"}}, {"type": "node", "id": 3010771767, "lat": 50.0656237, "lon": 19.9415185}, {"type": "node", "id": 3010771856, "lat": 50.0655784, "lon": 19.9414502}, {"type": "node", "id": 3037295904, "lat": 50.0633786, "lon": 19.9283095}, {"type": "node", "id": 3037295905, "lat": 50.0633806, "lon": 19.928309}, {"type": "node", "id": 3037295906, "lat": 50.0633833, "lon": 19.9283391}, {"type": "node", "id": 3037322431, "lat": 50.0631311, "lon": 19.9283485}, {"type": "node", "id": 3037322432, "lat": 50.0631319, "lon": 19.9283638}, {"type": "node", "id": 3037325375, "lat": 50.0632219, "lon": 19.9283467}, {"type": "node", "id": 3037326241, "lat": 50.0631273, "lon": 19.928285}, {"type": "node", "id": 3037326255, "lat": 50.063387, "lon": 19.928563}, {"type": "node", "id": 3037326260, "lat": 50.0633955, "lon": 19.9284884}, {"type": "node", "id": 3037326263, "lat": 50.0634007, "lon": 19.9285606}, {"type": "node", "id": 3037326415, "lat": 50.0632222, "lon": 19.9283491}, {"type": "node", "id": 3037326432, "lat": 50.0632974, "lon": 19.9283551}, {"type": "node", "id": 3037326452, "lat": 50.0631889, "lon": 19.9283869}, {"type": "node", "id": 3037326453, "lat": 50.0631899, "lon": 19.928402}, {"type": "node", "id": 3037326454, "lat": 50.0631901, "lon": 19.9282727}, {"type": "node", "id": 3037326455, "lat": 50.0631933, "lon": 19.9284016}, {"type": "node", "id": 3037326457, "lat": 50.0631983, "lon": 19.9283856}, {"type": "node", "id": 3037326458, "lat": 50.0631991, "lon": 19.9283918}, {"type": "node", "id": 3037326459, "lat": 50.0631998, "lon": 19.9285858}, {"type": "node", "id": 3037326460, "lat": 50.0632004, "lon": 19.9285949}, {"type": "node", "id": 3037326464, "lat": 50.063207, "lon": 19.9285847}, {"type": "node", "id": 3037326472, "lat": 50.0632587, "lon": 19.9283232}, {"type": "node", "id": 3037326475, "lat": 50.0632593, "lon": 19.9283406}, {"type": "node", "id": 3037326523, "lat": 50.0632942, "lon": 19.9283176}, {"type": "node", "id": 3037326530, "lat": 50.0632993, "lon": 19.9283763}, {"type": "node", "id": 3037326635, "lat": 50.063397, "lon": 19.9284881}, {"type": "node", "id": 3071745586, "lat": 50.050641, "lon": 19.9314717}, {"type": "node", "id": 3071745587, "lat": 50.0506953, "lon": 19.9314518}, {"type": "node", "id": 3071745588, "lat": 50.0507491, "lon": 19.9314513}, {"type": "node", "id": 3071745590, "lat": 50.0509128, "lon": 19.931523}, {"type": "node", "id": 3071745591, "lat": 50.0509758, "lon": 19.931865}, {"type": "node", "id": 3071746349, "lat": 50.0504807, "lon": 19.9315733}, {"type": "node", "id": 3071746350, "lat": 50.0506599, "lon": 19.9314624}, {"type": "node", "id": 3071746351, "lat": 50.050713, "lon": 19.9314496}, {"type": "node", "id": 3071746352, "lat": 50.0507629, "lon": 19.9314543}, {"type": "node", "id": 3071746354, "lat": 50.0509569, "lon": 19.9315278}, {"type": "node", "id": 3071746355, "lat": 50.0509866, "lon": 19.9319034}, {"type": "node", "id": 3071746356, "lat": 50.0511884, "lon": 19.9314127}, {"type": "node", "id": 3071746357, "lat": 50.0512689, "lon": 19.9317316}, {"type": "node", "id": 3071747067, "lat": 50.050525, "lon": 19.9316862}, {"type": "node", "id": 3071747068, "lat": 50.0506775, "lon": 19.9314561}, {"type": "node", "id": 3071747069, "lat": 50.0507309, "lon": 19.9314493}, {"type": "node", "id": 3071747070, "lat": 50.0507799, "lon": 19.9314608}, {"type": "node", "id": 3071747071, "lat": 50.0509057, "lon": 19.9314994}, {"type": "node", "id": 3074942105, "lat": 50.0505277, "lon": 19.9316873}, {"type": "node", "id": 3080530184, "lat": 50.0641353, "lon": 19.9350253}, {"type": "node", "id": 3080535262, "lat": 50.064122, "lon": 19.9350458}, {"type": "node", "id": 3080535398, "lat": 50.0638973, "lon": 19.9349788}, {"type": "node", "id": 3080535577, "lat": 50.0638113, "lon": 19.9348954}, {"type": "node", "id": 3080535592, "lat": 50.0638954, "lon": 19.9349835}, {"type": "node", "id": 3080535595, "lat": 50.0639088, "lon": 19.9346526}, {"type": "node", "id": 3080535614, "lat": 50.0639947, "lon": 19.934736}, {"type": "node", "id": 3080535622, "lat": 50.0641256, "lon": 19.9350495}, {"type": "node", "id": 3080535807, "lat": 50.0639894, "lon": 19.9350741}, {"type": "node", "id": 3080535809, "lat": 50.0639913, "lon": 19.9350694}, {"type": "node", "id": 3080535810, "lat": 50.0639966, "lon": 19.9347313}, {"type": "node", "id": 3080535824, "lat": 50.0640812, "lon": 19.9351571}, {"type": "node", "id": 3080535830, "lat": 50.0641316, "lon": 19.9350219}, {"type": "node", "id": 3080535992, "lat": 50.0640892, "lon": 19.9348284}, {"type": "node", "id": 3080535993, "lat": 50.0640911, "lon": 19.9348236}, {"type": "node", "id": 3080536035, "lat": 50.0641791, "lon": 19.934916}, {"type": "node", "id": 3086297215, "lat": 50.0575196, "lon": 19.9365636}, {"type": "node", "id": 3086298995, "lat": 50.0576744, "lon": 19.9358087}, {"type": "node", "id": 3086298996, "lat": 50.0576792, "lon": 19.9358079}, {"type": "node", "id": 3086299096, "lat": 50.0571738, "lon": 19.9362906}, {"type": "node", "id": 3086299101, "lat": 50.0571992, "lon": 19.9365003}, {"type": "node", "id": 3086299102, "lat": 50.0572, "lon": 19.936515}, {"type": "node", "id": 3086300544, "lat": 50.0578487, "lon": 19.9359007}, {"type": "node", "id": 3121326398, "lat": 50.0426558, "lon": 19.9609464}, {"type": "node", "id": 3121326400, "lat": 50.0426573, "lon": 19.960938}, {"type": "node", "id": 3121331359, "lat": 50.0423762, "lon": 19.961025}, {"type": "node", "id": 3121331365, "lat": 50.0424474, "lon": 19.9611735}, {"type": "node", "id": 3121331366, "lat": 50.0424567, "lon": 19.9609245}, {"type": "node", "id": 3121331367, "lat": 50.0425031, "lon": 19.960874}, {"type": "node", "id": 3121331368, "lat": 50.0425071, "lon": 19.9608738}, {"type": "node", "id": 3121331373, "lat": 50.0425869, "lon": 19.960788}, {"type": "node", "id": 3121331374, "lat": 50.0425921, "lon": 19.9607909}, {"type": "node", "id": 3121331491, "lat": 50.0423772, "lon": 19.9610169}, {"type": "node", "id": 3121331497, "lat": 50.0424425, "lon": 19.9611717}, {"type": "node", "id": 3121331498, "lat": 50.0424559, "lon": 19.9609328}, {"type": "node", "id": 3121331509, "lat": 50.0426322, "lon": 19.960881}, {"type": "node", "id": 3129551719, "lat": 50.076729, "lon": 19.9902721, "tags": {"barrier": "gate"}}, {"type": "node", "id": 3129788193, "lat": 50.0771715, "lon": 19.9894097}, {"type": "node", "id": 3129788194, "lat": 50.0772283, "lon": 19.9892504}, {"type": "node", "id": 3129788195, "lat": 50.0785647, "lon": 19.9898927}, {"type": "node", "id": 3138384514, "lat": 50.0773262, "lon": 19.9937844}, {"type": "node", "id": 3278946135, "lat": 50.0643787, "lon": 19.9402262}, {"type": "node", "id": 3278948515, "lat": 50.0646153, "lon": 19.9397808}, {"type": "node", "id": 3278948539, "lat": 50.064662, "lon": 19.9398284}, {"type": "node", "id": 3278948540, "lat": 50.0646624, "lon": 19.9398258}, {"type": "node", "id": 3278948555, "lat": 50.0646683, "lon": 19.9398298}, {"type": "node", "id": 3278948753, "lat": 50.0645912, "lon": 19.9403248}, {"type": "node", "id": 3278949835, "lat": 50.0647283, "lon": 19.9398629}, {"type": "node", "id": 3278949839, "lat": 50.0647335, "lon": 19.93987}, {"type": "node", "id": 3278949840, "lat": 50.0647336, "lon": 19.9398658}, {"type": "node", "id": 3278949844, "lat": 50.0647371, "lon": 19.9398718}, {"type": "node", "id": 3278949845, "lat": 50.0647378, "lon": 19.9398783}, {"type": "node", "id": 3278949846, "lat": 50.0647384, "lon": 19.9398883}, {"type": "node", "id": 3278949847, "lat": 50.0647403, "lon": 19.9398778}, {"type": "node", "id": 3278949848, "lat": 50.064741, "lon": 19.9398876}, {"type": "node", "id": 3278949849, "lat": 50.064742, "lon": 19.9399371}, {"type": "node", "id": 3278949851, "lat": 50.0647498, "lon": 19.9400504}, {"type": "node", "id": 3278949852, "lat": 50.0647505, "lon": 19.9400615}, {"type": "node", "id": 3278949853, "lat": 50.0647522, "lon": 19.9400506}, {"type": "node", "id": 3278949854, "lat": 50.0647531, "lon": 19.9400603}, {"type": "node", "id": 3278949856, "lat": 50.0647585, "lon": 19.9401655}, {"type": "node", "id": 3278949857, "lat": 50.0647589, "lon": 19.9401754}, {"type": "node", "id": 3278949858, "lat": 50.064761, "lon": 19.9401657}, {"type": "node", "id": 3278949859, "lat": 50.0647611, "lon": 19.9402043}, {"type": "node", "id": 3278949860, "lat": 50.0647614, "lon": 19.940175}, {"type": "node", "id": 3278950964, "lat": 50.064584, "lon": 19.9397578}, {"type": "node", "id": 3278950966, "lat": 50.0645901, "lon": 19.9397603}, {"type": "node", "id": 3278951012, "lat": 50.0646673, "lon": 19.9398336}, {"type": "node", "id": 3278951077, "lat": 50.0644758, "lon": 19.9402657}, {"type": "node", "id": 3278951100, "lat": 50.0645406, "lon": 19.9397189}, {"type": "node", "id": 3278951106, "lat": 50.0645655, "lon": 19.9397394}, {"type": "node", "id": 3278951112, "lat": 50.0645849, "lon": 19.9397556}, {"type": "node", "id": 3278951114, "lat": 50.0645893, "lon": 19.9397628}, {"type": "node", "id": 3278951164, "lat": 50.0644394, "lon": 19.9402399}, {"type": "node", "id": 3278951199, "lat": 50.0645599, "lon": 19.9397349}, {"type": "node", "id": 3278951200, "lat": 50.0645647, "lon": 19.9397418}, {"type": "node", "id": 3278951204, "lat": 50.0646093, "lon": 19.9397785}, {"type": "node", "id": 3278951274, "lat": 50.0644774, "lon": 19.9402606}, {"type": "node", "id": 3278951285, "lat": 50.0645349, "lon": 19.9397143}, {"type": "node", "id": 3278951296, "lat": 50.0645399, "lon": 19.939721}, {"type": "node", "id": 3278951300, "lat": 50.0645591, "lon": 19.9397372}, {"type": "node", "id": 3278951321, "lat": 50.0646102, "lon": 19.9397761}, {"type": "node", "id": 3278951366, "lat": 50.0646139, "lon": 19.939786}, {"type": "node", "id": 3278951379, "lat": 50.0646172, "lon": 19.9397921}, {"type": "node", "id": 3278951380, "lat": 50.0646179, "lon": 19.9397893}, {"type": "node", "id": 3278951479, "lat": 50.0646975, "lon": 19.9398461}, {"type": "node", "id": 3278951480, "lat": 50.0647027, "lon": 19.9398536}, {"type": "node", "id": 3278951482, "lat": 50.0647271, "lon": 19.9398662}, {"type": "node", "id": 3278951484, "lat": 50.0647663, "lon": 19.9402428}, {"type": "node", "id": 3278951565, "lat": 50.0646966, "lon": 19.9398492}, {"type": "node", "id": 3278951567, "lat": 50.0647037, "lon": 19.9398493}, {"type": "node", "id": 3278951582, "lat": 50.0647428, "lon": 19.9399464}, {"type": "node", "id": 3278951584, "lat": 50.0647444, "lon": 19.9399367}, {"type": "node", "id": 3278951585, "lat": 50.0647451, "lon": 19.9399459}, {"type": "node", "id": 3278951661, "lat": 50.0647634, "lon": 19.9402333}, {"type": "node", "id": 3278951662, "lat": 50.0647638, "lon": 19.9402431}, {"type": "node", "id": 3278951663, "lat": 50.0647659, "lon": 19.9402336}, {"type": "node", "id": 3279106652, "lat": 50.0638222, "lon": 19.9411954}, {"type": "node", "id": 3279111802, "lat": 50.0637311, "lon": 19.941276}, {"type": "node", "id": 3279111803, "lat": 50.0637362, "lon": 19.9412802}, {"type": "node", "id": 3279111804, "lat": 50.0637552, "lon": 19.9412965}, {"type": "node", "id": 3279111805, "lat": 50.0637602, "lon": 19.9413002}, {"type": "node", "id": 3279111806, "lat": 50.0637608, "lon": 19.9411105}, {"type": "node", "id": 3279111808, "lat": 50.0637831, "lon": 19.9413174}, {"type": "node", "id": 3279112036, "lat": 50.0637801, "lon": 19.9413153}, {"type": "node", "id": 3279112077, "lat": 50.0637607, "lon": 19.9412986}, {"type": "node", "id": 3279112178, "lat": 50.0638465, "lon": 19.9411125}, {"type": "node", "id": 3279112467, "lat": 50.0637302, "lon": 19.9412777}, {"type": "node", "id": 3279112469, "lat": 50.0637354, "lon": 19.9412818}, {"type": "node", "id": 3279112471, "lat": 50.0637558, "lon": 19.9412947}, {"type": "node", "id": 3279112473, "lat": 50.0637808, "lon": 19.9413132}, {"type": "node", "id": 3279112474, "lat": 50.0637879, "lon": 19.9410395}, {"type": "node", "id": 3442928120, "lat": 49.9980775, "lon": 19.9162339}, {"type": "node", "id": 3442928197, "lat": 49.9980041, "lon": 19.9172989}, {"type": "node", "id": 3442928198, "lat": 49.9979538, "lon": 19.9161812}, {"type": "node", "id": 3442928205, "lat": 49.9979609, "lon": 19.9168964}, {"type": "node", "id": 3450772834, "lat": 50.0817511, "lon": 20.0551397}, {"type": "node", "id": 3450774262, "lat": 50.0818072, "lon": 20.0554445}, {"type": "node", "id": 3450774267, "lat": 50.0818286, "lon": 20.0554306}, {"type": "node", "id": 3450774818, "lat": 50.0818292, "lon": 20.0555272}, {"type": "node", "id": 3450774829, "lat": 50.0819218, "lon": 20.0554674}, {"type": "node", "id": 3450775051, "lat": 50.0818558, "lon": 20.0550719}, {"type": "node", "id": 3450775056, "lat": 50.0818911, "lon": 20.0553521}, {"type": "node", "id": 3450775060, "lat": 50.0819247, "lon": 20.0553303}, {"type": "node", "id": 3486987459, "lat": 50.0653183, "lon": 19.9492225}, {"type": "node", "id": 3486987474, "lat": 50.0655198, "lon": 19.9494535}, {"type": "node", "id": 3486987475, "lat": 50.0655598, "lon": 19.9494787}, {"type": "node", "id": 3486987509, "lat": 50.0652179, "lon": 19.9493732}, {"type": "node", "id": 3486987718, "lat": 50.0656789, "lon": 19.9493486}, {"type": "node", "id": 3486987858, "lat": 50.0654007, "lon": 19.9494243}, {"type": "node", "id": 3486987863, "lat": 50.0656084, "lon": 19.9495017}, {"type": "node", "id": 3486988097, "lat": 50.0654012, "lon": 19.9494206}, {"type": "node", "id": 3486988098, "lat": 50.0654183, "lon": 19.9492467}, {"type": "node", "id": 3486988112, "lat": 50.0655191, "lon": 19.9494575}, {"type": "node", "id": 3486988114, "lat": 50.0655476, "lon": 19.9492882}, {"type": "node", "id": 3486988118, "lat": 50.0655601, "lon": 19.9494765}, {"type": "node", "id": 3486988123, "lat": 50.0656089, "lon": 19.9494997}, {"type": "node", "id": 3486988124, "lat": 50.0656502, "lon": 19.9495184}, {"type": "node", "id": 3486992850, "lat": 50.0724612, "lon": 19.9488988}, {"type": "node", "id": 3486996266, "lat": 50.0721681, "lon": 19.9485161}, {"type": "node", "id": 3486996275, "lat": 50.0723497, "lon": 19.9485498}, {"type": "node", "id": 3486997689, "lat": 50.0721859, "lon": 19.9485364}, {"type": "node", "id": 3486997691, "lat": 50.0721976, "lon": 19.948452}, {"type": "node", "id": 3486999299, "lat": 50.0722157, "lon": 19.9484705}, {"type": "node", "id": 3486999324, "lat": 50.0722809, "lon": 19.9487021}, {"type": "node", "id": 3487000293, "lat": 50.0725302, "lon": 19.9487439}, {"type": "node", "id": 3545259938, "lat": 50.0644028, "lon": 19.9573898, "tags": {"description:hu": "Paleobotanikai M\u00fazeum", "name": "Muzeum Paleobotaniczne UJ", "name:hu": "Jagell\u00f3 Egyetem \u0150sn\u00f6v\u00e9nytani M\u00fazeuma", "official_name": "Muzeum Paleobotaniczne Instytutu Botaniki Uniwersytetu Jagiello\u0144skiego", "start_date": "2003", "tourism": "museum", "website": "https://ib.uj.edu.pl/instytut/muzeum", "wikidata": "Q11787114", "wikipedia": "pl:Muzeum Paleobotaniczne Instytutu Botaniki UJ w Krakowie"}}, {"type": "node", "id": 3545259939, "lat": 50.0642399, "lon": 19.9577676, "tags": {"description:hu": "Herb\u00e1rium", "name": "Zielnik Uniwersytetu Jagiello\u0144skiego", "name:hu": "Jagell\u00f3 Egyetem N\u00f6v\u00e9nyt\u00e1ra", "official_name": "Herbarium Universitatis Iagellonicae Cracoviensis (KRA)", "start_date": "1780", "tourism": "museum", "website": "https://ib.uj.edu.pl/instytut/zielnik"}}, {"type": "node", "id": 3623200008, "lat": 50.0769338, "lon": 19.9938167}, {"type": "node", "id": 3988103830, "lat": 50.0546591, "lon": 19.9344961, "tags": {"addr:city": "Krak\u00f3w", "addr:housenumber": "2", "addr:place": "Zamek Wawel", "addr:postcode": "31-001", "fee": "yes", "name": "Muzeum Katedralne im. Jana Paw\u0142a II", "name:be": "\u041a\u0430\u0444\u0435\u0434\u0440\u0430\u043b\u044c\u043d\u044b \u043c\u0443\u0437\u0435\u0439 \u042f\u043d\u0430 \u041f\u0430\u045e\u043b\u0430 \u0406\u0406", "name:de": "Johann-Paul-II-Domsmuseum", "name:en": "John Paul II Cathedral Museum", "name:hr": "Katedralni muzej Ivana Pavla II.", "name:hu": "II. J\u00e1nos P\u00e1l Sz\u00e9kesegyh\u00e1zi M\u00fazeum", "name:pl": "Muzeum Katedralne im. Jana Paw\u0142a II", "name:ru": "\u041a\u0430\u0444\u0435\u0434\u0440\u0430\u043b\u044c\u043d\u044b\u0439 \u043c\u0443\u0437\u0435\u0439 \u0438\u043c\u0435\u043d\u0438 \u0418\u043e\u0430\u043d\u043d\u0430 \u041f\u0430\u0432\u043b\u0430 2", "opening_hours": "Nov-Mar Mo-Sa 09:00-16:00; Apr-Oct Mo-Sa 09:00-17:00; PH off", "phone": "+48 12 4293321", "start_date": "1978-09-28", "tourism": "museum", "website": "https://diecezja.pl/muzea-archidiecezji/muzeum-katedralne-na-wawelu/", "wikidata": "Q6944418", "wikipedia": "pl:Muzeum Katedralne im. Jana Paw\u0142a II na Wawelu"}}, {"type": "node", "id": 4002989037, "lat": 50.0641425, "lon": 19.9231397, "tags": {"addr:city": "Krak\u00f3w", "addr:housenumber": "30", "addr:postcode": "30-059", "addr:street": "Aleja Adama Mickiewicza", "fee": "no", "name": "Muzeum Geologiczne WGGiO\u015a AGH", "name:hu": "F\u00f6ldtani M\u00fazeum (M\u0171szaki Egyetem, Geol\u00f3giai Kar)", "operator": "Akademia G\u00f3rniczo-Hutnicza w Krakowie", "phone": "+48 606 510 084", "tourism": "museum", "website": "http://www.geol.agh.edu.pl/~muzeum/index.php", "wikidata": "Q11786979", "wikipedia": "pl:Muzeum Geologiczne Wydzia\u0142u Geologii Geofizyki i Ochrony \u015arodowiska AGH"}}, {"type": "node", "id": 4031826801, "lat": 50.061733, "lon": 19.9375856, "tags": {"addr:city": "Krak\u00f3w", "addr:housenumber": "3", "addr:postcode": "31-042", "addr:street": "Rynek G\u0142\u00f3wny", "fee": "yes", "fee:conditional": "no @ Sunday for unchanging expositions", "name": "Galeria Sztuki Polskiej XIX wieku", "name:en": "National Museum The Nineteenth Century Polish Art Gallery at the Sukiennice", "name:hu": "XIX. sz\u00e1zadi lengyel m\u0171v\u00e9szeti gal\u00e9ria", "name:ja": "\u7e54\u7269\u4f1a\u9928", "name:pl": "Galeria Sztuki Polskiej XIX wieku", "opening_hours": "Su 10:00-16:00; Th 10:00-20:00; Tu, We, Fr, Sa 10:00-18:00", "operator": "Muzeum Narodowe w Krakowie", "phone": "+48 12 433 54 00", "tourism": "museum", "website": "https://mnk.pl/oddzial/galeria-sztuki-polskiej/o-oddziale", "wheelchair": "yes", "wikidata": "Q7635861", "wikipedia": "pl:Galeria Sztuki Polskiej XIX wieku w Sukiennicach"}}, {"type": "node", "id": 4109275538, "lat": 50.0650197, "lon": 19.9403706, "tags": {"barrier": "gate"}}, {"type": "node", "id": 4109275539, "lat": 50.0650306, "lon": 19.9403173}, {"type": "node", "id": 4109275545, "lat": 50.0651188, "lon": 19.939957}, {"type": "node", "id": 4109417418, "lat": 50.0649166, "lon": 19.9403998, "tags": {"entrance": "main"}}, {"type": "node", "id": 4109417420, "lat": 50.0649861, "lon": 19.9406384, "tags": {"entrance": "main"}}, {"type": "node", "id": 4109464697, "lat": 50.064682, "lon": 19.9398414, "tags": {"entrance": "exit"}}, {"type": "node", "id": 4146768175, "lat": 50.0600098, "lon": 19.9304812}, {"type": "node", "id": 4146768176, "lat": 50.0600111, "lon": 19.9304908}, {"type": "node", "id": 4146768333, "lat": 50.0600752, "lon": 19.9304603}, {"type": "node", "id": 4146768336, "lat": 50.0601556, "lon": 19.9304347}, {"type": "node", "id": 4146802833, "lat": 50.0596833, "lon": 19.9305934}, {"type": "node", "id": 4146802838, "lat": 50.0601451, "lon": 19.9303721}, {"type": "node", "id": 4146820325, "lat": 50.0596653, "lon": 19.9299602}, {"type": "node", "id": 4146843722, "lat": 50.0600636, "lon": 19.9297999, "tags": {"barrier": "gate"}}, {"type": "node", "id": 4146843724, "lat": 50.0601504, "lon": 19.9304034, "tags": {"barrier": "gate"}}, {"type": "node", "id": 4273750770, "lat": 50.0759569, "lon": 19.9922844}, {"type": "node", "id": 4273750786, "lat": 50.0763604, "lon": 19.9908559}, {"type": "node", "id": 4277346772, "lat": 50.0768828, "lon": 19.9896521}, {"type": "node", "id": 4277346780, "lat": 50.076921, "lon": 19.9895548}, {"type": "node", "id": 4281228578, "lat": 50.0613744, "lon": 19.9417126, "tags": {"addr:city": "Krak\u00f3w", "addr:country": "PL", "addr:housenumber": "18", "addr:postcode": "31-027", "addr:street": "Miko\u0142ajska", "description:hu": "Maria Angela Truszkowska (1825\u201399) lengyel rendalap\u00edt\u00f3 szerzetesn\u0151", "email": "muzeum-mat@cssf.opoka.org.pl", "fax": "+48 12 4264740", "fee": "yes", "name": "Muzeum i Archiwum Marii Angeli Truszkowskiej", "name:hu": "Maria Angela Truszkowska M\u00fazeum \u00e9s Lev\u00e9lt\u00e1r", "opening_hours": "Tu 14:00-17:00; We-Fr 10:00-14:00", "operator": "Zgromadzenie Si\u00f3str Felicjanek", "phone": "+48 12 4264740", "start_date": "1999-10-11", "tourism": "museum", "website": "http://www.muzeum-mat.cssf.opoka.org.pl/", "wikidata": "Q11787298", "wikipedia": "pl:Muzeum i Archiwum b\u0142. Marii Angeli Truszkowskiej w Krakowie"}}, {"type": "node", "id": 4285260191, "lat": 50.0133713, "lon": 19.9367801, "tags": {"description": "Oddzia\u0142 Muzeum Archidiecezjalnego Kardyna\u0142a Karola Wojty\u0142y", "fee": "yes", "name": "Muzeum Jana Paw\u0142a II", "name:hu": "II. J\u00e1nos P\u00e1l P\u00e1pa M\u00fazeum", "note": "docelowo w budynku obok", "opening_hours": "Mo-Su 09:00-17:00", "tourism": "museum", "website": "https://mjanpawel2.pl/informacja/"}}, {"type": "node", "id": 4291849722, "lat": 50.0725291, "lon": 19.9437162}, {"type": "node", "id": 4291849724, "lat": 50.0725316, "lon": 19.9437071}, {"type": "node", "id": 4291849726, "lat": 50.0725328, "lon": 19.9437079}, {"type": "node", "id": 4291849727, "lat": 50.072535, "lon": 19.9437203}, {"type": "node", "id": 4291849729, "lat": 50.0725355, "lon": 19.9437183}, {"type": "node", "id": 4291849742, "lat": 50.0725526, "lon": 19.9437321}, {"type": "node", "id": 4291849743, "lat": 50.0725532, "lon": 19.9437303}, {"type": "node", "id": 4291849746, "lat": 50.0725585, "lon": 19.9437361}, {"type": "node", "id": 4291849747, "lat": 50.0725591, "lon": 19.9437341}, {"type": "node", "id": 4291849748, "lat": 50.0725621, "lon": 19.9435984}, {"type": "node", "id": 4291849749, "lat": 50.0725635, "lon": 19.9435993}, {"type": "node", "id": 4291849750, "lat": 50.0725646, "lon": 19.9435896}, {"type": "node", "id": 4291849754, "lat": 50.072569, "lon": 19.9435948}, {"type": "node", "id": 4291849755, "lat": 50.0725695, "lon": 19.943593}, {"type": "node", "id": 4291849764, "lat": 50.0725823, "lon": 19.9436039}, {"type": "node", "id": 4291849783, "lat": 50.0726282, "lon": 19.9437834}, {"type": "node", "id": 4291849784, "lat": 50.0726287, "lon": 19.9437817}, {"type": "node", "id": 4291849788, "lat": 50.0726341, "lon": 19.9437874}, {"type": "node", "id": 4291849789, "lat": 50.0726346, "lon": 19.9437856}, {"type": "node", "id": 4291849793, "lat": 50.0726514, "lon": 19.9437992}, {"type": "node", "id": 4291849794, "lat": 50.0726519, "lon": 19.9437974}, {"type": "node", "id": 4291849799, "lat": 50.0726572, "lon": 19.9438032}, {"type": "node", "id": 4291849801, "lat": 50.0726584, "lon": 19.9437945}, {"type": "node", "id": 4291849805, "lat": 50.0726595, "lon": 19.9437953}, {"type": "node", "id": 4291849812, "lat": 50.0726742, "lon": 19.9436674}, {"type": "node", "id": 4291849815, "lat": 50.0726835, "lon": 19.9431698}, {"type": "node", "id": 4291849818, "lat": 50.072686, "lon": 19.943161}, {"type": "node", "id": 4291849820, "lat": 50.0726873, "lon": 19.9431619}, {"type": "node", "id": 4291849821, "lat": 50.0726874, "lon": 19.9436764}, {"type": "node", "id": 4291849822, "lat": 50.0726879, "lon": 19.9436744}, {"type": "node", "id": 4291849823, "lat": 50.0726885, "lon": 19.9431733}, {"type": "node", "id": 4291849824, "lat": 50.0726891, "lon": 19.9431714}, {"type": "node", "id": 4291849825, "lat": 50.0726893, "lon": 19.9436847}, {"type": "node", "id": 4291849826, "lat": 50.0726907, "lon": 19.9436856}, {"type": "node", "id": 4291849827, "lat": 50.0726929, "lon": 19.9436778}, {"type": "node", "id": 4291849833, "lat": 50.0727019, "lon": 19.9431802}, {"type": "node", "id": 4291849844, "lat": 50.0727165, "lon": 19.9430528}, {"type": "node", "id": 4291849845, "lat": 50.0727178, "lon": 19.9430537}, {"type": "node", "id": 4291849846, "lat": 50.0727191, "lon": 19.9430436}, {"type": "node", "id": 4291849848, "lat": 50.0727235, "lon": 19.9430489}, {"type": "node", "id": 4291849849, "lat": 50.0727241, "lon": 19.943047}, {"type": "node", "id": 4291849869, "lat": 50.0727595, "lon": 19.9430736}, {"type": "node", "id": 4291849870, "lat": 50.07276, "lon": 19.9430717}, {"type": "node", "id": 4291849875, "lat": 50.0727653, "lon": 19.9430776}, {"type": "node", "id": 4291849876, "lat": 50.0727658, "lon": 19.9430757}, {"type": "node", "id": 4291849885, "lat": 50.0727941, "lon": 19.9432425}, {"type": "node", "id": 4291849888, "lat": 50.0728004, "lon": 19.9431017}, {"type": "node", "id": 4291849889, "lat": 50.0728009, "lon": 19.9430999}, {"type": "node", "id": 4291849891, "lat": 50.0728053, "lon": 19.9431052}, {"type": "node", "id": 4291849892, "lat": 50.0728058, "lon": 19.9431032}, {"type": "node", "id": 4291849893, "lat": 50.0728066, "lon": 19.9432534}, {"type": "node", "id": 4291849894, "lat": 50.0728072, "lon": 19.9432515}, {"type": "node", "id": 4291849896, "lat": 50.0728116, "lon": 19.9432569}, {"type": "node", "id": 4291849898, "lat": 50.0728124, "lon": 19.9432481}, {"type": "node", "id": 4291849899, "lat": 50.0728138, "lon": 19.9432491}, {"type": "node", "id": 4291849912, "lat": 50.0728413, "lon": 19.9431298}, {"type": "node", "id": 4291849913, "lat": 50.0728418, "lon": 19.9431278}, {"type": "node", "id": 4291849914, "lat": 50.0728434, "lon": 19.9431383}, {"type": "node", "id": 4291849915, "lat": 50.0728446, "lon": 19.9431391}, {"type": "node", "id": 4291849916, "lat": 50.0728468, "lon": 19.9431312}, {"type": "node", "id": 4443337491, "lat": 50.0706881, "lon": 19.9249265, "tags": {"fee": "yes", "fee:conditional": "no @ We", "museum": "history", "name": "Ulica Pomorska", "name:en": "Pomorska Street", "name:hu": "Pomorska utca", "name:pl": "Ulica Pomorska", "opening_hours": "Apr-Oct: Mo-Su 10:00-17:30; Nov-Mar: Mo-Tu off; We-Su 10:00-17:00", "tourism": "museum", "website": "https://muzeumkrakowa.pl/oddzialy/ulica-pomorska", "wikidata": "Q5101500", "wikipedia": "pl:Muzeum Historyczne Miasta Krakowa"}}, {"type": "node", "id": 4817320821, "lat": 50.0590085, "lon": 19.9257049, "tags": {"addr:postcode": "31-111", "email": "info@stainedglass.pl", "name": "Muzeum Witra\u017cu w Krakowie", "name:en": "Krakow Workshop and Stained Glass Museum", "name:hu": "Krakk\u00f3i \u00d3lom\u00fcvegablak-m\u00fazeum \u00e9s -m\u0171hely", "name:pl": "Muzeum Witra\u017cu w Krakowie", "opening_hours": "Tu-Sa 11:30-18:00", "phone": "+48 512 937 979", "tourism": "museum", "website": "http://muzeumwitrazu.pl", "wikidata": "Q6944430", "wikipedia": "pl:Muzeum Witra\u017cu w Krakowie"}}, {"type": "node", "id": 5199949834, "lat": 50.0666305, "lon": 19.9408143, "tags": {"addr:city": "Krak\u00f3w", "addr:housenumber": "4", "addr:postcode": "31-157", "addr:street": "Ignacego Jana Paderewskiego", "description:hu": "A krakk\u00f3i perec (\u201eObwarzanek krakowski\u201d) m\u00fazeuma", "fee": "yes", "name": "\u017bywe Muzeum Obwarzanka", "name:hu": "\u00c9l\u0151 Perecm\u00fazeum", "name:pl": "\u017bywe Muzeum Obwarzanka", "opening_hours": "Mo-Th 10:00-16:00; Fr-Su 09:30-17:30", "operator:type": "private", "phone": "+48 12 357 73 22; +48 662 101 909", "tourism": "museum", "website": "https://www.muzeumobwarzanka.com/", "wheelchair": "no"}}, {"type": "node", "id": 5751039807, "lat": 50.0617966, "lon": 19.9459505, "tags": {"charge": "7 z\u0142", "email": "mburbani@cyf-kr.edu.pl", "fee": "yes", "name": "Muzeum Anatomii", "name:en": "Museum of Anatomy", "name:hu": "Orvosl\u00e1st\u00f6rt\u00e9neti M\u00fazeum", "official_name": "Muzeum Katedry Anatomii Uniwersytetu Jagiello\u0144skiego Collegium Medicum", "tourism": "museum", "website": "http://katedra-anatomii.cm-uj.krakow.pl/o-katedrze/muzeum-katedry/", "wikidata": "Q11787260", "wikipedia": "pl:Muzeum Wydzia\u0142u Lekarskiego UJ"}}, {"type": "node", "id": 6016422954, "lat": 50.0495689, "lon": 19.9465164}, {"type": "node", "id": 6016422955, "lat": 50.0495167, "lon": 19.9465551}, {"type": "node", "id": 6077795785, "lat": 50.0652768, "lon": 19.9493899}, {"type": "node", "id": 6077795788, "lat": 50.065323, "lon": 19.9494024}, {"type": "node", "id": 6304273514, "lat": 50.042646, "lon": 19.9609126}, {"type": "node", "id": 6361414404, "lat": 50.0680611, "lon": 20.01472, "tags": {"addr:city": "Krak\u00f3w", "addr:housenumber": "41A", "addr:postcode": "31-586", "addr:street": "Centralna", "email": "fun@krakowarcademuseum.com", "fee": "yes", "museum": "technology", "name": "Krak\u00f3w Arcade Museum - Interaktywne muzeum gier wideo", "opening_hours": "Mo,We-Fr 14:00-21:00; Tu 14:00-20:00; Sa 11:00-22:00; Su 11:00-20:00", "phone": "+48 509 031 898", "start_date": "2019-03-24", "tourism": "museum", "website": "https://www.krakowarcademuseum.com//", "wheelchair": "no"}}, {"type": "node", "id": 6500997624, "lat": 50.0581927, "lon": 19.923798}, {"type": "node", "id": 6514751638, "lat": 50.0475227, "lon": 19.9617119}, {"type": "node", "id": 6514751646, "lat": 50.0482299, "lon": 19.9617624}, {"type": "node", "id": 6514751647, "lat": 50.0481808, "lon": 19.9617493}, {"type": "node", "id": 6514751648, "lat": 50.0481414, "lon": 19.9610708}, {"type": "node", "id": 6514751649, "lat": 50.0481136, "lon": 19.9610586}, {"type": "node", "id": 6514751650, "lat": 50.0475362, "lon": 19.9607481}, {"type": "node", "id": 6514826232, "lat": 50.0599686, "lon": 19.9305119}, {"type": "node", "id": 6514826233, "lat": 50.0599681, "lon": 19.9305082}, {"type": "node", "id": 6514826234, "lat": 50.0599057, "lon": 19.9305269}, {"type": "node", "id": 6649526774, "lat": 50.0494041, "lon": 19.9481258}, {"type": "node", "id": 6680055026, "lat": 50.0482382, "lon": 19.9617155, "tags": {"amenity": "parking_entrance", "parking": "underground"}}, {"type": "node", "id": 6732338597, "lat": 50.0472907, "lon": 19.9513049, "tags": {"fee": "yes", "fee:conditional": "no @ We", "name": "Cricoteka", "official_name": "O\u015brodek Dokumentacji Sztuki Tadeusza Kantora CRICOTEKA", "official_name:en": "Centre for Documentation of the Art of Tadeusz Kantor CRICOTEKA", "tourism": "museum", "website": "www.cricoteka.pl", "wikidata": "Q11691646", "wikipedia": "pl:O\u015brodek Dokumentacji Sztuki Tadeusza Kantora Cricoteka"}}, {"type": "node", "id": 6778356149, "lat": 50.068405, "lon": 20.135178}, {"type": "node", "id": 6778356150, "lat": 50.06839, "lon": 20.13502}, {"type": "node", "id": 6778356151, "lat": 50.068416, "lon": 20.135011}, {"type": "node", "id": 6778356152, "lat": 50.068407, "lon": 20.134967}, {"type": "node", "id": 6778356153, "lat": 50.068437, "lon": 20.134956}, {"type": "node", "id": 6778356154, "lat": 50.068445, "lon": 20.135001}, {"type": "node", "id": 6778356155, "lat": 50.06847, "lon": 20.134993}, {"type": "node", "id": 6778356156, "lat": 50.068493, "lon": 20.135154}, {"type": "node", "id": 6778356169, "lat": 50.0689329, "lon": 20.1346457}, {"type": "node", "id": 6778356170, "lat": 50.0688215, "lon": 20.1346825}, {"type": "node", "id": 6778356171, "lat": 50.0687676, "lon": 20.1342839}, {"type": "node", "id": 6778356172, "lat": 50.068776, "lon": 20.1342813}, {"type": "node", "id": 6778356173, "lat": 50.0687619, "lon": 20.1341774}, {"type": "node", "id": 6778356174, "lat": 50.0688568, "lon": 20.1341451}, {"type": "node", "id": 6778356175, "lat": 50.0688712, "lon": 20.1342497}, {"type": "node", "id": 6778356176, "lat": 50.0688792, "lon": 20.1342471}, {"type": "node", "id": 6782613531, "lat": 50.0684747, "lon": 20.1350257, "tags": {"entrance": "main"}}, {"type": "node", "id": 6958500807, "lat": 50.0660335, "lon": 19.9222029, "tags": {"addr:city": "Krak\u00f3w", "addr:housenumber": "30", "addr:postcode": "30-059", "addr:street": "Aleja Adama Mickiewicza", "name": "Muzeum AGH", "operator": "Akademia G\u00f3rniczo-Hutnicza w Krakowie", "tourism": "museum", "website": "https://historia.agh.edu.pl/wiki/Muzeum_AGH", "wikidata": "Q11786993", "wikipedia": "pl:Muzeum Historii AGH i Historii Techniki"}}, {"type": "node", "id": 7056586723, "lat": 50.0750629, "lon": 19.9331892, "tags": {"addr:city": "Krak\u00f3w", "addr:housenumber": "8", "addr:postcode": "30-006", "addr:street": "Wroc\u0142awska", "email": "rezerwacje@muzeumelektroniki.pl", "fee": "yes", "name": "Muzeum Elektroniki", "opening_hours": "Mo-Fr 10:00-18:00; Sa 10:00-14:00", "opening_hours:signed": "no", "phone": "+48 532 798 799", "tourism": "museum", "website": "http://www.muzeumelektroniki.pl", "wheelchair": "limited"}}, {"type": "node", "id": 7219309635, "lat": 50.0510408, "lon": 19.931503, "tags": {"entrance": "main"}}, {"type": "node", "id": 7537692560, "lat": 50.0878205, "lon": 19.8779841, "tags": {"entrance": "main"}}, {"type": "node", "id": 7611477660, "lat": 50.0577059, "lon": 19.933506, "tags": {"addr:city": "Krak\u00f3w", "addr:housenumber": "15", "addr:postcode": "31-101", "addr:street": "Floriana Straszewskiego", "fee": "yes", "museum": "art", "name": "Muzeum iluzji - Krakil", "name:en": "Museum of illusions", "opening_hours": "Mo-Fr 10:00-19:00; Sa-Su 10:00-20:00; PH off", "phone": "+48 513 050 220", "tourism": "museum", "website": "https://www.krakil.pl/"}}, {"type": "node", "id": 7614633571, "lat": 50.0765325, "lon": 20.0504087, "tags": {"addr:city": "Krak\u00f3w", "addr:housenumber": "37", "addr:place": "Osiedle Szkolne", "addr:postcode": "31-978", "fee": "yes", "fee:conditional": "no @ We", "museum": "history", "name": "Podziemna Nowa Huta", "name:en": "Nowa Huta Underground", "name:pl": "Podziemna Nowa Huta", "opening_hours": "We-Su 10:00-17:00", "operator": "Muzeum Krakowa", "operator:type": "public", "tourism": "museum", "website": "https://muzeumkrakowa.pl/oddzialy/podziemna-nowa-huta", "wheelchair": "no"}}, {"type": "node", "id": 7914421465, "lat": 50.0725936, "lon": 19.9437577, "tags": {"entrance": "yes"}}, {"type": "node", "id": 8261763064, "lat": 50.0619534, "lon": 19.9401204, "tags": {"closed": "yes", "fee": "yes", "fee:conditional": "no @ We", "museum": "history", "name": "Kamienica Hipolit\u00f3w", "name:en": "Hipolit House", "name:pl": "Kamienica Hipolit\u00f3w", "operator": "Muzeum Krakowa", "operator:type": "public", "tourism": "museum", "website": "https://muzeumkrakowa.pl/oddzialy/kamienica-hipolitow"}}, {"type": "node", "id": 8325350000, "lat": 50.0879449, "lon": 19.8781413}, {"type": "node", "id": 8325350001, "lat": 50.0879471, "lon": 19.8781421}, {"type": "node", "id": 8325350002, "lat": 50.0879448, "lon": 19.8781555}, {"type": "node", "id": 8325350003, "lat": 50.0879354, "lon": 19.8781531}, {"type": "node", "id": 8325350004, "lat": 50.0879357, "lon": 19.8781508}, {"type": "node", "id": 8325350005, "lat": 50.087869, "lon": 19.8781339}, {"type": "node", "id": 8325350006, "lat": 50.0878686, "lon": 19.8781364}, {"type": "node", "id": 8325350007, "lat": 50.0878596, "lon": 19.8781342}, {"type": "node", "id": 8325350008, "lat": 50.0878604, "lon": 19.878126}, {"type": "node", "id": 8325350009, "lat": 50.0877386, "lon": 19.878093}, {"type": "node", "id": 8325350010, "lat": 50.0877409, "lon": 19.8780727}, {"type": "node", "id": 8325350011, "lat": 50.0877316, "lon": 19.8780698}, {"type": "node", "id": 8325350012, "lat": 50.0877357, "lon": 19.8780368}, {"type": "node", "id": 8325350013, "lat": 50.0877459, "lon": 19.8780397}, {"type": "node", "id": 8325350014, "lat": 50.0877489, "lon": 19.8780161}, {"type": "node", "id": 8325350015, "lat": 50.0877387, "lon": 19.8780134}, {"type": "node", "id": 8325350016, "lat": 50.0877429, "lon": 19.87798}, {"type": "node", "id": 8325350017, "lat": 50.0877528, "lon": 19.877983}, {"type": "node", "id": 8325350018, "lat": 50.0877549, "lon": 19.8779663}, {"type": "node", "id": 8325350019, "lat": 50.0878597, "lon": 19.8779948}, {"type": "node", "id": 8325350020, "lat": 50.0878628, "lon": 19.8779669}, {"type": "node", "id": 8325350021, "lat": 50.0878792, "lon": 19.8779714}, {"type": "node", "id": 8325350022, "lat": 50.0878838, "lon": 19.8779354}, {"type": "node", "id": 8325350023, "lat": 50.0879452, "lon": 19.8779545}, {"type": "node", "id": 8325350024, "lat": 50.087945, "lon": 19.8779573}, {"type": "node", "id": 8325350025, "lat": 50.0879598, "lon": 19.8779619}, {"type": "node", "id": 8325350026, "lat": 50.0879604, "lon": 19.8779579}, {"type": "node", "id": 8325350027, "lat": 50.0879701, "lon": 19.877961}, {"type": "node", "id": 8325350028, "lat": 50.0879683, "lon": 19.8779752}, {"type": "node", "id": 8325350029, "lat": 50.0879672, "lon": 19.8779752}, {"type": "node", "id": 8622293637, "lat": 50.0600552, "lon": 19.9297406}, {"type": "node", "id": 8622293638, "lat": 50.0596622, "lon": 19.9298659}, {"type": "node", "id": 8787175360, "lat": 50.0640409, "lon": 19.9406218, "tags": {"addr:city": "Krak\u00f3w", "addr:housenumber": "32", "addr:postcode": "31-021", "addr:street": "Floria\u0144ska", "description": "Muzeum figur woskowych", "description:hu": "Panoptikum: viaszfigur\u00e1k m\u00fazeuma", "fee": "yes", "museum": "art", "name": "Wax Museum", "opening_hours": "Mo-Th 10:00-22:00; Fr-Sa 10:00-23:00", "operator:type": "private", "phone": "+48 502 799 445", "tourism": "museum", "website": "https://www.poloniawaxmuseum.com/"}}, {"type": "node", "id": 8898415183, "lat": 50.0697412, "lon": 20.0413655}, {"type": "node", "id": 8898415184, "lat": 50.069742, "lon": 20.0413658}, {"type": "node", "id": 8991783991, "lat": 50.0847964, "lon": 19.991256}, {"type": "node", "id": 8991783992, "lat": 50.0851169, "lon": 19.989632}, {"type": "node", "id": 8991783993, "lat": 50.086369, "lon": 19.9911174}, {"type": "node", "id": 9015266574, "lat": 50.0540886, "lon": 19.9363047, "tags": {"fee": "yes", "fee:conditional": "no @ Mo", "museum": "history", "name": "Wawel Zaginiony", "note": "z punktu prawnego mo\u017ce nie by\u0107 to osobne muzeum, ale ma osobn\u0105 nazw\u0119, osobne bilety, w\u0142asne godziny otwarcia...", "tourism": "museum", "website": "https://wawel.krakow.pl/wystawa-stala/wawel-zaginiony-1", "wikidata": "Q9371575", "wikipedia": "pl:Wawel Zaginiony"}}, {"type": "node", "id": 9252912669, "lat": 50.0758875, "lon": 19.9935903, "tags": {"access": "no", "barrier": "gate", "locked": "yes"}}, {"type": "node", "id": 9257970671, "lat": 50.0608397, "lon": 19.9377783, "tags": {"check_date": "2025-04-20", "fee": "yes", "museum": "archaeological", "name": "Ko\u015bci\u00f3\u0142 \u015awi\u0119tego Wojciecha - Oddzia\u0142 Muzeum Archeologicznego w Krakowie", "opening_hours": "May - October", "opening_hours:source": "https://ma.krakow.pl/odwiedz-muzeum/godziny-otwarcia/", "operator": "Wojew\u00f3dztwo Ma\u0142opolskie", "operator:type": "public", "tourism": "museum"}}, {"type": "node", "id": 9300141425, "lat": 50.0655877, "lon": 19.9414922}, {"type": "node", "id": 9347390556, "lat": 50.0654157, "lon": 19.9416349}, {"type": "node", "id": 9347390557, "lat": 50.0654084, "lon": 19.9416693}, {"type": "node", "id": 9347390558, "lat": 50.0654147, "lon": 19.9417628}, {"type": "node", "id": 9347390559, "lat": 50.065432, "lon": 19.9417858}, {"type": "node", "id": 9347390560, "lat": 50.0654404, "lon": 19.9417918}, {"type": "node", "id": 9347390561, "lat": 50.0654351, "lon": 19.9418142}, {"type": "node", "id": 9347390562, "lat": 50.0654539, "lon": 19.9418282}, {"type": "node", "id": 9347390563, "lat": 50.0654591, "lon": 19.9418052}, {"type": "node", "id": 9347390564, "lat": 50.0654809, "lon": 19.9418134}, {"type": "node", "id": 9347390565, "lat": 50.0654806, "lon": 19.941837}, {"type": "node", "id": 9347390566, "lat": 50.0655017, "lon": 19.9418376}, {"type": "node", "id": 9347390567, "lat": 50.0655007, "lon": 19.9418148}, {"type": "node", "id": 9347390568, "lat": 50.0655292, "lon": 19.9418055}, {"type": "node", "id": 9347390569, "lat": 50.0655358, "lon": 19.9418279}, {"type": "node", "id": 9347390570, "lat": 50.0655552, "lon": 19.9418128}, {"type": "node", "id": 9347390571, "lat": 50.0655482, "lon": 19.9417919}, {"type": "node", "id": 9347390572, "lat": 50.0655692, "lon": 19.9417661}, {"type": "node", "id": 9347390573, "lat": 50.065581, "lon": 19.9417804}, {"type": "node", "id": 9347390574, "lat": 50.0655951, "lon": 19.9417553}, {"type": "node", "id": 9347390575, "lat": 50.065584, "lon": 19.9417404}, {"type": "node", "id": 9347390576, "lat": 50.0655964, "lon": 19.9417023}, {"type": "node", "id": 9347390577, "lat": 50.0656107, "lon": 19.9417093}, {"type": "node", "id": 9347390578, "lat": 50.0656157, "lon": 19.9416776}, {"type": "node", "id": 9347390579, "lat": 50.0656014, "lon": 19.941671}, {"type": "node", "id": 9347390580, "lat": 50.0656019, "lon": 19.9416286}, {"type": "node", "id": 9347390581, "lat": 50.0656152, "lon": 19.9416253}, {"type": "node", "id": 9347390582, "lat": 50.0656113, "lon": 19.9415929}, {"type": "node", "id": 9347390583, "lat": 50.0655979, "lon": 19.9415923}, {"type": "node", "id": 9347390584, "lat": 50.0655825, "lon": 19.9415425, "tags": {"barrier": "sally_port"}}, {"type": "node", "id": 9347390585, "lat": 50.0655554, "lon": 19.9415061, "tags": {"barrier": "sally_port"}}, {"type": "node", "id": 9347390586, "lat": 50.065535, "lon": 19.9414844}, {"type": "node", "id": 9347390587, "lat": 50.0655269, "lon": 19.9414822}, {"type": "node", "id": 9347390588, "lat": 50.065528, "lon": 19.9414593}, {"type": "node", "id": 9347390589, "lat": 50.0655092, "lon": 19.9414539}, {"type": "node", "id": 9347390590, "lat": 50.0655054, "lon": 19.9414762}, {"type": "node", "id": 9347390591, "lat": 50.0654951, "lon": 19.9414738}, {"type": "node", "id": 9347390592, "lat": 50.0654887, "lon": 19.9414509}, {"type": "node", "id": 9347390593, "lat": 50.0654731, "lon": 19.9414538}, {"type": "node", "id": 9347390594, "lat": 50.0654711, "lon": 19.9414783}, {"type": "node", "id": 9347390595, "lat": 50.0654571, "lon": 19.9414851}, {"type": "node", "id": 9347390596, "lat": 50.0654393, "lon": 19.9415344}, {"type": "node", "id": 9347390597, "lat": 50.0654305, "lon": 19.9415691}, {"type": "node", "id": 9347390598, "lat": 50.0653237, "lon": 19.9415155}, {"type": "node", "id": 9347390599, "lat": 50.0653215, "lon": 19.9415225}, {"type": "node", "id": 9347390600, "lat": 50.0653105, "lon": 19.9415756}, {"type": "node", "id": 9347390601, "lat": 50.0653099, "lon": 19.9415833}, {"type": "node", "id": 9347390602, "lat": 50.0653898, "lon": 19.9416661}, {"type": "node", "id": 9347390603, "lat": 50.0654223, "lon": 19.9418225}, {"type": "node", "id": 9347390604, "lat": 50.0654406, "lon": 19.941838}, {"type": "node", "id": 9347390605, "lat": 50.0654637, "lon": 19.9418504}, {"type": "node", "id": 9347390606, "lat": 50.0654814, "lon": 19.941855}, {"type": "node", "id": 9347390607, "lat": 50.0655183, "lon": 19.9418523}, {"type": "node", "id": 9347390608, "lat": 50.0655466, "lon": 19.9418398}, {"type": "node", "id": 9347390609, "lat": 50.0655838, "lon": 19.9418026}, {"type": "node", "id": 9347390610, "lat": 50.0655932, "lon": 19.94179}, {"type": "node", "id": 9347390611, "lat": 50.0656018, "lon": 19.9417756}, {"type": "node", "id": 9347390612, "lat": 50.065608, "lon": 19.9417624}, {"type": "node", "id": 9347390613, "lat": 50.0656135, "lon": 19.9417484}, {"type": "node", "id": 9347390614, "lat": 50.0656229, "lon": 19.9417175}, {"type": "node", "id": 9347390615, "lat": 50.0656282, "lon": 19.9416875}, {"type": "node", "id": 9347390616, "lat": 50.0656308, "lon": 19.9416564}, {"type": "node", "id": 9347411017, "lat": 50.0656308, "lon": 19.9416261}, {"type": "node", "id": 9347411018, "lat": 50.0656278, "lon": 19.9415951}, {"type": "node", "id": 9347411019, "lat": 50.0656226, "lon": 19.9415672}, {"type": "node", "id": 9347411020, "lat": 50.0656127, "lon": 19.9415355}, {"type": "node", "id": 9347411021, "lat": 50.0656068, "lon": 19.9415206}, {"type": "node", "id": 9347411022, "lat": 50.0656011, "lon": 19.9415109}, {"type": "node", "id": 9347411023, "lat": 50.0655743, "lon": 19.9414735}, {"type": "node", "id": 9347411024, "lat": 50.0655692, "lon": 19.9414648}, {"type": "node", "id": 9347411025, "lat": 50.065559, "lon": 19.9414567}, {"type": "node", "id": 9347411026, "lat": 50.0655453, "lon": 19.9414464}, {"type": "node", "id": 9347411027, "lat": 50.0655273, "lon": 19.9414376}, {"type": "node", "id": 9347411028, "lat": 50.0655099, "lon": 19.941433}, {"type": "node", "id": 9347411029, "lat": 50.0654753, "lon": 19.9414325}, {"type": "node", "id": 9347411030, "lat": 50.0654649, "lon": 19.9414353}, {"type": "node", "id": 9347411031, "lat": 50.0654702, "lon": 19.9414189}, {"type": "node", "id": 9347411032, "lat": 50.0654595, "lon": 19.9414128}, {"type": "node", "id": 9347411033, "lat": 50.0654285, "lon": 19.9415155}, {"type": "node", "id": 9347411034, "lat": 50.0653074, "lon": 19.9415145}, {"type": "node", "id": 9347411035, "lat": 50.0652963, "lon": 19.9415687}, {"type": "node", "id": 9455645942, "lat": 50.0699934, "lon": 19.9236403, "tags": {"contact:phone": "+48 12 395 70 42", "name": "MuFo J\u00f3zefit\u00f3w", "official_name": "Muzeum Historii Fotografii im. Walerego Rzewuskiego w Krakowie", "opening_hours": "Mo-We, Sa 09:00-13:00; Th-Fr 15:00-19:00", "operator": "Muzeum Fotografii w Krakowie", "operator:wikipedia": "pl:Muzeum Fotografii w Krakowie", "tourism": "museum", "website": "https://www.mufo.krakow.pl/"}}, {"type": "node", "id": 9457822661, "lat": 50.070229, "lon": 19.9528358}, {"type": "node", "id": 9457822662, "lat": 50.0698695, "lon": 19.953636}, {"type": "node", "id": 9457822663, "lat": 50.0706702, "lon": 19.9542291}, {"type": "node", "id": 9457822664, "lat": 50.0709356, "lon": 19.953345}, {"type": "node", "id": 9622791077, "lat": 50.0522327, "lon": 19.8516743, "tags": {"addr:housenumber": "15", "addr:street": "al. \u017bubrowa", "description": "Centre for Ecological Education run by the Krakow Municipal Greenery Authority.", "museum": "nature", "name": "Symbioza", "opening_hours": "Tu-Sa 08:00 - 16:00", "phone": "+ 48 12 20 18 840", "tourism": "museum", "website": "https://symbioza-krakow.pl/"}}, {"type": "node", "id": 9845902947, "lat": 50.0548154, "lon": 19.9369335, "tags": {"fee": "yes", "name": "Skarbiec Koronny", "tourism": "museum", "website": "https://wawel.krakow.pl/wystawa-stala/skarbiec-koronny", "wikidata": "Q9337658", "wikipedia": "pl:Skarbiec Koronny na Wawelu"}}, {"type": "node", "id": 9889044321, "lat": 49.9978824, "lon": 19.9172474}, {"type": "node", "id": 9889044322, "lat": 49.997809, "lon": 19.9176665}, {"type": "node", "id": 9889044323, "lat": 49.9977514, "lon": 19.9176014}, {"type": "node", "id": 9889044329, "lat": 49.9977354, "lon": 19.9174225}, {"type": "node", "id": 9889044330, "lat": 49.9978022, "lon": 19.9174509}, {"type": "node", "id": 9889044331, "lat": 49.9977741, "lon": 19.9176111}, {"type": "node", "id": 9889044332, "lat": 49.9977448, "lon": 19.9176393}, {"type": "node", "id": 10052493602, "lat": 50.0639421, "lon": 19.9350286, "tags": {"historic": "memorial", "location": "wall", "memorial": "bust", "name": "Jan Matejko", "subject:wikidata": "Q189117", "subject:wikipedia": "pl:Jan Matejko", "wikimedia_commons": "File:Antoni-madeyski matejko popiersie.jpg"}}, {"type": "node", "id": 10122727968, "lat": 50.0498842, "lon": 19.947382}, {"type": "node", "id": 10122757030, "lat": 50.0490762, "lon": 19.946872}, {"type": "node", "id": 10123890799, "lat": 50.0614699, "lon": 19.936315, "tags": {"door": "hinged", "door:wings": "1", "entrance": "yes", "wikimedia_commons": "File:Wieza Ratuszowa entrance.jpg"}}, {"type": "node", "id": 10573734931, "lat": 50.0601301, "lon": 19.939917, "tags": {"addr:city": "Krak\u00f3w", "addr:country": "PL", "addr:housenumber": "12", "addr:postcode": "31-043", "addr:street": "Stolarska", "email": "kontakt@muzeumdominikanow.pl", "fee": "no", "mobile": "+48 694 480 689", "museum": "art", "name": "Muzeum Dominikan\u00f3w", "opening_hours": "Th 10:00-16:00; Fr 10:00-18:00; Sa 10:00-16:00", "operator": "Klasztor Ojc\u00f3w Dominikan\u00f3w", "operator:type": "religious", "reservation": "required", "start_date": "2022", "subject": "arts;history", "tourism": "museum", "website": "https://muzeumdominikanow.pl/", "wheelchair": "no"}}, {"type": "node", "id": 10672353568, "lat": 50.0511153, "lon": 19.9310463, "tags": {"name": "Galeria Europa \u2013 Daleki Wsch\u00f3d", "tourism": "museum", "website": "http://edw.manggha.pl/pl/"}}, {"type": "node", "id": 10858062938, "lat": 50.0692604, "lon": 19.9449224, "tags": {"addr:city": "Krak\u00f3w", "addr:housenumber": "34", "addr:postcode": "31-154", "addr:street": "Pawia", "air_conditioning": "yes", "description": "WOMAI is the Center for Science and Senses, a unique place that combines two opposing worlds: light and darkness, which blind heroes and scientists perceive. The emotions and knowledge added to the exhibitions are authentic and personal.", "email": "womai.krakow@gmail.com", "museum": "local", "name": "Womai", "opening_hours": "Mo-Fr 08:30-16:00 - Sa-Su 10:00-20:00", "operator": "Womai", "operator:type": "business", "phone": "+48123132359", "tourism": "museum", "website": "https://womai.pl/"}}, {"type": "node", "id": 10878069005, "lat": 50.052731, "lon": 19.940014, "tags": {"addr:postcode": "31-068", "email": "krakowpinballmuseum@gmail.com", "internet_access": "wlan", "name": "Krak\u00f3w Pinball Museum", "opening_hours": "Mo-Th 14:00-21:00; Fr 14:00-22:00; Sa 12:00-22:00; Su 12:00-21:00", "phone": "+48 608 041 000", "tourism": "museum", "website": "https://www.krakpin.com"}}, {"type": "node", "id": 11043890806, "lat": 50.078171, "lon": 19.9897306}, {"type": "node", "id": 11043890809, "lat": 50.0784866, "lon": 19.9898314}, {"type": "node", "id": 11094151032, "lat": 50.0638628, "lon": 19.9347672, "tags": {"entrance": "main"}}, {"type": "node", "id": 11181906934, "lat": 50.0509829, "lon": 19.9318902, "tags": {"entrance": "yes"}}, {"type": "node", "id": 11186611565, "lat": 50.0618989, "lon": 19.9354825, "tags": {"check_date": "2024-07-10", "level": "-1", "name": "Muzeum Kata Kacia Nora", "opening_hours": "10:00-19:00", "tourism": "museum"}}, {"type": "node", "id": 11217902707, "lat": 50.0185888, "lon": 19.8016393, "tags": {"check_date": "2023-09-25", "name": "Muzeum Opactwa", "tourism": "museum"}}, {"type": "node", "id": 11219429883, "lat": 50.0614451, "lon": 19.9291426, "tags": {"addr:housenumber": "6", "addr:street": "Plac Genera\u0142a W\u0142adys\u0142awa Sikorskiego", "check_date": "2023-09-26", "fee": "yes", "fee:conditional": "no @ Tu", "name": "Muzeum Stanis\u0142awa Wyspia\u0144skiego", "operator": "Muzeum Narodowe w Krakowie", "tourism": "museum", "website": "https://mnk.pl/oddzial/mnk-wyspianski"}}, {"type": "node", "id": 11237222737, "lat": 50.0687946, "lon": 20.1344832, "tags": {"entrance": "main"}}, {"type": "node", "id": 11360712316, "lat": 50.064753, "lon": 19.9422405, "tags": {"museum": "history", "name": "Mury Obronne", "name:en": "City Defence Walls", "name:pl": "Mury Obronne", "opening_hours": "Nov-Mar off", "operator": "Muzeum Krakowa", "operator:type": "public", "seasonal": "yes", "source:seasonal": "https://muzeumkrakowa.pl/aktualnosci/oddzialy-mury-obronne-i-barbakan", "tourism": "museum", "website": "https://muzeumkrakowa.pl/oddzialy/mury-obronne"}}, {"type": "node", "id": 11360769087, "lat": 50.0445166, "lon": 19.8244379, "tags": {"description": "Thesaurus Cracoviensis - Centrum Interpretacji Artefakt\u00f3w to oddzia\u0142 Muzeum Krakowa. Jest to nowoczesny magazyn zbior\u00f3w muzealnych i pracownie konserwatorskie w formule otwartej dla publiczno\u015bci.", "fee": "yes", "name": "Thesaurus Cracoviensis", "opening_hours": "Sa 10:00-16:00", "operator": "Muzeum Krakowa", "operator:type": "public", "tourism": "museum", "website": "https://muzeumkrakowa.pl/oddzialy/thesaurus-cracoviensis"}}, {"type": "node", "id": 11478483656, "lat": 50.0476176, "lon": 19.9616755, "tags": {"entrance": "main"}}, {"type": "node", "id": 11517034035, "lat": 50.0859336, "lon": 19.9911422}, {"type": "node", "id": 11517034036, "lat": 50.0860177, "lon": 19.9907174}, {"type": "node", "id": 11517034040, "lat": 50.0856607, "lon": 19.991167, "tags": {"barrier": "gate", "location": "roof"}}, {"type": "node", "id": 11517034041, "lat": 50.0858006, "lon": 19.9904595, "tags": {"barrier": "gate", "location": "roof"}}, {"type": "node", "id": 11517034042, "lat": 50.085853, "lon": 19.9911496}, {"type": "node", "id": 11517034043, "lat": 50.0859534, "lon": 19.9906409}, {"type": "node", "id": 11517034047, "lat": 50.0847985, "lon": 19.9912452}, {"type": "node", "id": 11517034048, "lat": 50.0849635, "lon": 19.9912303}, {"type": "node", "id": 11517034049, "lat": 50.0852452, "lon": 19.9897996}, {"type": "node", "id": 11517034050, "lat": 50.0851145, "lon": 19.9896443}, {"type": "node", "id": 11517034051, "lat": 50.0850434, "lon": 19.991223}, {"type": "node", "id": 11517034052, "lat": 50.0855803, "lon": 19.9911743}, {"type": "node", "id": 11517034053, "lat": 50.0853096, "lon": 19.9898762}, {"type": "node", "id": 11517034054, "lat": 50.0857363, "lon": 19.990383}, {"type": "node", "id": 11517131297, "lat": 50.0851489, "lon": 19.990689}, {"type": "node", "id": 11517131298, "lat": 50.0850769, "lon": 19.9906548}, {"type": "node", "id": 11517131299, "lat": 50.0851167, "lon": 19.9904527}, {"type": "node", "id": 11517131300, "lat": 50.0851888, "lon": 19.990487}, {"type": "node", "id": 11517131401, "lat": 50.0860206, "lon": 19.9907028}, {"type": "node", "id": 11517131402, "lat": 50.0859308, "lon": 19.9911563}, {"type": "node", "id": 11517131403, "lat": 50.0858036, "lon": 19.9904444}, {"type": "node", "id": 11517131404, "lat": 50.0856577, "lon": 19.9911824}, {"type": "node", "id": 11517131405, "lat": 50.08585, "lon": 19.9911649}, {"type": "node", "id": 11517131406, "lat": 50.0859563, "lon": 19.9906258}, {"type": "node", "id": 11517131407, "lat": 50.0853131, "lon": 19.9898587}, {"type": "node", "id": 11517131408, "lat": 50.0850402, "lon": 19.9912391}, {"type": "node", "id": 11517131409, "lat": 50.0855772, "lon": 19.9911902}, {"type": "node", "id": 11517131410, "lat": 50.0857393, "lon": 19.9903675}, {"type": "node", "id": 11517131411, "lat": 50.0849602, "lon": 19.9912472}, {"type": "node", "id": 11517131412, "lat": 50.0852483, "lon": 19.9897839}, {"type": "node", "id": 11517682180, "lat": 50.0850437, "lon": 19.9908231}, {"type": "node", "id": 11517682183, "lat": 50.0849767, "lon": 19.9911631}, {"type": "node", "id": 11517682184, "lat": 50.0849694, "lon": 19.9912005}, {"type": "node", "id": 11517682187, "lat": 50.0850926, "lon": 19.9905753}, {"type": "node", "id": 11517785033, "lat": 50.0852354, "lon": 19.9898496}, {"type": "node", "id": 11517785034, "lat": 50.0851391, "lon": 19.9903389}, {"type": "node", "id": 11517785038, "lat": 50.0849736, "lon": 19.9911792}, {"type": "node", "id": 11517785039, "lat": 50.0850545, "lon": 19.9907686}, {"type": "node", "id": 11517832200, "lat": 50.0849235, "lon": 19.9912491}, {"type": "node", "id": 11559669249, "lat": 50.0817885, "lon": 20.0552802, "tags": {"entrance": "yes"}}, {"type": "node", "id": 11565303670, "lat": 50.0477434, "lon": 19.9437306, "tags": {"entrance": "main"}}, {"type": "node", "id": 11687534007, "lat": 50.0474411, "lon": 19.9622602}, {"type": "node", "id": 11767220279, "lat": 50.0619789, "lon": 19.9472277, "tags": {"entrance": "main"}}, {"type": "node", "id": 11767220280, "lat": 50.0617515, "lon": 19.947284, "tags": {"entrance": "service"}}, {"type": "node", "id": 11778015371, "lat": 50.0851088, "lon": 19.989673}, {"type": "node", "id": 11778015376, "lat": 50.0849657, "lon": 19.990402}, {"type": "node", "id": 11778015377, "lat": 50.0848031, "lon": 19.9912221}, {"type": "node", "id": 11778015379, "lat": 50.0849319, "lon": 19.9905694}, {"type": "node", "id": 11789632382, "lat": 50.0772658, "lon": 19.993793}, {"type": "node", "id": 11795174018, "lat": 50.0772549, "lon": 19.9937946}, {"type": "node", "id": 11862468355, "lat": 50.0767454, "lon": 19.993794}, {"type": "node", "id": 11862489517, "lat": 50.0767515, "lon": 19.9937948}, {"type": "node", "id": 11862489518, "lat": 50.0772471, "lon": 19.9937958}, {"type": "node", "id": 11862489522, "lat": 50.0767388, "lon": 19.9937932}, {"type": "node", "id": 11862489523, "lat": 50.076318, "lon": 19.9937426}, {"type": "node", "id": 11866642871, "lat": 50.0628301, "lon": 19.938244, "tags": {"addr:housenumber": "2", "addr:postcode": "31-018", "addr:street": "\u015awi\u0119tego Jana", "fee": "no", "name": "Muzeum Bursztynu", "name:en": "Amber Museum", "opening_hours": "Mo-Su 10:00-20:00", "tourism": "museum", "website": "https://ambermuseum.eu/"}}, {"type": "node", "id": 11915767575, "lat": 50.0599863, "lon": 19.9233662}, {"type": "node", "id": 11915767576, "lat": 50.0599949, "lon": 19.9234073}, {"type": "node", "id": 11915767579, "lat": 50.0600452, "lon": 19.9241092}, {"type": "node", "id": 11915767583, "lat": 50.0601594, "lon": 19.9241806}, {"type": "node", "id": 11915767584, "lat": 50.060168, "lon": 19.9242216}, {"type": "node", "id": 11915767585, "lat": 50.060926, "lon": 19.9238367}, {"type": "node", "id": 11915767586, "lat": 50.0609143, "lon": 19.9237807}, {"type": "node", "id": 11915767587, "lat": 50.0609199, "lon": 19.9237778}, {"type": "node", "id": 11915767588, "lat": 50.0607631, "lon": 19.9230323}, {"type": "node", "id": 11915767589, "lat": 50.0607559, "lon": 19.9230359}, {"type": "node", "id": 11915767590, "lat": 50.0607438, "lon": 19.9229786}, {"type": "node", "id": 11915767596, "lat": 50.0599569, "lon": 19.9235474}, {"type": "node", "id": 11915767597, "lat": 50.0600728, "lon": 19.9240942}, {"type": "node", "id": 11915767600, "lat": 50.059935, "lon": 19.9235816}, {"type": "node", "id": 11915767601, "lat": 50.0599902, "lon": 19.9238447}, {"type": "node", "id": 11917963248, "lat": 50.0599613, "lon": 19.9235681}, {"type": "node", "id": 11917963249, "lat": 50.0599604, "lon": 19.9235686}, {"type": "node", "id": 11917963252, "lat": 50.0600771, "lon": 19.9241144}, {"type": "node", "id": 11932813922, "lat": 50.0584559, "lon": 19.9229408}, {"type": "node", "id": 11932813923, "lat": 50.0585578, "lon": 19.923004}, {"type": "node", "id": 11932813924, "lat": 50.058755, "lon": 19.9249766}, {"type": "node", "id": 11932813925, "lat": 50.0587497, "lon": 19.9249799}, {"type": "node", "id": 11933326351, "lat": 50.0508862, "lon": 19.9315114}, {"type": "node", "id": 11933326352, "lat": 50.0510753, "lon": 19.9314822}, {"type": "node", "id": 11933326353, "lat": 50.0509953, "lon": 19.9315233}, {"type": "node", "id": 11933326354, "lat": 50.0509363, "lon": 19.931527}, {"type": "node", "id": 11933326355, "lat": 50.050975, "lon": 19.931527}, {"type": "node", "id": 11933326356, "lat": 50.0510158, "lon": 19.931516}, {"type": "node", "id": 11933326357, "lat": 50.05052, "lon": 19.9315484}, {"type": "node", "id": 11933326358, "lat": 50.0505565, "lon": 19.9316987}, {"type": "node", "id": 11933326362, "lat": 50.0512307, "lon": 19.9315802}, {"type": "node", "id": 11933423858, "lat": 50.0505628, "lon": 19.9315213}, {"type": "node", "id": 12000765076, "lat": 50.0859522, "lon": 19.9906469, "tags": {"entrance": "yes"}}, {"type": "node", "id": 12000765077, "lat": 50.0855815, "lon": 19.9911684, "tags": {"entrance": "yes"}}, {"type": "node", "id": 12000765078, "lat": 50.0857351, "lon": 19.990389, "tags": {"entrance": "yes"}}, {"type": "node", "id": 12000765079, "lat": 50.0850866, "lon": 19.9906594, "tags": {"entrance": "yes"}}, {"type": "node", "id": 12000765080, "lat": 50.0851263, "lon": 19.9904573, "tags": {"entrance": "yes"}}, {"type": "node", "id": 12000765081, "lat": 50.0858543, "lon": 19.9911429, "tags": {"entrance": "yes"}}, {"type": "node", "id": 12000765082, "lat": 50.0857455, "lon": 19.9911744, "tags": {"entrance": "yes"}}, {"type": "node", "id": 12000765083, "lat": 50.0851656, "lon": 19.9912277, "tags": {"entrance": "yes"}}, {"type": "node", "id": 12000765084, "lat": 50.0857231, "lon": 19.9908515, "tags": {"entrance": "yes"}}, {"type": "node", "id": 12000765085, "lat": 50.0859679, "lon": 19.990969, "tags": {"entrance": "yes"}}, {"type": "node", "id": 12000765086, "lat": 50.0858956, "lon": 19.990934, "tags": {"entrance": "yes"}}, {"type": "node", "id": 12000765087, "lat": 50.0859263, "lon": 19.9907781, "tags": {"entrance": "yes"}}, {"type": "node", "id": 12000765088, "lat": 50.0860153, "lon": 19.9907296, "tags": {"entrance": "yes"}}, {"type": "node", "id": 12000765089, "lat": 50.0859989, "lon": 19.9908122, "tags": {"entrance": "yes"}}, {"type": "node", "id": 12000765090, "lat": 50.0860414, "lon": 19.9911465, "tags": {"entrance": "yes"}}, {"type": "node", "id": 12000765091, "lat": 50.0862533, "lon": 19.9911277, "tags": {"entrance": "main"}}, {"type": "node", "id": 12000765092, "lat": 50.0862716, "lon": 19.9910015, "tags": {"entrance": "main"}}, {"type": "node", "id": 12000765093, "lat": 50.0858746, "lon": 19.9905288, "tags": {"entrance": "yes"}}, {"type": "node", "id": 12000765094, "lat": 50.085769, "lon": 19.9906191, "tags": {"entrance": "yes"}}, {"type": "node", "id": 12000765095, "lat": 50.0855413, "lon": 19.9901311, "tags": {"entrance": "yes"}}, {"type": "node", "id": 12000765096, "lat": 50.0853806, "lon": 19.9899393, "tags": {"entrance": "yes"}}, {"type": "node", "id": 12161657501, "lat": 50.055049, "lon": 19.9479252, "tags": {"check_date": "2024-09-09", "name": "Muzeum Banksy", "name:en": "Banksy Museum", "name:pl": "Muzeum Banksy", "opening_hours": "Mo-Su 11:00-19:00", "tourism": "museum", "website": "https://muzeumbanksy.pl/"}}, {"type": "node", "id": 12265886204, "lat": 50.0650967, "lon": 19.940046}, {"type": "node", "id": 12265886205, "lat": 50.0651122, "lon": 19.9400018}, {"type": "node", "id": 12265886206, "lat": 50.0651108, "lon": 19.9400092}, {"type": "node", "id": 12265886207, "lat": 50.0651052, "lon": 19.9399988}, {"type": "node", "id": 12265886208, "lat": 50.0651112, "lon": 19.9399661}, {"type": "node", "id": 12265886209, "lat": 50.0650744, "lon": 19.9401794}, {"type": "node", "id": 12265886210, "lat": 50.0650777, "lon": 19.940168}, {"type": "node", "id": 12265886211, "lat": 50.0650768, "lon": 19.9401675}, {"type": "node", "id": 12265886212, "lat": 50.0650928, "lon": 19.9400925}, {"type": "node", "id": 12265886213, "lat": 50.0650734, "lon": 19.9401942}, {"type": "node", "id": 12265886214, "lat": 50.0650937, "lon": 19.9400929}, {"type": "node", "id": 12269357071, "lat": 50.0542536, "lon": 19.8937881, "tags": {"addr:city": "Krak\u00f3w", "addr:housenumber": "1", "addr:postcode": "30-204", "addr:street": "Aleja Jerzego Waszyngtona", "fee": "yes", "fee:conditional": "no @ 4 February, 24 March, 15 October", "museum": "history", "name": "Muzeum Ko\u015bciuszkowskie", "opening_hours": "Mo-Su 09:00-18:00", "tourism": "museum", "website": "https://www.kopieckosciuszki.pl/muzeum-kosciuszkowskie/"}}, {"type": "node", "id": 12320094259, "lat": 50.0542102, "lon": 19.9339504, "tags": {"name": "Wawel Odzyskany", "tourism": "museum", "website": "https://wawel.krakow.pl/wystawa-stala/wawel-odzyskany-1"}}, {"type": "node", "id": 12323184058, "lat": 50.054561, "lon": 19.9370836, "tags": {"description": "II pi\u0119tro zamku: reprezentacyjne komnaty kr\u00f3lewskie, namioty tureckie, wystawy czasowe", "level": "2", "name": "Zamek II", "tourism": "museum", "website": "https://wawel.krakow.pl/trasa/zamek-ii"}}, {"type": "node", "id": 12323341153, "lat": 50.0542162, "lon": 19.9371362, "tags": {"name": "Lapidarium", "tourism": "museum", "website": "https://wawel.krakow.pl/wystawa-stala/wawel-podziemny-lapidarium"}}, {"type": "node", "id": 12327176851, "lat": 50.0544708, "lon": 19.9370907, "tags": {"description": "I pi\u0119tro zamku: prywatne apartamenty kr\u00f3lewskie z gabinetem porcelanowym, sztuka Wschodu, wystawy czasowe", "level": "1", "name": "Zamek I", "tourism": "museum", "website": "https://wawel.krakow.pl/trasa/zamek-i"}}, {"type": "node", "id": 12345922921, "lat": 50.0687736, "lon": 20.1342636, "tags": {"entrance": "yes"}}, {"type": "node", "id": 12345922922, "lat": 50.0689061, "lon": 20.1344464, "tags": {"entrance": "yes"}}, {"type": "node", "id": 12642845285, "lat": 50.0575584, "lon": 19.9366798, "tags": {"name": "Muzeum Geologiczne PAN", "name:de": "Geologisches Museum", "name:en": "Geological Museum", "name:hu": "Lengyel Tudom\u00e1nyos Akad\u00e9mia F\u00f6ldtani M\u00fazeuma", "name:pl": "Muzeum Geologiczne ING PAN", "opening_hours": "Th-Fr 10:00-15:00; Sa 10:00-14:00", "tourism": "museum", "website": "https://www.ing.pan.pl/muzeum/muzeum-geologiczne-ing-pan", "wikidata": "Q6944411", "wikipedia": "pl:Muzeum Geologiczne Instytutu Nauk Geologicznych PAN w Krakowie"}}, {"type": "node", "id": 12651963791, "lat": 50.0632933, "lon": 19.9417396, "tags": {"email": "folklor@muzeumkrakowa.pl", "name": "Centrum Interpretacji Niematerialnego Dziedzictwa Krakowa", "phone": "+48124225258", "tourism": "museum", "website": "https://muzeumkrakowa.pl/oddzialy/centrum-interpretacji-niematerialnego-dziedzictwa-krakowa"}}, {"type": "node", "id": 12691187248, "lat": 50.0849507, "lon": 19.9904761}, {"type": "node", "id": 12824088144, "lat": 50.0819032, "lon": 19.9899317}, {"type": "node", "id": 12824088145, "lat": 50.081566, "lon": 19.9872994}, {"type": "node", "id": 12824088146, "lat": 50.0791593, "lon": 19.9885625}, {"type": "node", "id": 12824088147, "lat": 50.0795111, "lon": 19.9880222, "tags": {"access": "no", "barrier": "gate", "bicycle": "no", "foot": "no"}}, {"type": "node", "id": 12825579839, "lat": 50.0800061, "lon": 19.9881542}, {"type": "node", "id": 12825579844, "lat": 50.0795916, "lon": 19.9880176}, {"type": "node", "id": 12825579845, "lat": 50.0797228, "lon": 19.9880641}, {"type": "node", "id": 12825579846, "lat": 50.0797973, "lon": 19.9881022}, {"type": "node", "id": 12825579847, "lat": 50.0798963, "lon": 19.9881632}, {"type": "node", "id": 12825579850, "lat": 50.0818495, "lon": 19.9896477, "tags": {"barrier": "gate"}}, {"type": "node", "id": 12825579851, "lat": 50.0819981, "lon": 19.9891593}, {"type": "node", "id": 12825579859, "lat": 50.0793353, "lon": 19.9893944}, {"type": "node", "id": 12825579862, "lat": 50.0793549, "lon": 19.9881583}, {"type": "node", "id": 12825579863, "lat": 50.0792666, "lon": 19.9882735}, {"type": "node", "id": 12825579866, "lat": 50.0791971, "lon": 19.988418}, {"type": "way", "id": 25122842, "nodes": [273530517, 1703041812, 10123890799, 1703041814, 273530518, 2500433510, 2500433509, 2500433507, 2500433506, 2500433505, 273530521, 273530522, 273530517], "tags": {"addr:city": "Krak\u00f3w", "addr:housenumber": "1", "addr:postcode": "31-001", "addr:street": "Rynek G\u0142\u00f3wny", "building": "public", "building:colour": "#b22222", "building:material": "brick", "building:use": "museum", "fee": "yes", "fee:conditional": "no @ Mo", "height": "40", "historic": "tower", "internet_access": "wlan", "museum": "history", "name": "Wie\u017ca Ratuszowa", "name:be": "\u0420\u0430\u0442\u0443\u0448\u043d\u0430\u044f \u0432\u0435\u0436\u0430", "name:cs": "Radni\u010dn\u00ed v\u011b\u017e", "name:de": "Krakauer Rathausturm", "name:en": "Town Hall Tower", "name:es": "Torre del Ayuntamiento", "name:hu": "V\u00e1rosh\u00e1za tornya", "name:it": "Torre del Municipio", "name:ko": "\ub77c\ud22c\uc288\ucd08\ubc14 \ud0d1", "name:pl": "Wie\u017ca Ratuszowa", "name:ru": "\u0420\u0430\u0442\u0443\u0448\u043d\u0430\u044f \u0431\u0430\u0448\u043d\u044f", "name:zh": "\u5e02\u653f\u5ef3\u9418\u6a13", "opening_hours": "Mo 11:00-15:00; Tu-Su 11:00-18:00", "operator": "Muzeum Krakowa", "operator:type": "public", "roof:material": "copper", "roof:shape": "flat", "tourism": "museum", "website": "https://muzeumkrakowa.pl/oddzialy/wieza-ratuszowa", "wheelchair": "no", "wikidata": "Q1786361", "wikipedia": "pl:Wie\u017ca ratuszowa w Krakowie"}}, {"type": "way", "id": 30807865, "nodes": [3486988114, 3486988098, 3486987459, 341393253, 3486987509, 6077795785, 6077795788, 3486987858, 3486988097, 3486987474, 3486988112, 3486988118, 3486987475, 3486987863, 3486988123, 3486988124, 3486987718, 3486988114], "tags": {"addr:city": "Krak\u00f3w", "addr:housenumber": "16", "addr:postcode": "31-504", "addr:street": "Lubicz", "building": "museum", "building:levels": "2", "description:hu": "A v\u00e1rost\u00f6rt\u00e9neti m\u00fazeum ki\u00e1ll\u00edt\u00f3helye", "museum": "history", "name": "Celestat", "opening_hours": "We-Su 10:00-17:00", "operator": "Muzeum Krakowa", "operator:type": "public", "reservation": "required", "tourism": "museum", "website": "https://muzeumkrakowa.pl/oddzialy/celestat", "wikidata": "Q9185653", "wikipedia": "pl:Celestat"}}, {"type": "way", "id": 39357526, "nodes": [3080536035, 3080535992, 3080535993, 3080535810, 3080535614, 3080535595, 11094151032, 3080535577, 3080535398, 3080535592, 10052493602, 3080535807, 3080535809, 3080535824, 3080535622, 3080535262, 3080535830, 3080530184, 3080536035], "tags": {"addr:city": "Krak\u00f3w", "addr:country": "PL", "addr:housenumber": "4", "addr:postcode": "31-011", "addr:street": "Plac Szczepa\u0144ski", "building": "yes", "building:levels": "3", "fee": "yes", "name": "Pa\u0142ac Sztuki", "name:de": "Palast der Kunst", "name:en": "Palace of Art", "name:hu": "M\u0171v\u00e9szetek Palot\u00e1ja", "name:pl": "Pa\u0142ac Sztuki", "name:uk": "\u041f\u0430\u043b\u0430\u0446 \u043c\u0438\u0441\u0442\u0435\u0446\u0442\u0432", "opening_hours": "Mo-Fr 08:15-18:00; Sa-Su 10:00-18:00", "roof:shape": "hipped", "tourism": "museum", "wikidata": "Q11814864", "wikipedia": "pl:Pa\u0142ac Sztuki w Krakowie"}}, {"type": "way", "id": 39393947, "nodes": [3037326260, 3037326635, 3037295906, 3037295905, 3037295904, 471984939, 1391259505, 3037326454, 3037326241, 3037322431, 3037322432, 3037326415, 3037325375, 3037326475, 3037326472, 3037326523, 3037326432, 3037326530, 3037326458, 3037326457, 3037326452, 3037326453, 3037326455, 3037326464, 3037326459, 3037326460, 3037326255, 3037326263, 3037326260], "tags": {"addr:city": "Krak\u00f3w", "addr:country": "PL", "addr:housenumber": "26", "addr:postcode": "31-123", "addr:street": "Krupnicza", "building": "residential", "building:levels": "2", "description:hu": "J\u00f3zef Mehoffer (1869\u20131946) lengyel fest\u0151 \u00e9s \u00fcvegm\u0171v\u00e9sz", "fee": "yes", "fee:conditional": "no @ Tu", "name": "Dom J\u00f3zefa Mehoffera", "name:en": "The J\u00f3zef Mehoffer House", "name:hu": "J\u00f3zef Mehoffer h\u00e1za", "opening_hours": "Tu-Fr 09:00-16:00; Sa 10:00-18:00; Su 10:00-16:00; Mo off", "phone": "+48 12 433 58 80", "tourism": "museum", "website": "https://mnk.pl/oddzial/dom-jozefa-mehoffera", "wikidata": "Q1715072", "wikipedia": "pl:Dom J\u00f3zefa Mehoffera w Krakowie"}}, {"type": "way", "id": 54534222, "nodes": [2386999446, 686915887, 686915880, 8898415184, 8898415183, 2386999442, 686915873, 686915866, 2386999449, 2386999450, 2386999448, 2386999447, 2386999446], "tags": {"addr:city": "Krak\u00f3w", "addr:country": "PL", "addr:housenumber": "1", "addr:place": "Osiedle Centrum E", "addr:postcode": "31-934", "building": "museum", "check_date:opening_hours": "2024-11-24", "description:hu": "A kommunista Lengyen N\u00e9pk\u00f6zt\u00e1rsas\u00e1g (1952\u20131990) t\u00f6rt\u00e9nete", "email": "nowahuta@muzeumkrakowa.pl", "fee": "yes", "fee:conditional": "no @ We", "museum": "history", "name": "Muzeum Nowej Huty", "name:en": "Nowa Huta Museum", "name:hu": "Lengyel N\u00e9pk\u00f6zt\u00e1rsas\u00e1g M\u00fazeuma", "old_name": "Kino \u015awiatowid", "opening_hours": "Tu-Fr 10:00-17:00; Sa-Su 10:00-18:00", "operator": "Muzeum Krakowa", "operator:type": "public", "phone": "+48 12 446 78 21", "tourism": "museum", "website": "https://muzeumkrakowa.pl/oddzialy/muzeum-nowej-huty", "wheelchair": "no", "wikidata": "Q11787196", "wikipedia": "pl:Muzeum Nowej Huty"}}, {"type": "way", "id": 87527975, "nodes": [4291849885, 4291849894, 4291849893, 4291849896, 4291849899, 4291849898, 4291849914, 4291849915, 4291849916, 4291849913, 4291849912, 4291849891, 4291849892, 4291849889, 4291849888, 4291849875, 4291849876, 4291849870, 4291849869, 4291849848, 4291849849, 4291849846, 4291849844, 4291849845, 4291849820, 4291849818, 4291849815, 4291849823, 4291849824, 4291849833, 4291849764, 4291849754, 4291849755, 4291849750, 4291849748, 4291849749, 4291849726, 4291849724, 4291849722, 4291849727, 4291849729, 4291849743, 4291849742, 4291849746, 4291849747, 7914421465, 4291849784, 4291849783, 4291849788, 4291849789, 4291849794, 4291849793, 4291849799, 4291849805, 4291849801, 4291849825, 4291849826, 4291849827, 4291849822, 4291849821, 4291849812, 4291849885], "tags": {"building": "university", "building:levels": "1", "name": "Muzeum Politechniki Krakowskiej", "name:hu": "Krakk\u00f3i M\u0171szaki Egyetemi M\u00fazeuma", "operator": "Politechnika Krakowska", "tourism": "museum", "wheelchair": "no", "wikidata": "Q16580041", "wikipedia": "pl:Muzeum Politechniki Krakowskiej"}}, {"type": "way", "id": 128616563, "nodes": [3450775051, 3450772834, 11559669249, 3450774267, 3450774262, 3450774818, 3450774829, 3450775056, 3450775060, 3450775051], "tags": {"addr:city": "Krak\u00f3w", "addr:country": "PL", "addr:housenumber": "25", "addr:postcode": "31-752", "addr:street": "Melchiora Wa\u0144kowicza", "building": "museum", "description:hu": "Jan Matejko (1838\u20131893) lengyel fest\u0151", "heritage": "2", "heritage:operator": "nid", "name": "Dworek Jana Matejki", "name:hu": "Jan Matejko h\u00e1za", "ref:nid": "A-638", "tourism": "museum", "wikidata": "Q5318318", "wikipedia": "pl:Dworek Jana Matejki w Krzes\u0142awicach"}}, {"type": "way", "id": 131342427, "nodes": [1445724720, 1445724709, 1445724671, 3486997689, 3486996266, 2665050439, 3486997691, 3486999299, 1445724690, 1445724720]}, {"type": "way", "id": 133414925, "nodes": [6778356176, 6778356175, 6778356174, 6778356173, 12345922921, 6778356172, 6778356171, 11237222737, 6778356170, 6778356169, 12345922922, 6778356176], "tags": {"addr:city": "Krak\u00f3w", "addr:housenumber": "2a", "addr:street": "Sasanek", "alt_name": "dw\u00f3r Badenich", "building": "palace", "building:levels": "2", "heritage": "2", "heritage:operator": "nid", "heritage:website": "https://zabytek.pl/pl/obiekty/krakow-dwor-badenich", "historic": "manor", "museum": "archaeological", "name": "Muzeum Archeologiczne, Oddzia\u0142 w Nowej Hucie", "nid:inscription_date": "1968-01-02", "opening_hours": "Nov-Apr Mo-Fr 10:00-14:00, Nov-Apr Mo-Fr 10:00-14:00, Nov-Apr Sa,Su 14:00-18:00", "operator": "Wojew\u00f3dztwo Ma\u0142opolskie", "operator:type": "public", "ref:nid": "A-53", "source:addr": "EMUiA (emuia.gugik.gov.pl)", "source:building": "BDOT", "source:geometry": "EGiB", "start_date": "early C19", "tourism": "museum", "wikidata": "Q30161568", "wikimedia_commons": "Category:Badeni manor house in Branice (Krak\u00f3w)"}}, {"type": "way", "id": 136648568, "nodes": [1499189374, 1658892299, 11687534007, 1499189335, 1499189378, 1499189330, 1499189366, 1499189360, 6514751638, 1499189375, 1658892310, 1499189374], "tags": {"addr:city": "Krak\u00f3w", "addr:housenumber": "4", "addr:postcode": "30-702", "addr:street": "Lipowa", "building": "museum", "building:levels": "3", "fee": "yes", "fee:conditional": "no @ Mo", "museum": "history", "name": "Fabryka Emalia Oskara Schindlera", "name:de": "Emaillewarenfabrik Oskar Schindler", "name:en": "Oskar Schindler's Enamel Factory", "name:hu": "Oskar Schindler zom\u00e1nc\u00e1rugy\u00e1ra", "name:it": "Fabbrica di Schindler", "name:ko": "\uc624\uc2a4\uce74 \uc270\ub4e4\ub7ec \uacf5\uc7a5", "name:pl": "Fabryka Emalia Oskara Schindlera", "opening_hours": "Mo 10:00-14:00; Tu-Th 09:00-19:00; Fr-Su 09:00-20:00", "operator": "Muzeum Krakowa", "ref:ckkp": "MA00831", "roof:shape": "flat", "short_name": "Fabryka Schindlera", "tourism": "museum", "website": "https://muzeumkrakowa.pl/oddzialy/fabryka-emalia-oskara-schindlera", "wheelchair": "yes", "wikidata": "Q286522", "wikipedia": "pl:Fabryka Emalia Oskara Schindlera"}}, {"type": "way", "id": 138355813, "nodes": [1516929727, 1516929437, 1516929666, 1516929770, 1516929727]}, {"type": "way", "id": 138355832, "nodes": [2998640389, 2998641048, 2998640180, 2998640178, 2998640973, 2998640406, 2998637683, 2998640974, 2998640188, 2998640979, 2998640984, 2998640194, 2998640195, 2998641657, 2998640197, 2998641660, 2998640196, 2998641061, 2998641064, 2998640193, 2998640192, 2998640191, 2998641058, 2998641057, 2998640190, 2998641054, 3086300544, 2998640189, 2998640186, 2998640976, 2998640975, 2998637681, 2998640972, 3086298996, 3086298995, 2998640030, 2998640028, 2998640370, 2998640371, 2998640373, 2998640032, 2998640352, 2998640163, 2998640011, 3086299096, 2998640012, 2998640013, 2998640354, 2998640355, 2998640357, 3086299101, 3086299102, 2998640358, 2998637662, 2998640164, 1516929440, 1516929733, 2998640844, 2998640360, 2998637664, 2998640363, 2998640365, 2998640377, 2998640850, 2998640853, 2998640378, 2998640945, 2998640382, 2998640955, 2998640953, 2998640951, 2998640379, 2998640172, 2998640962, 2998640963, 2998640967, 2998640966, 2998640971, 2998640404, 2998640969, 2998640968, 2998640964, 2998640965, 2998640396, 2998640970, 2998640391, 2998637676, 2998641045, 3086297215, 2998640168, 2998640385, 2998640389]}, {"type": "way", "id": 138355838, "nodes": [1516929684, 1516929485, 1516929660, 1516929718, 1516929684]}, {"type": "way", "id": 152104775, "nodes": [2976668236, 2976668043, 2976663032, 2976663029, 2976663011, 2976667868, 2976663016, 2976663015, 2976667869, 2976667973, 2976667813, 2976667818, 2976663027, 2976668034, 2976667824, 2976668179, 2976668244, 2976668397, 2976668255, 2976668236], "tags": {"building": "synagogue", "building:levels": "3", "denomination": "orthodox", "disused:amenity": "place_of_worship", "fee": "yes", "fee:conditional": "no @ Mo", "historic": "building", "museum": "history", "name": "Stara Synagoga", "name:en": "Old Synagogue", "name:pl": "Stara Synagoga", "opening_hours": "Mo 10:00-14:00; Tu-Su 10:00-17:00", "ref:ckkp": "MA00397", "religion": "jewish", "tourism": "museum", "website": "https://muzeumkrakowa.pl/oddzialy/stara-synagoga", "wikidata": "Q3502453", "wikimedia_commons": "File:Krakow Synagoga Stara 20070920 xxyy.jpg", "wikipedia": "pl:Synagoga Stara w Krakowie"}}, {"type": "way", "id": 152137708, "nodes": [1649729848, 2975387887, 2402570209, 1649729850, 2931433162, 1649729933, 472147275, 11565303670, 1649729848], "tags": {"building": "yes", "building:levels": "3", "free_day": "no", "name": "Muzeum Etnograficzne (Dom Esterki)", "name:hu": "N\u00e9prajzi M\u00fazeum (Esterka-h\u00e1z)", "name:pl": "Muzeum Etnograficzne (Dom Esterki)", "note": "nie ma wystawy sta\u0142ej", "operator": "Muzeum", "tourism": "museum", "website": "https://etnomuzeum.eu/lokalizacje/dom-esterki", "wikidata": "Q9209287", "wikipedia": "pl:Dom Esterki w Krakowie"}}, {"type": "way", "id": 152334111, "nodes": [3000790372, 11767220279, 11767220280, 3000790767, 3000790688, 3000790378, 3001378974, 3000790376, 3000790372], "tags": {"building": "commercial", "building:levels": "2", "name": "Dom Rzemios\u0142 Teatralnych", "roof:shape": "gabled", "tourism": "museum", "wheelchair": "limited"}}, {"type": "way", "id": 153158172, "nodes": [1658773392, 1658773397, 1658773403, 1658773406, 3279106652, 1658773393, 1658773398, 3279112178, 1658773410, 1658773432, 1658773424, 3279112474, 1658773394, 3279111806, 2000518588, 2000518586, 3279111802, 3279112467, 3279112469, 3279111803, 3279112471, 3279111804, 3279111805, 3279112077, 3279112473, 3279112036, 3279111808, 1658773392], "tags": {"addr:city": "Krak\u00f3w", "addr:country": "PL", "addr:housenumber": "41", "addr:postcode": "31-019", "addr:street": "Floria\u0144ska", "building": "museum", "building:levels": "4", "description:hu": "Jan Matejko (1838\u201393) lengyel fest\u0151", "historic": "house", "name": "Dom Jana Matejki", "name:de": "Jan-Matejko-Haus", "name:en": "Matejko House", "name:hu": "Jan Matejko-h\u00e1z", "name:pl": "Dom Jana Matejki", "tourism": "museum", "wikidata": "Q998674", "wikimedia_commons": "File:Dom.Jana.Matejki.jpg", "wikipedia": "pl:Dom Jana Matejki w Krakowie"}}, {"type": "way", "id": 153173384, "nodes": [1658892542, 1658892625, 6680055026, 6514751646, 6514751647, 1658892603, 1658892315, 11478483656, 1658892324, 1658892313, 1658892329, 1658892271, 1658892278, 1658892288, 1658892284, 1658892294, 6514751650, 1658892595, 6514751649, 6514751648, 1658892575, 1658892602, 1658892597, 1658892604, 1658892577, 1658892552, 1658892542], "tags": {"addr:city": "Krak\u00f3w", "addr:housenumber": "4", "addr:postcode": "30-702", "addr:street": "Lipowa", "building": "yes", "museum": "art", "name": "Muzeum Sztuki Wsp\u00f3\u0142czesnej w Krakowie", "name:de": "Museum f\u00fcr Gegenwartskunst in Krakau", "name:en": "Museum of Contemporary Art in Krakow", "name:hu": "Krakk\u00f3i Kort\u00e1rs M\u0171v\u00e9szeti M\u00fazeum", "name:pl": "Muzeum Sztuki Wsp\u00f3\u0142czesnej w Krakowie", "short_name": "MOCAK", "tourism": "museum", "website": "https://www.mocak.pl", "wheelchair": "yes", "wikidata": "Q11787222", "wikipedia": "pl:Muzeum Sztuki Wsp\u00f3\u0142czesnej w Krakowie MOCAK"}}, {"type": "way", "id": 161678894, "nodes": [3442928205, 3442928120, 3442928198, 9889044329, 9889044330, 9889044331, 9889044323, 9889044332, 9889044322, 9889044321, 3442928197, 3442928205], "tags": {"addr:city": "Krak\u00f3w", "addr:housenumber": "28", "addr:postcode": "30-437", "addr:street": "Forteczna", "building": "museum", "fee": "no", "museum": "history", "name": "Muzeum i Centrum Ruchu Harcerskiego", "name:en": "Museum of the Scouting Movement", "name:pl": "Muzeum i Centrum Ruchu Harcerskiego", "opening_hours": "We-Su 10:00-18:00", "operator": "Muzeum Krakowa", "operator:type": "public", "toilets": "yes", "tourism": "museum", "website": "https://muzeumkrakowa.pl/oddzialy/muzeum-i-centrum-ruchu-harcerskiego"}}, {"type": "way", "id": 231216399, "nodes": [8325350029, 8325350028, 8325350027, 8325350026, 8325350025, 8325350024, 8325350023, 8325350022, 8325350021, 8325350020, 8325350019, 7537692560, 8325350018, 8325350017, 8325350016, 8325350015, 8325350014, 8325350013, 8325350012, 8325350011, 8325350010, 8325350009, 8325350008, 8325350007, 8325350006, 8325350005, 8325350004, 8325350003, 8325350002, 8325350001, 8325350000, 8325350029], "tags": {"addr:city": "Krak\u00f3w", "addr:country": "PL", "addr:housenumber": "28", "addr:street": "W\u0142odzimierza Tetmajera", "building": "museum", "fee": "yes", "fee:conditional": "no @ Tu", "museum": "history", "name": "Rydl\u00f3wka", "opening_hours": "Tu-Sa 10:00-17:00", "operator": "Muzeum Krakowa", "operator:type": "public", "ref:ckkp": "MA00567", "toilets": "yes", "tourism": "museum", "website": "https://muzeumkrakowa.pl/oddzialy/rydlowka", "wheelchair": "no", "wikidata": "Q7309266", "wikipedia": "pl:Rydl\u00f3wka"}}, {"type": "way", "id": 231921680, "nodes": [2402445958, 2402446035, 2402446027, 2402446039, 2402446033, 2402446021, 2402446018, 2402445931, 2402445958], "tags": {"addr:city": "Krak\u00f3w", "addr:country": "PL", "addr:housenumber": "41", "addr:postcode": "30-209", "addr:street": "Kr\u00f3lowej Jadwigi", "building": "museum", "closed": "yes", "disused:tourism": "museum", "museum": "history", "name": "Dom Zwierzyniecki", "name:en": "Zwierzyniec House", "name:hu": "Zwierzyniec H\u00e1z", "name:pl": "Dom Zwierzyniecki", "tourism": "museum", "wikidata": "Q5101529", "wikipedia": "pl:Dom Zwierzyniecki"}}, {"type": "way", "id": 233092298, "nodes": [2414350354, 2414350445, 2414350440, 11932813922, 2414350619, 2414350626, 11932813923, 2414350670, 2414350738, 2414350723, 2414350736, 11932813924, 11932813925, 2414350719, 2414350605, 2414350426, 2414350430, 2414350419, 2414350416, 2414350381, 6500997624, 2414350323, 2414350315, 2414350361, 2414350354], "tags": {"addr:city": "Krak\u00f3w", "addr:country": "PL", "addr:housenumber": "1", "addr:postcode": "30-111", "addr:street": "Aleja Marsza\u0142ka Ferdinanda Focha", "building": "yes", "name": "Dawny Hotel \"Cracovia\"", "operator": "Muzeum Narodowe w Krakowie", "tourism": "museum", "wikidata": "Q11710137", "wikipedia": "pl:Hotel \u201eCracovia\u201d"}}, {"type": "way", "id": 233371578, "nodes": [3071746356, 11933326352, 7219309635, 11933326356, 11933326353, 11933326355, 3071746354, 11933326354, 3071745590, 3071747071, 11933326351, 3071747070, 3071746352, 3071745588, 3071747069, 3071746351, 3071745587, 3071747068, 3071746350, 3071745586, 11933423858, 11933326357, 3071746349, 3071747067, 3074942105, 11933326358, 3071745591, 11181906934, 3071746355, 3071746357, 11933326362, 3071746356], "tags": {"addr:city": "Krak\u00f3w", "addr:country": "PL", "addr:housenumber": "26", "addr:postcode": "30-302", "addr:street": "Marii Konopnickiej", "building": "civic", "building:levels": "1.5", "building:part": "yes", "contact:website": "https://manggha.pl", "fee": "yes", "fee:conditional": "no @ Tu", "name": "Muzeum Sztuki i Techniki Japo\u0144skiej Manggha", "name:hu": "Manggha Jap\u00e1n M\u0171v\u00e9szeti \u00e9s Technol\u00f3giai M\u00fazeum", "source:fee": "https://manggha.pl/informacje-praktyczne", "tourism": "museum", "wikidata": "Q572206", "wikipedia": "pl:Muzeum Sztuki i Techniki Japo\u0144skiej \u201eManggha\u201d"}}, {"type": "way", "id": 307078506, "nodes": [3121331509, 3121331374, 3121331373, 3121331368, 3121331367, 3121331366, 3121331498, 3121331491, 3121331359, 3121331497, 3121331365, 3121326398, 3121326400, 6304273514, 3121331509], "tags": {"building": "museum", "building:levels": "2", "contact:facebook": "https://www.facebook.com/muzeumpodgorza/", "description:hu": "Podg\u00f3rze Krakk\u00f3 Visztul\u00e1t\u00f3l d\u00e9lre es\u0151 v\u00e1rosr\u00e9sze", "fee": "yes", "fee:conditional": "no @ Th except temporary exhibitions", "museum": "history", "name": "Muzeum Podg\u00f3rza", "name:en": "Podg\u00f3rze Museum", "name:hu": "Podg\u00f3rzei M\u00fazeum", "name:pl": "Muzeum Podg\u00f3rza", "opening_hours": "We-Su 10:00-17:00", "operator": "Muzeum Krakowa", "operator:type": "public", "tourism": "museum", "website": "https://muzeumkrakowa.pl/oddzialy/muzeum-podgorza"}}, {"type": "way", "id": 307773166, "nodes": [3129788193, 1679460250, 2905885404, 4277346780, 2905885401, 4277346772, 1679460196, 1679460170, 2409354640, 3129551719, 2409354637, 2409354636, 2409354635, 1692479830, 1692479826, 4273750786, 1692479816, 1692479812, 4273750770, 1169654843, 9252912669, 1692479796, 1692479808, 1692479814, 11862489523, 11862489522, 11862468355, 11862489517, 3623200008, 1262680449, 11862489518, 11795174018, 11789632382, 3138384514, 1262680463, 1770404410, 1770404416, 1262680459, 1262680451, 12824088144, 12825579850, 12825579851, 12824088145, 12825579839, 12825579847, 12825579846, 12825579845, 12825579844, 12824088147, 12825579862, 12825579863, 12825579866, 12824088146, 12825579859, 1692479875, 2360485372, 3129788195, 11043890809, 1692479866, 1692479864, 1692479862, 11043890806, 1692479861, 1692479860, 1692479859, 1692479857, 2959413255, 1692479856, 1692479855, 1692479841, 1692479839, 3129788194, 3129788193], "tags": {"addr:city": "Krak\u00f3w", "addr:postcode": "31-864", "addr:street": "Jana Paw\u0142a II", "email": "info@muzeumlotnictwa.pl", "fee": "yes", "fee:conditional": "no @ Tu", "museum": "aviation", "name": "Muzeum Lotnictwa Polskiego", "name:be": "\u041c\u0443\u0437\u0435\u0439 \u043f\u043e\u043b\u044c\u0441\u043a\u0430\u0439 \u0430\u0432\u0456\u044f\u0446\u044b\u0456", "name:cs": "Muzeum polsk\u00e9ho letectv\u00ed v Krakov\u011b", "name:de": "Polnisches Luftfahrtmuseum", "name:en": "Polish Aviation Museum", "name:eo": "Muzeo de la Pola Aviado en Krakovo", "name:es": "Museo Polaco de Aviaci\u00f3n", "name:fi": "Puolan ilmailumuseo", "name:fr": "Mus\u00e9e de l'Aviation polonaise", "name:hu": "Lengyel Rep\u00fcl\u00e9si M\u00fazeum", "name:it": "Museo dell'aviazione polacca", "name:nl": "Pools Luchtvaartmuseum", "name:pl": "Muzeum Lotnictwa Polskiego", "name:ro": "Muzeul Polonez de Avia\u021bie", "name:ru": "\u041c\u0443\u0437\u0435\u0439 \u043f\u043e\u043b\u044c\u0441\u043a\u043e\u0439 \u0430\u0432\u0438\u0430\u0446\u0438\u0438", "name:uk": "\u041c\u0443\u0437\u0435\u0439 \u043f\u043e\u043b\u044c\u0441\u044c\u043a\u043e\u0457 \u0430\u0432\u0456\u0430\u0446\u0456\u0457", "name:zh": "\u6ce2\u5170\u822a\u7a7a\u535a\u7269\u9986", "opening_hours": "Tu-Su 09:00-17:00", "phone": "+48126428700", "ref:ckkp": "MA00401", "source:fee": "https://muzeumlotnictwa.pl/zwiedzanie/#ceny", "tourism": "museum", "website": "http://muzeumlotnictwa.pl/", "wikidata": "Q377904", "wikimedia_commons": "Category:Polish Aviation Museum", "wikipedia": "pl:Muzeum Lotnictwa Polskiego w Krakowie"}}, {"type": "way", "id": 337890466, "nodes": [6778356149, 6778356156, 6782613531, 6778356155, 6778356154, 6778356153, 6778356152, 6778356151, 6778356150, 6778356149], "tags": {"addr:city": "Krak\u00f3w", "addr:housenumber": "2b", "addr:street": "Sasanek", "building": "storage", "building:levels": "1", "description": "Stary dw\u00f3r Branickich", "heritage": "2", "heritage:operator": "nid", "heritage:website": "https://zabytek.pl/pl/obiekty/krakow-lamus", "historic": "yes", "name": "Renesansowy lamus", "nid:inscription_date": "1968-01-02", "opening_hours": "Nov-Apr Mo-Fr 10:00-14:00, Nov-Apr Mo-Fr 10:00-14:00, Nov-Apr Sa,Su 14:00-18:00", "ref:nid": "A-53", "source:addr": "EMUiA (emuia.gugik.gov.pl)", "source:building": "BDOT", "source:geometry": "EGiB", "start_date": "1603", "tourism": "museum", "wikidata": "Q30161570", "wikimedia_commons": "Category:Lamus of manor house in Branice (Krak\u00f3w)"}}, {"type": "way", "id": 341533598, "nodes": [3486996275, 3487000293, 3486992850, 3486999324, 3486996275]}, {"type": "way", "id": 638349014, "nodes": [2978715421, 2978720917, 2978720905, 6016422954, 6016422955, 2978721047, 2979062646, 1649730701, 2979079781, 10122757030, 2979055698, 2979057560, 2978720810, 6649526774, 2978721150, 2979079854, 2979078698, 2978721452, 2144930431, 10122727968, 470205533, 2978715421], "tags": {"addr:city": "Krak\u00f3w", "addr:housenumber": "15", "addr:street": "\u015awi\u0119tego Wawrzy\u0144ca", "fee": "yes", "fee:conditional": "no @ Tu", "name": "Muzeum In\u017cynierii i Techniki", "old_name": "Muzeum In\u017cynierii Miejskiej", "opening_hours": "Tu-Su 11:00-18:00", "tourism": "museum", "website": "https://www.mit.krakow.pl/", "wikidata": "Q6944417", "wikimedia_commons": "Category:Museum of Municipal Engineering in Krak\u00f3w", "wikipedia": "pl:Muzeum In\u017cynierii i Techniki w Krakowie"}}, {"type": "way", "id": 929760911, "nodes": [8622293637, 8622293638, 4146820325, 4146802833, 6514826234, 6514826233, 6514826232, 4146768176, 4146768175, 4146768333, 4146768336, 4146843724, 4146802838, 4146843722, 8622293637], "tags": {"addr:city": "Krak\u00f3w", "addr:street": "Marsza\u0142ka J\u00f3zefa Pi\u0142sudskiego", "email": "czapscy@mnk.pl", "fee": "yes", "fee:conditional": "no @ Su", "landuse": "commercial", "name": "Muzeum im. Emeryka Hutten-Czapskiego", "name:hu": "Emeryk Hutten-Czapski M\u00fazeum", "opening_hours": "Tu-Sa 10:00-18:00; Su 10:00-16:00", "operator": "Muzeum Narodowe w Krakowie", "phone": "+48 12 433 58 40", "tourism": "museum", "website": "https://mnk.pl/oddzial/muzeum-im-emeryka-hutten-czapskiego", "wikidata": "Q1338606", "wikipedia": "pl:Muzeum im. Emeryka Hutten-Czapskiego"}}, {"type": "way", "id": 1013180059, "nodes": [9347390601, 9347390600, 3010769938, 9347390599, 9347390598, 9347390597, 9347390596, 9347390595, 9347390594, 9347390593, 9347390592, 9347390591, 9347390590, 9347390589, 9347390588, 9347390587, 9347390586, 9347390585, 3010771605, 9347390584, 9347390583, 9347390582, 9347390581, 9347390580, 9347390579, 9347390578, 9347390577, 9347390576, 9347390575, 9347390574, 9347390573, 9347390572, 9347390571, 9347390570, 9347390569, 9347390568, 9347390567, 9347390566, 9347390565, 9347390564, 9347390563, 9347390562, 9347390561, 9347390560, 9347390559, 9347390558, 9347390557, 9347390556, 9347390601], "tags": {"amenity": "events_venue", "name": "Barbakan"}}, {"type": "way", "id": 1013180060, "nodes": [3010740992, 3010769448, 9347411035, 3010769449, 9347411034, 3010751497, 3010751498, 3010751508, 3010770044, 9347411033, 9347411032, 9347411031, 9347411030, 9347411029, 9347411028, 9347411027, 9347411026, 9347411025, 3010771443, 3010771856, 9347411024, 9347411023, 9300141425, 9347411022, 9347411021, 3010770061, 3010771767, 9347411020, 9347411019, 9347411018, 9347411017, 9347390616, 9347390615, 9347390614, 9347390613, 9347390612, 9347390611, 9347390610, 9347390609, 9347390608, 9347390607, 9347390606, 9347390605, 9347390604, 9347390603, 3010770809, 3010770046, 9347390602, 3010770402, 3010751502, 3010740992]}, {"type": "way", "id": 1025803982, "nodes": [9457822664, 9457822663, 9457822662, 9457822661, 9457822664], "tags": {"addr:city": "Krak\u00f3w", "addr:country": "PL", "addr:district": "Stare Miasto", "addr:housenumber": "22A", "addr:postcode": "31-510", "addr:street": "Rakowicka", "addr:subdistrict": "Warszawskie", "contact:phone": "+48 12 395 70 42", "fee": "yes", "fee:conditional": "no @ Tu for unchanging exhibitions", "landuse": "culture", "name": "MuFo Rakowicka", "official_name": "Muzeum Historii Fotografii im. Walerego Rzewuskiego w Krakowie", "opening_hours": "Mo-Fr 10:00-18:00; Sa-Su 11:00-19:00", "operator": "Muzeum Fotografii w Krakowie", "tourism": "museum", "website": "https://www.mufo.krakow.pl/", "wikidata": "Q9047022", "wikipedia": "pl:Muzeum Fotografii w Krakowie"}}, {"type": "way", "id": 1239695575, "nodes": [11517131300, 12000765080, 11517131299, 11517682187, 11517131298, 12000765079, 11517131297, 11517131300], "tags": {"building:part": "conservatory", "roof:material": "glass"}}, {"type": "way", "id": 1239734035, "nodes": [8991783993, 12000765091, 12000765090, 11517131402, 11517034035, 12000765085, 12000765089, 12000765088, 11517034036, 11517131401, 12000765092, 8991783993], "tags": {"building:part": "yes"}}, {"type": "way", "id": 1239734036, "nodes": [11517131406, 11517034043, 12000765076, 12000765087, 12000765086, 12000765081, 11517034042, 11517131405, 12000765082, 11517131404, 11517034040, 12000765084, 12000765094, 11517034041, 11517131403, 12000765093, 11517131406], "tags": {"building:part": "yes"}}, {"type": "way", "id": 1239734037, "nodes": [11517131410, 11517034054, 12000765078, 12000765077, 11517034052, 11517131409, 12000765083, 11517131408, 11517034051, 11517131297, 11517131300, 11517034053, 11517131407, 12000765096, 12000765095, 11517131410], "tags": {"building:part": "yes"}}, {"type": "way", "id": 1239734038, "nodes": [11517131412, 11517034049, 11517785033, 11517785034, 11517131299, 11517682187, 11517131298, 11517785039, 11517682180, 11517682183, 11517785038, 11517682184, 11517034048, 11517131411, 11517832200, 8991783991, 11517034047, 11778015377, 11778015379, 12691187248, 11778015376, 11778015371, 11517034050, 8991783992, 11517131412], "tags": {"building:part": "yes"}}, {"type": "way", "id": 1284375894, "nodes": [11915767575, 11915767576, 2401454000, 2401454003, 11915767596, 11917963248, 11917963249, 11915767600, 11915767601, 11915767579, 11915767597, 11917963252, 2401454016, 2401454018, 11915767583, 11915767584, 11915767585, 11915767586, 11915767587, 11915767588, 11915767589, 11915767590, 11915767575], "tags": {"addr:city": "Krak\u00f3w", "addr:country": "PL", "addr:housenumber": "1", "addr:postcode": "30-062", "addr:street": "Aleja 3 Maja", "building": "yes", "fee": "yes", "fee:conditional": "no @ Tu; yes @ (temporary_exhibition)", "fixme": "wysoko\u015b\u0107 0.1, \u017ceby 3d nie renderowa\u0142o jednej kondygnacji z ca\u0142ego obrysu budynku", "height": "0.1", "name": "Muzeum Narodowe w Krakowie", "name:de": "Nationalmuseum in Krakau", "name:en": "National Museum in Krak\u00f3w", "name:hu": "Krakk\u00f3i Nemzeti M\u00fazeum", "name:pl": "Muzeum Narodowe w Krakowie", "opening_hours": "Tu,Fr,Sa 10:00-19:00; Mo off; We,Th,Su 10:00-18:00", "tourism": "museum", "wheelchair": "yes", "wikidata": "Q195311", "wikimedia_commons": "Category:Building of the National Museum in Krak\u00f3w", "wikipedia": "pl:Muzeum Narodowe w Krakowie"}}, {"type": "way", "id": 1334317116, "nodes": [1657847622, 3278951285, 3278951100, 3278951296, 3278951300, 3278951199, 3278951106, 3278951200, 3278950964, 3278951112, 3278950966, 3278951114, 3278951204, 3278951321, 3278948515, 3278951366, 3278951380, 3278951379, 3278948539, 3278948540, 3278948555, 3278951012, 4109464697, 3278951565, 3278951479, 3278951567, 3278951480, 3278951482, 3278949835, 3278949840, 3278949839, 3278949844, 3278949845, 3278949847, 3278949848, 3278949846, 3278949849, 3278951584, 3278951585, 3278951582, 3278949851, 3278949853, 3278949854, 3278949852, 3278949856, 3278949858, 3278949860, 3278949857, 3278949859, 3278951661, 3278951663, 3278951484, 3278951662, 2620265141, 2620265142, 3010767179, 3010740955, 3010740954, 3010767178, 3010766876, 3010766874, 3010766873, 3010766877, 3010766148, 3010765923, 3010765924, 3010766150, 3010766930, 3010767886, 3010767862, 3010730393, 4109275539, 3010751471, 3010767876, 12265886213, 12265886209, 12265886211, 12265886210, 12265886212, 12265886214, 3010730418, 12265886204, 3010730419, 12265886206, 12265886205, 12265886207, 12265886208, 3010768847, 3010768848, 4109275545, 3010767891, 3010767894, 3010767895, 3010751485, 3010751484, 3010768861, 3010768860, 3010769438, 3010730420, 3010767874, 274260893, 275178527, 3010740964, 3010767840, 3010767844, 4109417420, 3010767850, 3010767845, 3010767853, 275178543, 3010751470, 3010767870, 4109275538, 3010767859, 3010767856, 3010767851, 3010767849, 3010767848, 471557484, 3010767843, 3010740960, 3010740961, 3010767689, 3010740958, 4109417418, 3010730388, 3010766984, 3010766170, 3010766169, 3010766982, 3010766163, 3010767435, 3010766161, 3010766980, 3010766155, 3010766931, 2620265143, 1657847739, 3010764265, 1657847697, 1657847660, 3278948753, 1657847595, 3278951274, 3278951077, 3278951164, 1657847558, 3278946135, 1657847561, 1657847622], "tags": {"addr:city": "Krak\u00f3w", "fee": "yes", "fee:conditional": "no @ Tu", "loc_name": "Czartoryscy", "name": "Muzeum Ksi\u0105\u017c\u0105t Czartoryskich w Krakowie", "opening_hours": "Tu-Su 10:00-18:00", "phone": "+48 12 370 54 60", "ref:ckkp": "MA00400", "source:fee": "https://mnk.pl/oddzial/mnk-muzeum-czartoryskich/bilety-dojazd-informacje", "tourism": "museum", "website": "https://mnk.pl/oddzial/mnk-muzeum-czartoryskich", "wheelchair": "yes", "wikidata": "Q1450630", "wikipedia": "pl:Muzeum Ksi\u0105\u017c\u0105t Czartoryskich w Krakowie"}}, {"type": "relation", "id": 1765210, "members": [{"type": "way", "ref": 131342427, "role": "outer"}, {"type": "way", "ref": 341533598, "role": "inner"}], "tags": {"addr:city": "Krak\u00f3w", "addr:country": "PL", "addr:district": "Stare Miasto", "addr:housenumber": "12", "addr:postcode": "31-141", "addr:street": "Wita Stwosza", "addr:subdistrict": "Warszawskie", "building": "yes", "description:hu": "II. vil\u00e1gh\u00e1bor\u00fas ellen\u00e1ll\u00e1si m\u00fazeum", "fee": "yes", "fee:conditional": "no @ Su", "historic": "yes", "museum": "history", "name": "Muzeum Armii Krajowej", "name:hu": "Lengyel Honi Hadsereg M\u00fazeuma", "official_name": "Muzeum Armii Krajowej im. Gen. Emila Fieldorfa \"Nila\"", "opening_hours": "Tu-Su 11:00-17:00", "operator": "Gmina Miejska Krak\u00f3w i Wojew\u00f3dztwo Ma\u0142opolskie", "operator:type": "public", "phone": "+48 12 4100770", "short_name": "Muzeum AK", "tourism": "museum", "type": "multipolygon", "website": "https://www.muzeum-ak.pl/", "wikidata": "Q4793410", "wikipedia": "pl:Muzeum Armii Krajowej w Krakowie"}}, {"type": "relation", "id": 1863002, "members": [{"type": "way", "ref": 138355832, "role": "outer"}, {"type": "way", "ref": 138355838, "role": "inner"}, {"type": "way", "ref": 138355813, "role": "inner"}], "tags": {"building": "yes", "building:levels": "4", "fee": "yes", "fee:conditional": "no @ Su", "fee:conditional:note": "Zdarzaj\u0105 si\u0119 wystawy w salach wynajmowane od muzeum, nie organizowane przez muzeum kt\u00f3re nie s\u0105 obj\u0119te darmowym wst\u0119pem", "heritage": "2", "heritage:operator": "nid", "museum": "archaeological", "name": "Muzeum Archeologiczne", "name:de": "Arch\u00e4ologisches Museum", "name:en": "Archeological Museum", "name:es": "Museo Arqueol\u00f3gico", "name:hu": "R\u00e9g\u00e9szeti M\u00fazeum", "name:pl": "Muzeum Archeologiczne", "opening_hours": "Mo-Su 10:00-16:00", "operator": "Wojew\u00f3dztwo Ma\u0142opolskie", "operator:type": "public", "ref:nid": "A-90", "tourism": "museum", "type": "multipolygon", "url": "https://dzieje.pl/dziedzictwo-kulturowe/muzeum-ktore-bylo-klasztorem-i-wiezieniem", "visiting_time": "1h", "website": "https://ma.krakow.pl/", "wheelchair": "no", "wikidata": "Q3329434", "wikipedia": "pl:Muzeum Archeologiczne w Krakowie"}}, {"type": "relation", "id": 13562708, "members": [{"type": "way", "ref": 1013180060, "role": "outer"}, {"type": "way", "ref": 1013180059, "role": "inner"}], "tags": {"building": "yes", "building:colour": "maroon", "building:material": "brick", "defensive_works": "barbican", "disused:tourism": "museum", "fee": "yes", "height": "10", "heritage": "2", "heritage:operator": "nid", "historic": "city_gate", "museum": "history", "name": "Barbakan", "name:de": "Barbican", "name:en": "Barbican", "name:hu": "Barbak\u00e1n", "name:pl": "Barbakan", "opening_hours": "Mo-Su 10:30-18:00; Nov-Mar off", "operator": "Muzeum Krakowa", "ref:ckkp": "MA00013", "ref:nid": "A-8", "seasonal": "yes", "source:seasonal": "https://muzeumkrakowa.pl/aktualnosci/oddzialy-mury-obronne-i-barbakan", "tourism": "museum", "type": "multipolygon", "website": "https://muzeumkrakowa.pl/oddzialy/barbakan", "wheelchair": "limited", "wikidata": "Q807309", "wikipedia": "pl:Barbakan w Krakowie"}}, {"type": "relation", "id": 16816031, "members": [{"type": "way", "ref": 1025803982, "role": ""}, {"type": "node", "ref": 9455645942, "role": ""}], "tags": {"amenity": "museum", "contact:phone": "+48 12 395 70 42", "name": "Muzeum Fotografii w Krakowie", "operator": "Muzeum Fotografii w Krakowie", "ownership": "municipal", "short_name": "MuFo", "tourism": "museum", "type": "network", "website": "https://www.mufo.krakow.pl/", "wikidata": "Q9047022", "wikipedia": "pl:Muzeum Fotografii w Krakowie"}}, {"type": "relation", "id": 17027311, "members": [{"type": "way", "ref": 1239734038, "role": "outer"}, {"type": "way", "ref": 1239734037, "role": "outer"}, {"type": "way", "ref": 1239734036, "role": "outer"}, {"type": "way", "ref": 1239734035, "role": "outer"}, {"type": "way", "ref": 1239695575, "role": "outer"}], "tags": {"addr:city": "Krak\u00f3w", "addr:housenumber": "26", "addr:postcode": "31-866", "addr:street": "Izydora Stella-Sawickiego", "alt_name": "MCN Cogiteon", "building": "museum", "building:levels": "4", "building:levels:underground": "1", "contact:facebook": "https://www.facebook.com/cogiteon", "contact:instagram": "https://www.instagram.com/cogiteon.pl", "contact:tiktok": "https://www.tiktok.com/@cogiteon", "contact:twitter": "https://x.com/cogiteon", "contact:youtube": "https://www.youtube.com/cogiteon", "email": "biuro@cogiteon.pl", "fee": "yes", "height": "23", "museum": "science", "name": "Ma\u0142opolskie Centrum Nauki Cogiteon", "name:en": "Ma\u0142opolska Science Center Cogiteon", "opening_hours": "Tu-Th 09:00-17:00; Fr-Su 09:00-19:00; PH off", "operator:type": "public", "phone": "+48 12 3957065", "short_name": "Cogiteon", "subject": "science", "tourism": "museum", "type": "multipolygon", "website": "https://www.cogiteon.pl/", "wikidata": "Q56338423", "wikimedia_commons": "Category:Ma\u0142opolskie Centrum Nauki Cogiteon", "wikipedia": "pl:Ma\u0142opolskie Centrum Nauki w Krakowie"}}]}