{"version": 0.6, "generator": "Overpass API 0.7.62.5 1bd436f1", "osm3s": {"timestamp_osm_base": "2025-05-30T23:01:20Z", "copyright": "The data included in this document is from www.openstreetmap.org. The data is made available under ODbL."}, "elements": [{"type": "node", "id": 322639476, "lat": 50.0652501, "lon": 19.9309538}, {"type": "node", "id": 322639478, "lat": 50.065072, "lon": 19.9310138}, {"type": "node", "id": 322639479, "lat": 50.0646805, "lon": 19.9282496}, {"type": "node", "id": 322639480, "lat": 50.0648593, "lon": 19.9281877}, {"type": "node", "id": 752177394, "lat": 50.0652149, "lon": 19.93012}, {"type": "node", "id": 752177399, "lat": 50.0650531, "lon": 19.9289686}, {"type": "node", "id": 752177425, "lat": 50.0652455, "lon": 19.9303287}, {"type": "node", "id": 752177460, "lat": 50.0650225, "lon": 19.928757}, {"type": "node", "id": 752177481, "lat": 50.0651615, "lon": 19.930358}, {"type": "node", "id": 752177492, "lat": 50.0649388, "lon": 19.9287878}, {"type": "node", "id": 752177501, "lat": 50.0651314, "lon": 19.9301487}, {"type": "node", "id": 752177530, "lat": 50.0648788, "lon": 19.9296322, "tags": {"entrance": "main"}}, {"type": "node", "id": 752177531, "lat": 50.0649687, "lon": 19.9289966}, {"type": "node", "id": 968360672, "lat": 50.0797993, "lon": 20.036445, "tags": {"addr:city": "Krak\u00f3w", "addr:country": "PL", "addr:housenumber": "5", "addr:place": "Osiedle G\u00f3rali", "amenity": "library"}}, {"type": "node", "id": 1283188892, "lat": 50.0734642, "lon": 19.9148828, "tags": {"addr:city": "Krak\u00f3w", "addr:country": "PL", "addr:housenumber": "59", "addr:postcode": "30-831", "addr:street": "Kr\u00f3lewska", "amenity": "library", "check_date:opening_hours": "2023-03-10", "name": "Biblioteka Krak\u00f3w Filia 21", "opening_hours": "Mo-We 08:30-19:00; Th 12:00-19:00; Fr 08:30-19:00; Sa 09:00-14:00", "operator": "Biblioteka Krak\u00f3w", "operator:type": "public", "operator:wikidata": "Q48841935", "website": "https://www.biblioteka.krakow.pl/filie/filia-21/"}}, {"type": "node", "id": 1373921678, "lat": 50.0575497, "lon": 19.945327, "tags": {"addr:city": "Krak\u00f3w", "addr:housenumber": "80/82", "addr:postcode": "31-073", "addr:street": "J\u00f3zefa Dietla", "amenity": "library", "check_date": "2023-08-16", "email": "filia_1@biblioteka.krakow.pl", "name": "Biblioteka Krak\u00f3w Filia 1", "opening_hours": "Mo-Fr 09:00-19:00; Tu 09:00-15:30; Th 11:00-15:30", "operator": "Biblioteka Krak\u00f3w", "phone": "+48 12 429 34 30", "website": "https://www.biblioteka.krakow.pl/filie/filia-1/"}}, {"type": "node", "id": 1416965544, "lat": 50.0673409, "lon": 20.0501099, "tags": {"addr:city": "Krak\u00f3w", "addr:country": "PL", "addr:housenumber": "8", "addr:place": "Osiedle M\u0142odo\u015bci", "addr:postcode": "31-908", "amenity": "library", "check_date:opening_hours": "2023-07-28", "name": "Biblioteka Krak\u00f3w Filia 54", "opening_hours": "Mo,We,Fr 12:00-19:00; Tu 08:30-15:30; Th 12:00-15:30", "operator": "Biblioteka Krak\u00f3w", "operator:type": "public", "operator:wikidata": "Q48841935", "website": "https://www.biblioteka.krakow.pl/filie/filia-54/", "wheelchair": "limited"}}, {"type": "node", "id": 1426848045, "lat": 50.0302947, "lon": 19.9090056, "tags": {"addr:city": "Krak\u00f3w", "addr:country": "PL", "addr:housenumber": "4", "addr:street": "Profesora Stanis\u0142awa \u0141ojasiewicza", "amenity": "library", "name": "Biblioteka Wydzia\u0142u Zarz\u0105dzania i Komunikacji Spo\u0142ecznej Uniwersytetu Jagiello\u0144skiego", "operator": "Uniwersytet Jagiello\u0144ski", "wheelchair": "yes"}}, {"type": "node", "id": 1503618102, "lat": 50.0684561, "lon": 19.9561671}, {"type": "node", "id": 1503618109, "lat": 50.0685988, "lon": 19.9557088}, {"type": "node", "id": 1503618110, "lat": 50.0686391, "lon": 19.9560867}, {"type": "node", "id": 1503618113, "lat": 50.0686807, "lon": 19.9559511}, {"type": "node", "id": 1503618117, "lat": 50.0688304, "lon": 19.956229}, {"type": "node", "id": 1503618118, "lat": 50.068872, "lon": 19.9560933}, {"type": "node", "id": 1503618120, "lat": 50.0689036, "lon": 19.9565053}, {"type": "node", "id": 1503618123, "lat": 50.068969, "lon": 19.9559874}, {"type": "node", "id": 1503618126, "lat": 50.0690463, "lon": 19.9560436}, {"type": "node", "id": 1505834166, "lat": 50.0737102, "lon": 20.049442, "tags": {"addr:city": "Krak\u00f3w", "addr:country": "PL", "addr:housenumber": "12", "addr:place": "Osiedle Stalowe", "addr:postcode": "31-921", "amenity": "library", "name": "Biblioteka Krak\u00f3w Filia 53", "operator": "Biblioteka Krak\u00f3w", "operator:type": "public", "operator:wikidata": "Q48841935", "website": "https://www.biblioteka.krakow.pl/filie/filia-53/"}}, {"type": "node", "id": 1505834168, "lat": 50.0817996, "lon": 20.0048094, "tags": {"addr:city": "Krak\u00f3w", "addr:housenumber": "1", "addr:place": "Osiedle Dywizjonu 303", "addr:postcode": "31-871", "amenity": "library", "name": "Biblioteka Krak\u00f3w Filia 47", "opening_hours": "Mo, We, Fr 12:00-19:00; Tu 08:30-15:30; Th 12:00-15:30", "operator": "Biblioteka Krak\u00f3w", "operator:type": "public", "operator:wikidata": "Q48841935", "website": "https://www.biblioteka.krakow.pl/filie/filia-47/"}}, {"type": "node", "id": 1505834169, "lat": 50.0793283, "lon": 20.0312603, "tags": {"addr:city": "Krak\u00f3w", "addr:country": "PL", "addr:housenumber": "25", "addr:place": "Osiedle Teatralne", "amenity": "library", "check_date:opening_hours": "2025-03-28", "name": "Biblioteka Krak\u00f3w Filia 55", "opening_hours": "Mo,We,Fr 12:00-19:00; Tu 08:30-15:30; Th 12:00-15:30", "operator": "Biblioteka Krak\u00f3w", "operator:type": "public", "operator:wikidata": "Q48841935", "website": "https://www.biblioteka.krakow.pl/filie/filia-55/"}}, {"type": "node", "id": 1505834170, "lat": 50.0845287, "lon": 20.013727, "tags": {"addr:city": "Krak\u00f3w", "addr:housenumber": "5", "addr:place": "Osiedle Ko\u015bciuszkowskie", "addr:postcode": "31-858", "amenity": "library", "name": "Biblioteka Krak\u00f3w Filia 50", "operator": "Biblioteka Krak\u00f3w", "website": "https://www.biblioteka.krakow.pl/filie/filia-50/"}}, {"type": "node", "id": 1505834171, "lat": 50.0753223, "lon": 20.0376643, "tags": {"addr:city": "Krak\u00f3w", "addr:country": "PL", "addr:housenumber": "7", "addr:place": "Osiedle Zgody", "amenity": "library", "check_date:opening_hours": "2024-09-01", "name": "Biblioteka Krak\u00f3w Filia 56", "opening_hours": "Mo,Fr 08:30-19:00; Tu 12:00-19:00; Sa 09:00-14:00", "operator": "Biblioteka Krak\u00f3w", "operator:type": "public", "operator:wikidata": "Q48841935", "website": "https://www.biblioteka.krakow.pl/filie/filia-56/"}}, {"type": "node", "id": 1505834172, "lat": 50.0765147, "lon": 20.0380847, "tags": {"addr:city": "Krak\u00f3w", "addr:country": "PL", "addr:housenumber": "7", "addr:place": "Osiedle Zgody", "addr:postcode": "31-949", "amenity": "library", "check_date:opening_hours": "2024-09-13", "description": "Oddzia\u0142 dla dzieci", "name": "Biblioteka Krak\u00f3w Filia 56", "opening_hours": "Mo-We,Fr 08:30-19:00; Th 12:00-19:00; Sa 09:00-14:00", "operator": "Biblioteka Krak\u00f3w", "operator:type": "public", "operator:wikidata": "Q48841935", "website": "https://www.biblioteka.krakow.pl/filie/filia-56/"}}, {"type": "node", "id": 1505834174, "lat": 50.0944647, "lon": 20.0564115, "tags": {"addr:city": "Krak\u00f3w", "addr:country": "PL", "addr:housenumber": "1", "addr:place": "Osiedle Na Stoku", "addr:postcode": "31-701", "amenity": "library", "name": "Biblioteka Krak\u00f3w Filia 52", "operator": "Biblioteka Krak\u00f3w", "operator:type": "public", "operator:wikidata": "Q48841935", "website": "https://www.biblioteka.krakow.pl/filie/filia-52/"}}, {"type": "node", "id": 1505834175, "lat": 50.0896183, "lon": 20.0147833, "tags": {"addr:city": "Krak\u00f3w", "addr:country": "PL", "addr:housenumber": "4", "addr:place": "Osiedle Kalinowe", "addr:postcode": "31-812", "amenity": "library", "name": "Biblioteka Krak\u00f3w Filia 51", "opening_hours": "Mo,We,Fr 12:00-19:00; Tu 08:00-15:30; Th 11:00-15:30", "operator": "Biblioteka Krak\u00f3w", "website": "https://www.biblioteka.krakow.pl/filie/filia-51/"}}, {"type": "node", "id": 1505834177, "lat": 50.0984773, "lon": 20.0122588, "tags": {"addr:city": "Krak\u00f3w", "addr:country": "PL", "addr:housenumber": "26", "addr:place": "Osiedle Bohater\u00f3w Wrze\u015bnia", "addr:postcode": "31-621", "amenity": "library", "check_date": "2024-02-12", "name": "Biblioteka Krak\u00f3w Filia 48", "opening_hours": "Mo-We,Fr 09:00-19:00; Th 12:00-19:00", "operator": "Biblioteka Krak\u00f3w", "operator:type": "public", "operator:wikidata": "Q48841935", "website": "https://www.biblioteka.krakow.pl/filie/filia-48/"}}, {"type": "node", "id": 1505834178, "lat": 50.0938318, "lon": 20.0028217, "tags": {"addr:city": "Krak\u00f3w", "addr:country": "PL", "addr:housenumber": "42", "addr:place": "Osiedle Tysi\u0105clecia", "addr:postcode": "31-610", "amenity": "library", "name": "Biblioteka Krak\u00f3w Filia 49", "operator": "Biblioteka Krak\u00f3w", "website": "https://www.biblioteka.krakow.pl/filie/filia-49/"}}, {"type": "node", "id": 1506289503, "lat": 50.0570502, "lon": 19.9189038, "tags": {"addr:city": "Krak\u00f3w", "addr:country": "PL", "addr:housenumber": "26", "addr:postcode": "30-110", "addr:street": "Filarecka", "amenity": "library", "name": "Biblioteka Krak\u00f3w Filia 25", "opening_hours": "Th 12:00-15:30; Sa 09:00-14:00; Mo,We,Fr 12:00-19:00; Tu 08:30-15:30", "operator": "Biblioteka Krak\u00f3w", "website": "https://www.biblioteka.krakow.pl/filie/filia-25/"}}, {"type": "node", "id": 1506289507, "lat": 50.0908748, "lon": 19.9266944, "tags": {"addr:city": "Krak\u00f3w", "addr:country": "PL", "addr:housenumber": "37", "addr:postcode": "31-276", "addr:street": "Opolska", "amenity": "library", "name": "Biblioteka Krak\u00f3w Filia 20", "opening_hours": "Mo-We, Fr 08:30-19:00; Th 12:00-19:00; Sa 09:00-14:00", "operator": "Biblioteka Krak\u00f3w", "website": "https://www.biblioteka.krakow.pl/filie/filia-20/"}}, {"type": "node", "id": 1506291252, "lat": 50.0945304, "lon": 19.8822588, "tags": {"addr:city": "Krak\u00f3w", "addr:country": "PL", "addr:housenumber": "27", "addr:postcode": "31-344", "addr:street": "Ojcowska", "amenity": "library", "name": "Biblioteka Krak\u00f3w Filia 17", "operator": "Biblioteka Krak\u00f3w", "website": "https://www.biblioteka.krakow.pl/filie/filia-17/"}}, {"type": "node", "id": 1506291269, "lat": 50.0549099, "lon": 19.9094939, "tags": {"addr:city": "Krak\u00f3w", "addr:country": "PL", "addr:housenumber": "37b", "addr:postcode": "30-209", "addr:street": "Kr\u00f3lowej Jadwigi", "amenity": "library", "name": "Biblioteka Krak\u00f3w Filia 27", "opening_hours": "Mo,We 12:00-19:00; Tu 09:00-16:00; Th 11:00-16:00; Fr 12:00-19:00", "operator": "Biblioteka Krak\u00f3w", "website": "https://www.biblioteka.krakow.pl/filie/filia-27/", "wheelchair": "no"}}, {"type": "node", "id": 1506291278, "lat": 50.1121259, "lon": 19.8994229, "tags": {"addr:city": "Krak\u00f3w", "addr:country": "PL", "addr:housenumber": "267", "addr:postcode": "30-119", "addr:street": "W\u0142adys\u0142awa \u0141okietka", "amenity": "library", "name": "Biblioteka Krak\u00f3w Filia 19", "operator": "Biblioteka Krak\u00f3w", "website": "https://www.biblioteka.krakow.pl/filie/filia-19/"}}, {"type": "node", "id": 1506291282, "lat": 50.0540708, "lon": 19.9203914, "tags": {"addr:city": "Krak\u00f3w", "addr:country": "PL", "addr:housenumber": "11", "addr:postcode": "30-106", "addr:street": "Boles\u0142awa Komorowskiego", "amenity": "library", "check_date:opening_hours": "2025-05-01", "name": "Biblioteka Krak\u00f3w Filia 26", "opening_hours": "Mo,We,Fr 12:00-19:00; Tu 08:30-15:30; Th 12:00-15:30", "operator": "Biblioteka Krak\u00f3w", "website": "https://www.biblioteka.krakow.pl/filie/filia-26/"}}, {"type": "node", "id": 1506291294, "lat": 50.0700933, "lon": 19.9256764, "tags": {"addr:city": "Krak\u00f3w", "addr:country": "PL", "addr:housenumber": "2", "addr:postcode": "30-033", "addr:street": "Henryka Sienkiewicza", "amenity": "library", "name": "Biblioteka Krak\u00f3w Filia 22", "opening_hours": "Mo-We,Fr 08:30-19:00; Th 12:00-19:00", "operator": "Biblioteka Krak\u00f3w", "website": "https://www.biblioteka.krakow.pl/filie/filia-22/", "wheelchair": "no"}}, {"type": "node", "id": 1506291299, "lat": 50.085423, "lon": 19.844146, "tags": {"addr:city": "Krak\u00f3w", "addr:country": "PL", "addr:housenumber": "297", "addr:postcode": "30-198", "addr:street": "Balicka", "amenity": "library", "name": "Biblioteka Krak\u00f3w Filia 23", "operator": "Biblioteka Krak\u00f3w", "website": "https://www.biblioteka.krakow.pl/filie/filia-23/"}}, {"type": "node", "id": 1506291306, "lat": 50.0781015, "lon": 19.8851235, "tags": {"addr:city": "Krak\u00f3w", "addr:country": "PL", "addr:housenumber": "13D", "addr:postcode": "30-147", "addr:street": "Na B\u0142onie", "amenity": "library", "check_date": "2023-06-10", "name": "Biblioteka Krak\u00f3w Filia 24", "opening_hours": "Mo,We,Fr 12:00-19:00; Tu 08:30-15:30; Th 12:00-15:30; Sa 09:00-14:00", "operator": "Biblioteka Krak\u00f3w", "website": "https://www.biblioteka.krakow.pl/filie/filia-24/", "wheelchair": "yes"}}, {"type": "node", "id": 1506803140, "lat": 50.014117, "lon": 19.9179187, "tags": {"addr:city": "Krak\u00f3w", "addr:country": "PL", "addr:housenumber": "32", "addr:postcode": "30-427", "addr:street": "\u017bywiecka", "amenity": "library", "name": "Biblioteka Krak\u00f3w Filia 32", "operator": "Biblioteka Krak\u00f3w", "website": "https://www.biblioteka.krakow.pl/filie/filia-32/"}}, {"type": "node", "id": 1506803144, "lat": 50.0448486, "lon": 19.950364, "tags": {"addr:housenumber": "4", "addr:street": "Boles\u0142awa Limanowskiego", "amenity": "library", "name": "Biblioteka Krak\u00f3w Filia 46", "opening_hours": "Mo, We, Fr 12:00-15:30, 16:00-19:00; Tu 08:30-11:30, 12:00-15:30; Th 12:00-15:30", "operator": "Biblioteka Krak\u00f3w", "operator:type": "public", "operator:wikidata": "Q48841935", "website": "https://www.biblioteka.krakow.pl/filie/filia-46/"}}, {"type": "node", "id": 1506803153, "lat": 50.0519954, "lon": 19.9295995, "tags": {"addr:city": "Krak\u00f3w", "addr:country": "PL", "addr:housenumber": "2", "addr:postcode": "30-307", "addr:street": "Powro\u017anicza", "amenity": "library", "name": "Biblioteka G\u0142\u00f3wna", "operator": "Biblioteka Krak\u00f3w", "website": "https://www.biblioteka.krakow.pl/filie/bg/", "wheelchair": "yes"}}, {"type": "node", "id": 1506803158, "lat": 50.0185195, "lon": 19.9815103, "tags": {"addr:city": "Krak\u00f3w", "addr:country": "PL", "addr:housenumber": "3", "addr:postcode": "30-682", "addr:street": "Sp\u00f3\u0142dzielc\u00f3w", "amenity": "library", "name": "Biblioteka Krak\u00f3w Filia 44", "opening_hours": "Mo-We,Fr 08:30-11:30, Mo-Fr 12:00-15:30,16:00-19:00", "operator": "Biblioteka Krak\u00f3w", "website": "https://www.biblioteka.krakow.pl/filie/filia-44/"}}, {"type": "node", "id": 1506803162, "lat": 50.0152784, "lon": 20.0087741, "tags": {"addr:city": "Krak\u00f3w", "addr:country": "PL", "addr:housenumber": "24", "addr:postcode": "30-835", "addr:street": "Leonida Teligi", "amenity": "library", "level": "1", "name": "Biblioteka Krak\u00f3w Filia 45", "opening_hours": "Mo-We,Fr 08:30-19:00; Th 12:00-19:00; Sa 08:30-14:00; Sa 09:00-14:00; Th 12:00-15:30", "operator": "Biblioteka Krak\u00f3w", "website": "https://www.biblioteka.krakow.pl/filie/filia-45/", "wheelchair": "no"}}, {"type": "node", "id": 1506803171, "lat": 50.0128756, "lon": 19.9723572, "tags": {"addr:city": "Krak\u00f3w", "addr:country": "PL", "addr:housenumber": "55", "addr:postcode": "30-658", "addr:street": "\u0141u\u017cycka", "amenity": "library", "name": "Biblioteka Krak\u00f3w Filia 40", "opening_hours": "Mo,We,Fr 12:00-19:00; Tu 08:00-15:30; Th 11:00-15:30", "operator": "Biblioteka Krak\u00f3w", "website": "https://www.biblioteka.krakow.pl/filie/filia-40"}}, {"type": "node", "id": 1506803178, "lat": 49.994718, "lon": 19.9879869, "tags": {"amenity": "library", "name": "Biblioteka Krak\u00f3w Filia 37", "operator": "Biblioteka Krak\u00f3w", "website": "https://www.biblioteka.krakow.pl/filie/filia-37/"}}, {"type": "node", "id": 1506803184, "lat": 50.023787, "lon": 19.9917499, "tags": {"addr:city": "Krak\u00f3w", "addr:country": "PL", "addr:housenumber": "32", "addr:postcode": "30-815", "addr:street": "Genera\u0142a Jakuba Jasi\u0144skiego", "amenity": "library", "name": "Biblioteka Krak\u00f3w Filia 43", "operator": "Biblioteka Krak\u00f3w", "website": "https://www.biblioteka.krakow.pl/filie/filia-43/"}}, {"type": "node", "id": 1506803188, "lat": 50.0276061, "lon": 19.9297904, "tags": {"addr:city": "Krak\u00f3w", "addr:housenumber": "12", "addr:postcode": "30-408", "addr:street": "Borsucza", "amenity": "library", "layer": "1", "name": "Biblioteka Krak\u00f3w Filia 34", "opening_hours": "Mo-We,Fr 08:30-19:00; Th 12:00-19:00", "operator": "Biblioteka Krak\u00f3w", "website": "https://www.biblioteka.krakow.pl/filie/filia-34/"}}, {"type": "node", "id": 1506803195, "lat": 50.0229976, "lon": 19.908306, "tags": {"addr:city": "Krak\u00f3w", "addr:country": "PL", "addr:door": "3a", "addr:housenumber": "7/3a", "addr:postcode": "30-350", "addr:street": "Zachodnia", "amenity": "library", "internet_access": "yes", "internet_access:fee": "customers", "internet_access:ssid": "Pracownia", "level": "1", "name": "Punkt biblioteczny filii 31", "operator": "Biblioteka Krak\u00f3w", "operator:type": "government", "website": "https://www.biblioteka.krakow.pl/punkt_biblioteczny_31_zachodnia/"}}, {"type": "node", "id": 1506803196, "lat": 50.0146222, "lon": 19.953758, "tags": {"addr:city": "Krak\u00f3w", "addr:country": "PL", "addr:housenumber": "13/1", "addr:postcode": "30-619", "addr:street": "Go\u0142a\u015bka", "amenity": "library", "internet_access": "yes", "internet_access:fee": "no", "name": "Biblioteka Krak\u00f3w Filia 41", "operator": "Biblioteka Krak\u00f3w", "website": "https://www.biblioteka.krakow.pl/filie/filia-41/"}}, {"type": "node", "id": 1506803204, "lat": 50.0456516, "lon": 19.930903, "tags": {"addr:city": "Krak\u00f3w", "addr:country": "PL", "addr:housenumber": "1", "addr:postcode": "30-334", "addr:street": "Komandos\u00f3w", "amenity": "library", "level": "1", "name": "Biblioteka Krak\u00f3w Filia 28", "opening_hours": "Mo 12:00-19:00; Tu 09:00-15:30; We 12:00-19:00; Th 11:00-15:30; Fr 12:00-19:00", "operator": "Biblioteka Krak\u00f3w", "website": "https://www.biblioteka.krakow.pl/filie/filia-28/"}}, {"type": "node", "id": 1506803208, "lat": 50.02423, "lon": 19.9595673, "tags": {"addr:city": "Krak\u00f3w", "addr:housenumber": "10", "addr:postcode": "30-633", "addr:street": "Walerego S\u0142awka", "amenity": "library", "name": "Biblioteka Krak\u00f3w Filia 38", "operator": "Biblioteka Krak\u00f3w", "website": "https://www.biblioteka.krakow.pl/filie/filia-38/"}}, {"type": "node", "id": 1506803212, "lat": 49.9895289, "lon": 19.9418217, "tags": {"amenity": "library", "name": "Biblioteka Krak\u00f3w Filia 35", "operator": "Biblioteka Krak\u00f3w", "website": "https://www.biblioteka.krakow.pl/filie/filia-35/"}}, {"type": "node", "id": 1506803219, "lat": 50.046269, "lon": 19.9107036, "tags": {"amenity": "library", "name": "Biblioteka Krak\u00f3w Filia 29", "operator": "Biblioteka Krak\u00f3w", "website": "https://www.biblioteka.krakow.pl/filie/filia-29/"}}, {"type": "node", "id": 1506803224, "lat": 49.9800569, "lon": 19.9551568, "tags": {"addr:city": "Krak\u00f3w", "addr:country": "PL", "addr:housenumber": "123", "addr:postcode": "30-698", "addr:street": "Henryka Niewodnicza\u0144skiego", "amenity": "library", "name": "Biblioteka Krak\u00f3w Filia 36", "opening_hours": "Mo 12:00-15:45,16:00-19:00; We 12:00-15:45,16:00-19:00; Th 12:00-15:30", "operator": "Biblioteka Krak\u00f3w", "website": "https://www.biblioteka.krakow.pl/filie/filia-36/"}}, {"type": "node", "id": 1506803231, "lat": 50.0180517, "lon": 19.8070766, "tags": {"addr:city": "Krak\u00f3w", "addr:country": "PL", "addr:housenumber": "7", "addr:postcode": "30-398", "addr:street": "Dziewiarzy", "amenity": "library", "name": "Biblioteka Krak\u00f3w Filia 30", "operator": "Biblioteka Krak\u00f3w", "website": "https://www.biblioteka.krakow.pl/filie/filia-30/"}}, {"type": "node", "id": 1506803234, "lat": 50.0125073, "lon": 19.9532246, "tags": {"addr:city": "Krak\u00f3w", "addr:country": "PL", "addr:housenumber": "1", "addr:postcode": "30-611", "addr:street": "Porucznika Jerzego Halszki", "amenity": "library", "name": "Biblioteka Krak\u00f3w Filia 39", "opening_hours": "Mo-We,Fr 08:30-19:00; Th 12:00-19:00", "operator": "Biblioteka Krak\u00f3w", "website": "https://www.biblioteka.krakow.pl/filie/filia-39"}}, {"type": "node", "id": 1705223928, "lat": 50.0759683, "lon": 19.9946633, "tags": {"amenity": "library", "name": "Filia Biblioteki G\u0142\u00f3wnej PK", "wheelchair": "limited"}}, {"type": "node", "id": 1979218275, "lat": 50.0308605, "lon": 19.9064436, "tags": {"amenity": "library", "name:signed": "no"}}, {"type": "node", "id": 2401457032, "lat": 50.0654751, "lon": 19.9217292}, {"type": "node", "id": 2401457077, "lat": 50.0655761, "lon": 19.9211358}, {"type": "node", "id": 2401457181, "lat": 50.0658184, "lon": 19.921871}, {"type": "node", "id": 2401457270, "lat": 50.0659194, "lon": 19.9212776}, {"type": "node", "id": 2414349165, "lat": 50.0567094, "lon": 19.9121013}, {"type": "node", "id": 2414349182, "lat": 50.0567165, "lon": 19.912153}, {"type": "node", "id": 2414349200, "lat": 50.056722, "lon": 19.9121926}, {"type": "node", "id": 2414349213, "lat": 50.0567314, "lon": 19.9122605}, {"type": "node", "id": 2414349351, "lat": 50.0568472, "lon": 19.9122358}, {"type": "node", "id": 2414349354, "lat": 50.0568547, "lon": 19.9122907}, {"type": "node", "id": 2414349356, "lat": 50.0568583, "lon": 19.912218}, {"type": "node", "id": 2414349359, "lat": 50.0568602, "lon": 19.9122314}, {"type": "node", "id": 2414349369, "lat": 50.0568675, "lon": 19.9122864}, {"type": "node", "id": 2414349380, "lat": 50.0568755, "lon": 19.9123446}, {"type": "node", "id": 2414349398, "lat": 50.0568948, "lon": 19.9120393}, {"type": "node", "id": 2414349399, "lat": 50.0568978, "lon": 19.9120608}, {"type": "node", "id": 2414349453, "lat": 50.056964, "lon": 19.9120135}, {"type": "node", "id": 2414349455, "lat": 50.0569674, "lon": 19.9120376}, {"type": "node", "id": 2414349521, "lat": 50.0570467, "lon": 19.9121513}, {"type": "node", "id": 2414349532, "lat": 50.0570646, "lon": 19.9122813}, {"type": "node", "id": 2414349544, "lat": 50.0570769, "lon": 19.9119757}, {"type": "node", "id": 2414349581, "lat": 50.0570987, "lon": 19.9121339}, {"type": "node", "id": 2417692614, "lat": 50.0209995, "lon": 19.8978449}, {"type": "node", "id": 2417692621, "lat": 50.021, "lon": 19.8978532}, {"type": "node", "id": 2417692652, "lat": 50.0210139, "lon": 19.8978511}, {"type": "node", "id": 2417692698, "lat": 50.0210632, "lon": 19.8979564}, {"type": "node", "id": 2417692744, "lat": 50.021103, "lon": 19.8980338}, {"type": "node", "id": 2417692761, "lat": 50.0211308, "lon": 19.8980851}, {"type": "node", "id": 2417692782, "lat": 50.0211587, "lon": 19.8981377}, {"type": "node", "id": 2417692809, "lat": 50.0211878, "lon": 19.8981869}, {"type": "node", "id": 2417692836, "lat": 50.0212218, "lon": 19.8982395}, {"type": "node", "id": 2417692867, "lat": 50.0212556, "lon": 19.8982896}, {"type": "node", "id": 2417692892, "lat": 50.0212899, "lon": 19.8983397}, {"type": "node", "id": 2417692903, "lat": 50.0213261, "lon": 19.8983917}, {"type": "node", "id": 2417692915, "lat": 50.0213637, "lon": 19.8984417}, {"type": "node", "id": 2417692936, "lat": 50.0214053, "lon": 19.8984935}, {"type": "node", "id": 2417692964, "lat": 50.0214457, "lon": 19.8985407}, {"type": "node", "id": 2417692982, "lat": 50.0214906, "lon": 19.8985897}, {"type": "node", "id": 2417692998, "lat": 50.0215133, "lon": 19.8986144}, {"type": "node", "id": 2417693019, "lat": 50.021561, "lon": 19.898662}, {"type": "node", "id": 2417693034, "lat": 50.0215867, "lon": 19.8986573}, {"type": "node", "id": 2417693039, "lat": 50.0215889, "lon": 19.8986875}, {"type": "node", "id": 2417693067, "lat": 50.0216399, "lon": 19.8986481}, {"type": "node", "id": 2417693069, "lat": 50.0216459, "lon": 19.8987394}, {"type": "node", "id": 2417693085, "lat": 50.0216697, "lon": 19.8977399}, {"type": "node", "id": 2417693109, "lat": 50.0217046, "lon": 19.8982798}, {"type": "node", "id": 2417693112, "lat": 50.0217106, "lon": 19.8987835}, {"type": "node", "id": 2417693123, "lat": 50.0217346, "lon": 19.8982751}, {"type": "node", "id": 2417693137, "lat": 50.0217695, "lon": 19.8988107}, {"type": "node", "id": 2448315054, "lat": 50.0829785, "lon": 19.9757159, "tags": {"addr:city": "Krak\u00f3w", "addr:housenumber": "2", "addr:postcode": "31-465", "addr:street": "Miros\u0142awa Dzielskiego", "amenity": "library", "email": "filia_13@biblioteka.krakow.pl", "name": "Biblioteka Krak\u00f3w Filia 13", "opening_hours": "Mo-Fr 12:00-19:00; Tu 09:00-15:30; Th 11:00-15:30", "operator": "Biblioteka Krak\u00f3w", "phone": "+48 12 412 30 00", "website": "https://www.biblioteka.krakow.pl/filie/filia-13/", "wheelchair": "limited"}}, {"type": "node", "id": 2495854158, "lat": 50.0680987, "lon": 19.9603865, "tags": {"addr:city": "Krak\u00f3w", "addr:housenumber": "1", "addr:postcode": "31-518", "addr:street": "J\u00f3zefa Brodowicza", "amenity": "library", "email": "filia_8@biblioteka.krakow.pl", "name": "Biblioteka Krak\u00f3w Filia 8", "opening_hours": "Mo-Fr 12:00-19:00; Tu 09:00-15:30; Th 11:00-15:30", "operator": "Biblioteka Krak\u00f3w", "phone": "+48 12 412 49 55", "website": "https://www.biblioteka.krakow.pl/filie/filia-8/"}}, {"type": "node", "id": 2564191368, "lat": 50.0770694, "lon": 19.9803386, "tags": {"addr:city": "Krak\u00f3w", "addr:housenumber": "14", "addr:postcode": "31-456", "addr:street": "Ugorek", "amenity": "library", "email": "filia_14@biblioteka.krakow.pl", "name": "Biblioteka Krak\u00f3w Filia 14", "opening_hours": "Mo-Fr 12:00-19:00; Tu 09:00-15:30; Th 11:00-15:30", "operator": "Biblioteka Krak\u00f3w", "phone": "+48 12 417 17 15", "website": "https://www.biblioteka.krakow.pl/filie/filia-14/"}}, {"type": "node", "id": 2620683838, "lat": 50.0608519, "lon": 19.921717}, {"type": "node", "id": 2620683839, "lat": 50.0610292, "lon": 19.9237281}, {"type": "node", "id": 2620683842, "lat": 50.0620809, "lon": 19.9231896}, {"type": "node", "id": 2681723223, "lat": 50.065055, "lon": 19.9302173, "tags": {"amenity": "library", "name": "Wojew\u00f3dzka Biblioteka Publiczna - oddzia\u0142 dla dzieci", "opening_hours": "Mo-Fr 10:00-19:00; Th 12:00-19:00"}}, {"type": "node", "id": 2836978988, "lat": 50.058983, "lon": 19.9670934, "tags": {"addr:city": "Krak\u00f3w", "addr:housenumber": "11", "addr:postcode": "31-552", "addr:street": "Stefana Bobrowskiego", "amenity": "library", "email": "filia_4@biblioteka.krakow.pl", "name": "Biblioteka Krak\u00f3w Filia 4", "opening_hours": "Mo-Fr 12:00-19:00; Tu 09:00-15:30; Th 11:00-15:30", "operator": "Biblioteka Krak\u00f3w", "phone": "+48 12 412 76 91", "website": "https://www.biblioteka.krakow.pl/filie/filia-4/"}}, {"type": "node", "id": 2955392358, "lat": 50.0967596, "lon": 20.0013911, "tags": {"amenity": "library"}}, {"type": "node", "id": 2987568927, "lat": 50.0629917, "lon": 19.9491276}, {"type": "node", "id": 2987568928, "lat": 50.0629956, "lon": 19.9486178}, {"type": "node", "id": 2987572491, "lat": 50.0629885, "lon": 19.9491372}, {"type": "node", "id": 2987575020, "lat": 50.062842, "lon": 19.9489613}, {"type": "node", "id": 2987575023, "lat": 50.0628497, "lon": 19.9490089}, {"type": "node", "id": 2987575026, "lat": 50.0628602, "lon": 19.948891}, {"type": "node", "id": 2987575247, "lat": 50.0628347, "lon": 19.9489931}, {"type": "node", "id": 2987575255, "lat": 50.0629604, "lon": 19.9486319}, {"type": "node", "id": 2987575337, "lat": 50.06288, "lon": 19.9490393}, {"type": "node", "id": 2987575338, "lat": 50.0628819, "lon": 19.94882}, {"type": "node", "id": 2987575346, "lat": 50.0628965, "lon": 19.9490558}, {"type": "node", "id": 2987575349, "lat": 50.0629037, "lon": 19.9487599}, {"type": "node", "id": 2987575352, "lat": 50.0629084, "lon": 19.9487476}, {"type": "node", "id": 2987575361, "lat": 50.0629308, "lon": 19.9486933}, {"type": "node", "id": 2987575367, "lat": 50.0629383, "lon": 19.949094}, {"type": "node", "id": 2987575392, "lat": 50.0630282, "lon": 19.9486421}, {"type": "node", "id": 2987575393, "lat": 50.0630298, "lon": 19.9491697}, {"type": "node", "id": 2987575395, "lat": 50.0630321, "lon": 19.9491631}, {"type": "node", "id": 2987575398, "lat": 50.0630507, "lon": 19.9486596}, {"type": "node", "id": 2987575401, "lat": 50.063065, "lon": 19.9491962}, {"type": "node", "id": 2987575403, "lat": 50.0630833, "lon": 19.9486861}, {"type": "node", "id": 2987575404, "lat": 50.0630854, "lon": 19.9492104}, {"type": "node", "id": 2987575408, "lat": 50.0631242, "lon": 19.9491183}, {"type": "node", "id": 2987575409, "lat": 50.0631477, "lon": 19.9490574}, {"type": "node", "id": 2987575410, "lat": 50.0631697, "lon": 19.9487644}, {"type": "node", "id": 2987575411, "lat": 50.0631727, "lon": 19.9489876}, {"type": "node", "id": 2987575636, "lat": 50.0629749, "lon": 19.9486034}, {"type": "node", "id": 2987575833, "lat": 50.0631272, "lon": 19.9487246}, {"type": "node", "id": 2987575836, "lat": 50.0631943, "lon": 19.9489235}, {"type": "node", "id": 2987575837, "lat": 50.0632178, "lon": 19.9488475}, {"type": "node", "id": 2987575839, "lat": 50.0632255, "lon": 19.9488206}, {"type": "node", "id": 3025535789, "lat": 50.0608002, "lon": 19.9226263}, {"type": "node", "id": 3025535790, "lat": 50.0619659, "lon": 19.9215283}, {"type": "node", "id": 3070613998, "lat": 50.0632146, "lon": 19.9488578}, {"type": "node", "id": 3070615914, "lat": 50.0630091, "lon": 19.9486279}, {"type": "node", "id": 3320700846, "lat": 50.0637675, "lon": 19.9394214}, {"type": "node", "id": 3320709135, "lat": 50.06376, "lon": 19.9394479}, {"type": "node", "id": 3320709138, "lat": 50.0637739, "lon": 19.9397811}, {"type": "node", "id": 3320709140, "lat": 50.0637893, "lon": 19.9394366}, {"type": "node", "id": 3320709142, "lat": 50.0638107, "lon": 19.9393596}, {"type": "node", "id": 3320709147, "lat": 50.063879, "lon": 19.9394115}, {"type": "node", "id": 3320712289, "lat": 50.0636821, "lon": 19.9397202}, {"type": "node", "id": 3320713033, "lat": 50.063684, "lon": 19.9397215}, {"type": "node", "id": 3320713045, "lat": 50.0638104, "lon": 19.9393595}, {"type": "node", "id": 3462361604, "lat": 50.0843702, "lon": 19.8454345}, {"type": "node", "id": 3462361606, "lat": 50.0844189, "lon": 19.8453713}, {"type": "node", "id": 3462361609, "lat": 50.0844304, "lon": 19.8455458}, {"type": "node", "id": 3462363224, "lat": 50.0844788, "lon": 19.8454827}, {"type": "node", "id": 3486989465, "lat": 50.0684828, "lon": 19.9558133}, {"type": "node", "id": 3486989473, "lat": 50.0685082, "lon": 19.955733}, {"type": "node", "id": 3486989557, "lat": 50.0685502, "lon": 19.955864}, {"type": "node", "id": 3486989561, "lat": 50.0685754, "lon": 19.9557835}, {"type": "node", "id": 3486989786, "lat": 50.0690424, "lon": 19.9560416}, {"type": "node", "id": 3752587933, "lat": 50.0885258, "lon": 19.9589045, "tags": {"addr:city": "Krak\u00f3w", "addr:housenumber": "6", "addr:postcode": "31-416", "addr:street": "Dobrego Pasterza", "disused:amenity": "library"}}, {"type": "node", "id": 3752604299, "lat": 50.0820944, "lon": 19.9522201, "tags": {"addr:city": "Krak\u00f3w", "addr:housenumber": "59", "addr:postcode": "31-425", "addr:street": "Aleja 29 Listopada", "amenity": "library", "check_date": "2023-07-25", "email": "filia_10@biblioteka.krakow.pl", "name": "Biblioteka Krak\u00f3w Filia 10", "opening_hours": "Mo-Fr 12:00-19:00; Tu 09:00-15:30; Th 11:00-15:30", "operator": "Biblioteka Krak\u00f3w", "phone": "+48 12 411 80 96", "website": "https://www.biblioteka.krakow.pl/filia-10/", "wheelchair": "yes"}}, {"type": "node", "id": 3752616225, "lat": 50.065172, "lon": 19.9470397, "tags": {"addr:city": "Krak\u00f3w", "addr:housenumber": "3", "addr:postcode": "31-504", "addr:street": "Plac Jana Nowaka-Jeziora\u0144skiego", "amenity": "library", "email": "filia_3@biblioteka.krakow.pl", "name": "Biblioteka Krak\u00f3w Filia 3", "opening_hours": "Mo-We,Fr 08:30-19:00; Th 12:00-19:00; Sa 09:00-14:00", "operator": "Biblioteka Krak\u00f3w", "phone": "+48 12 431 00 68", "website": "https://www.biblioteka.krakow.pl/filie/filia-3/"}}, {"type": "node", "id": 3752682717, "lat": 50.0492788, "lon": 19.9429023, "tags": {"addr:city": "Krak\u00f3w", "addr:country": "PL", "addr:housenumber": "29", "addr:postcode": "31-062", "addr:street": "Krakowska", "amenity": "library", "email": "filia_2@biblioteka.krakow.pl", "name": "Biblioteka Krak\u00f3w Filia 2", "opening_hours": "Mo-Fr 09:00-19:00; Tu 09:00-15:30; Th 11:00-15:30", "operator": "Biblioteka Krak\u00f3w", "phone": "+48 12 422 92 43", "website": "https://www.biblioteka.krakow.pl/filie/filia-2/"}}, {"type": "node", "id": 3752712418, "lat": 50.0589305, "lon": 19.9762323, "tags": {"amenity": "library", "check_date": "2024-01-25", "email": "filia_7@biblioteka.krakow.pl", "name": "Biblioteka Krak\u00f3w Filia 7", "opening_hours": "Mo-Fr 12:00-19:00; Tu 09:00-15:30; Th 11:00-15:30; Sa 09:00-14:00", "operator": "Biblioteka Krak\u00f3w", "phone": "+48 12 414 26 01", "website": "https://www.biblioteka.krakow.pl/filie/filia-7/"}}, {"type": "node", "id": 3752712844, "lat": 50.0734344, "lon": 19.9840465, "tags": {"amenity": "library", "check_date": "2023-06-16", "email": "filia_12@biblioteka.krakow.pl", "name": "Biblioteka Krak\u00f3w Filia 12", "opening_hours": "Mo-Fr 12:00-19:00; Tu 09:00-15:30; Th 11:00-15:30", "operator": "Biblioteka Krak\u00f3w", "phone": "+48 12 417 26 37", "website": "https://www.biblioteka.krakow.pl/filie/filia-12/"}}, {"type": "node", "id": 3752712845, "lat": 50.0843457, "lon": 19.9632656, "tags": {"addr:city": "Krak\u00f3w", "addr:housenumber": "11", "addr:postcode": "31-476", "addr:street": "Bosak\u00f3w", "amenity": "library", "email": "filia_11@biblioteka.krakow.pl", "internet_access": "terminal", "level": "1", "name": "Biblioteka Krak\u00f3w Filia 11", "opening_hours": "Mo-Fr 12:00-15:45,16:00-19:00; Tu 08:30-11:45,12:00-15:30; Th 12:00-15:30", "operator": "Biblioteka Krak\u00f3w", "operator:type": "public", "operator:wikidata": "Q48841935", "phone": "+48 12 411 96 03", "website": "https://www.biblioteka.krakow.pl/filie/filia-11/", "wheelchair": "no"}}, {"type": "node", "id": 3752720265, "lat": 50.0679323, "lon": 19.9511465, "tags": {"addr:city": "Krak\u00f3w", "addr:housenumber": "7A", "addr:postcode": "31-509", "addr:street": "Aleksandra Lubomirskiego", "amenity": "library", "email": "filia_5@biblioteka.krakow.pl", "name": "Biblioteka Krak\u00f3w Filia 5", "opening_hours": "Mo,We,Fr 12:00-19:00; Tu 08:30-15:30; Th 12:00-15:30", "operator": "Biblioteka Krak\u00f3w", "operator:type": "public", "operator:wikidata": "Q48841935", "phone": "+48 12 430 37 39", "website": "https://www.biblioteka.krakow.pl/filie/filia-5/"}}, {"type": "node", "id": 3752733193, "lat": 50.0563904, "lon": 19.9535013, "tags": {"addr:city": "Krak\u00f3w", "addr:housenumber": "22", "addr:postcode": "31-534", "addr:street": "Aleja Ignacego Daszy\u0144skiego", "amenity": "library", "check_date": "2023-09-24", "email": "filia_6@biblioteka.krakow.pl", "name": "Biblioteka Krak\u00f3w Filia 6", "opening_hours": "Mo-Fr 09:00-19:00; Tu 09:00-15:30; Th 11:00-15:30", "operator": "Biblioteka Krak\u00f3w", "phone": "+48 12 423 24 26", "website": "https://www.biblioteka.krakow.pl/filie/filia-6/", "wheelchair": "yes"}}, {"type": "node", "id": 3752787041, "lat": 50.0893122, "lon": 19.9703779, "tags": {"amenity": "library", "name": "biblioteka parafialna", "opening_hours": "Tu 18:00-18:30; PH off", "operator": "Parafia pw. \u015awi\u0119tego Jana Chrzciciela w Krakowie", "website": "https://www.janchrzciciel.eu/?page_id=380", "wheelchair": "no"}}, {"type": "node", "id": 3988051475, "lat": 50.0547955, "lon": 19.9349629, "tags": {"addr:city": "Krak\u00f3w", "addr:housenumber": "3", "addr:place": "Zamek Wawel", "amenity": "library", "email": "akkk@diecezja.krakow.pl", "name": "Archiwum i Biblioteka Krakowskiej Kapitu\u0142y Katedralnej", "name:hr": "Arhiv i biblioteka Krakovskog kaptola", "name:hu": "Krakk\u00f3i Sz\u00e9kesegyh\u00e1zi K\u00e1ptalan Lev\u00e9lt\u00e1ra \u00e9s K\u00f6nyvt\u00e1ra", "opening_hours": "Tu-Fr 09:00-13:00", "phone": "+48 12 4229832", "website": "http://akkk.com.pl"}}, {"type": "node", "id": 4067088414, "lat": 50.0652002, "lon": 19.9309707}, {"type": "node", "id": 4067088415, "lat": 50.0652424, "lon": 19.9308976}, {"type": "node", "id": 4163269353, "lat": 50.0647124, "lon": 19.9284699}, {"type": "node", "id": 4163269354, "lat": 50.064724, "lon": 19.9284657}, {"type": "node", "id": 4163269356, "lat": 50.0648455, "lon": 19.9294289}, {"type": "node", "id": 4163269357, "lat": 50.0648582, "lon": 19.9294243}, {"type": "node", "id": 4163269358, "lat": 50.064862, "lon": 19.9295451}, {"type": "node", "id": 4163269359, "lat": 50.0648665, "lon": 19.9295438}, {"type": "node", "id": 4163269360, "lat": 50.0648871, "lon": 19.9284132}, {"type": "node", "id": 4163269361, "lat": 50.0648868, "lon": 19.9297197}, {"type": "node", "id": 4163269362, "lat": 50.0648911, "lon": 19.928412}, {"type": "node", "id": 4163269363, "lat": 50.0648908, "lon": 19.9297184}, {"type": "node", "id": 4163269364, "lat": 50.0649031, "lon": 19.9298363}, {"type": "node", "id": 4163269365, "lat": 50.0649158, "lon": 19.9298327}, {"type": "node", "id": 4163269367, "lat": 50.0650206, "lon": 19.9293707}, {"type": "node", "id": 4163269368, "lat": 50.0650251, "lon": 19.9293692}, {"type": "node", "id": 4163269369, "lat": 50.0650396, "lon": 19.9294843}, {"type": "node", "id": 4163269370, "lat": 50.0650422, "lon": 19.9294836}, {"type": "node", "id": 4163269371, "lat": 50.0650396, "lon": 19.9307909}, {"type": "node", "id": 4163269372, "lat": 50.0650507, "lon": 19.9307876}, {"type": "node", "id": 4163269373, "lat": 50.0650647, "lon": 19.9296575}, {"type": "node", "id": 4163269374, "lat": 50.065067, "lon": 19.9296564}, {"type": "node", "id": 4163269375, "lat": 50.0650794, "lon": 19.9297746}, {"type": "node", "id": 4163269376, "lat": 50.0650837, "lon": 19.9297737}, {"type": "node", "id": 4163269377, "lat": 50.0652138, "lon": 19.9307324}, {"type": "node", "id": 4163269378, "lat": 50.065218, "lon": 19.9307311}, {"type": "node", "id": 4291849126, "lat": 50.0707921, "lon": 19.9424964}, {"type": "node", "id": 4291849130, "lat": 50.0708339, "lon": 19.9425589}, {"type": "node", "id": 4291849131, "lat": 50.0708418, "lon": 19.9425231}, {"type": "node", "id": 4291849132, "lat": 50.0708419, "lon": 19.9422715}, {"type": "node", "id": 4291849133, "lat": 50.0708569, "lon": 19.9425714}, {"type": "node", "id": 4291849134, "lat": 50.0708649, "lon": 19.9425356}, {"type": "node", "id": 4291849137, "lat": 50.0708939, "lon": 19.9425512}, {"type": "node", "id": 4291849138, "lat": 50.0708979, "lon": 19.9419078}, {"type": "node", "id": 4291849139, "lat": 50.0709201, "lon": 19.9419196}, {"type": "node", "id": 4291849140, "lat": 50.0709437, "lon": 19.942326}, {"type": "node", "id": 4291849141, "lat": 50.070966, "lon": 19.9423379}, {"type": "node", "id": 4291849142, "lat": 50.07097, "lon": 19.941695}, {"type": "node", "id": 4291849145, "lat": 50.0710218, "lon": 19.9419743}, {"type": "node", "id": 4291849146, "lat": 50.0710438, "lon": 19.9419861}, {"type": "node", "id": 4291849147, "lat": 50.0710715, "lon": 19.9417496}, {"type": "node", "id": 4688597294, "lat": 50.0736248, "lon": 19.9079933, "tags": {"amenity": "library", "check_date": "2024-11-28", "internet_access": "yes", "internet_access:fee": "no", "name": "Biblioteka G\u0142\u00f3wna UKEN", "wheelchair": "yes"}}, {"type": "node", "id": 5131390274, "lat": 50.0583983, "lon": 19.9798904, "tags": {"amenity": "library", "name": "Skrzat"}}, {"type": "node", "id": 5160264851, "lat": 50.0149454, "lon": 19.9286829, "tags": {"addr:city": "Krak\u00f3w", "addr:housenumber": "103", "addr:postcode": "30-418", "addr:street": "Zakopia\u0144ska", "amenity": "library", "name": "Biblioteka Krak\u00f3w Filia 33", "opening_hours": "Mo,We,Fr 12:00-15:30,16:00-19:00; Tu 08:30-11:30,12:00-15:30; Th 12:00-15:30", "operator": "Biblioteka Krak\u00f3w", "operator:type": "public", "operator:wikidata": "Q48841935", "website": "https://www.biblioteka.krakow.pl/filie/filia-33/"}}, {"type": "node", "id": 5160322255, "lat": 50.0256133, "lon": 19.9009569, "tags": {"amenity": "library", "name": "Biblioteka Nauk Przyrodniczych UJ", "toilets:wheelchair": "yes", "wheelchair": "yes"}}, {"type": "node", "id": 5335873472, "lat": 50.0835261, "lon": 19.9038175, "tags": {"amenity": "library", "internet_access": "yes", "name": "Biblioteka Krak\u00f3w Filia 16", "opening_hours": "Mo-Su 09:00-19:00", "operator": "Biblioteka Krak\u00f3w", "website": "https://www.biblioteka.krakow.pl/filie/filia-16/"}}, {"type": "node", "id": 5691376228, "lat": 50.0878647, "lon": 19.9683977, "tags": {"addr:city": "Krak\u00f3w", "addr:housenumber": "100", "addr:postcode": "31-416", "addr:street": "Dobrego Pasterza", "amenity": "library", "name": "Biblioteka Krak\u00f3w Filia 15", "operator": "Biblioteka Krak\u00f3w", "website": "https://www.biblioteka.krakow.pl/filie/filia-15/"}}, {"type": "node", "id": 5691423174, "lat": 50.0199039, "lon": 20.016057, "tags": {"addr:city": "Krak\u00f3w", "addr:housenumber": "9", "addr:postcode": "30-838", "addr:street": "Telimeny", "amenity": "library", "layer": "1", "name": "Biblioteka Krak\u00f3w Filia 42", "operator": "Biblioteka Krak\u00f3w", "website": "https://www.biblioteka.krakow.pl/filie/filia-42/"}}, {"type": "node", "id": 5926461100, "lat": 50.0620481, "lon": 19.9227159}, {"type": "node", "id": 5930196153, "lat": 50.0622148, "lon": 19.919613, "tags": {"addr:city": "Krak\u00f3w", "addr:housenumber": "3", "addr:postcode": "30-060", "addr:street": "Romana Ingardena", "amenity": "library", "level": "0", "name": "Biblioteka Instytutu Pedagogiki UJ", "website": "https://pedagogika.uj.edu.pl/kontakt3"}}, {"type": "node", "id": 6133600954, "lat": 50.0643363, "lon": 19.9298336}, {"type": "node", "id": 6276353799, "lat": 50.0866681, "lon": 19.9405129, "tags": {"addr:city": "Krak\u00f3w", "addr:country": "PL", "addr:housenumber": "31", "addr:postcode": "31-207", "addr:street": "Ksi\u0119dza Kazimierza Siemaszki", "amenity": "library", "name": "Biblioteka Krak\u00f3w Filia 18", "opening_hours": "Mo,We,Fr 12:00-19:00; Tu 08:30-15:30; Tu 12:00-15:30", "operator": "Biblioteka Krak\u00f3w", "website": "https://www.biblioteka.krakow.pl/filie/filia-18/"}}, {"type": "node", "id": 6499481961, "lat": 50.0642185, "lon": 19.9294927, "tags": {"amenity": "library", "name": "Arteteka Wojew\u00f3dzkiej Biblioteki Publicznej", "opening_hours": "Mo-Fr 10:00-19:00; Sa 11:30-19:00; Su 10:00-16:00", "website": "https://www.rajska.info/oferta/wypozyczalnie-i-czytelnie/arteteka.html"}}, {"type": "node", "id": 6499487973, "lat": 50.0652384, "lon": 19.9308683}, {"type": "node", "id": 6501983039, "lat": 50.0630377, "lon": 19.9491756}, {"type": "node", "id": 6680234529, "lat": 50.0513392, "lon": 19.9647622, "tags": {"amenity": "library", "name": "Biblioteka Uniwersytetu Andrzeja Frycza Modrzewskiego", "operator": "Uniwersytet Andrzeja Frycza Modrzewskiego w Krakowie"}}, {"type": "node", "id": 7239005611, "lat": 50.0652411, "lon": 19.930888, "tags": {"advertising": "board", "animated": "no", "sides": "1", "support": "wall_mounted"}}, {"type": "node", "id": 7239005612, "lat": 50.0651855, "lon": 19.9309759, "tags": {"advertising": "board", "animated": "screen", "luminous": "yes", "sides": "1", "support": "wall_mounted"}}, {"type": "node", "id": 7538198725, "lat": 50.0225216, "lon": 20.0481276, "tags": {"amenity": "library", "name": "Biblioteka Krak\u00f3w", "opening_hours": "Mo-We,Fr 08:30-19:00; Th 12:00-19:00; Sa 09:00-14:00"}}, {"type": "node", "id": 7914367880, "lat": 50.070979, "lon": 19.9416998}, {"type": "node", "id": 7914367881, "lat": 50.0709694, "lon": 19.9416976}, {"type": "node", "id": 7914421396, "lat": 50.0708199, "lon": 19.9422593}, {"type": "node", "id": 8791138270, "lat": 50.0215452, "lon": 19.9108267, "tags": {"addr:housenumber": "10", "addr:street": "Jana Kantego Przyzby", "amenity": "library", "name": "Biblioteka Krak\u00f3w Filia 31", "operator": "Biblioteka Krak\u00f3w", "website": "https://www.biblioteka.krakow.pl/filia-31/"}}, {"type": "node", "id": 8977974244, "lat": 50.0655536, "lon": 19.9212681, "tags": {"entrance": "main"}}, {"type": "node", "id": 9655591296, "lat": 50.0595931, "lon": 19.938464, "tags": {"amenity": "library", "name": "Mediateka Instytutu Francuskiego w Krakowie", "name:fr": "M\u00e9diath\u00e8que de l'Institut Fran\u00e7ais \u00e0 Cracovie", "opening_hours": "Tu,We 15:00-19:30; Fr 10:00-13:00,15:00-17:00; Sa 10:00-16:00", "website": "https://www.institutfrancais.pl/pl/mediateka-w-krakowie"}}, {"type": "node", "id": 10580284086, "lat": 50.0642125, "lon": 19.9291627}, {"type": "node", "id": 10580284087, "lat": 50.0641417, "lon": 19.9291724}, {"type": "node", "id": 10580284088, "lat": 50.0642583, "lon": 19.9298674}, {"type": "node", "id": 10580284089, "lat": 50.0642744, "lon": 19.9294982, "tags": {"access": "yes", "entrance": "main", "level": "0", "wheelchair": "yes"}}, {"type": "node", "id": 11910783092, "lat": 50.0983409, "lon": 19.9640259, "tags": {"addr:city": "Krak\u00f3w", "addr:housenumber": "16C", "addr:postcode": "31-236", "addr:street": "Ksi\u0119dza J\u00f3zefa Meiera", "amenity": "library", "email": "filia_57@biblioteka.krakow.pl", "mobile": "+48 505 699 612", "name": "Biblioteka Krak\u00f3w Filia nr 57 Gotyk", "opening_hours": "Mo-Fr 12:00-19:00; Tu 08:30-15:30; Th 12:00-15:30; Sa 09:00-14:00", "operator": "Biblioteka Krak\u00f3w", "website": "https://biblioteka.krakow.pl/filia-57"}}, {"type": "node", "id": 11931194116, "lat": 50.0650229, "lon": 19.9287607}, {"type": "node", "id": 11931194119, "lat": 50.0650268, "lon": 19.9293822, "tags": {"historic": "memorial", "inscription": "PAL hr. TELEKI. DWUKROTNY PREMIER KR\u00d3LESTWA W\u0118GIER. NIEZAWODNY PRZYJACIEL POLSKI I POLAK\u00d3W. [\u2026]", "memorial": "plaque", "tourism": "attraction"}}, {"type": "node", "id": 11931242264, "lat": 50.065138, "lon": 19.9295186}, {"type": "node", "id": 11931242266, "lat": 50.0651446, "lon": 19.9295613}, {"type": "node", "id": 11931242267, "lat": 50.0650921, "lon": 19.9294718}, {"type": "node", "id": 11931242268, "lat": 50.0650763, "lon": 19.929648, "tags": {"entrance": "yes"}}, {"type": "node", "id": 11931302369, "lat": 50.0651194, "lon": 19.9294849}, {"type": "node", "id": 11931302370, "lat": 50.0650403, "lon": 19.9294895}, {"type": "node", "id": 11931302371, "lat": 50.065115, "lon": 19.9296358}, {"type": "node", "id": 11931302372, "lat": 50.0651362, "lon": 19.9296052}, {"type": "node", "id": 11931302373, "lat": 50.065064, "lon": 19.9296517}, {"type": "node", "id": 11963561981, "lat": 50.06492, "lon": 19.9286531}, {"type": "node", "id": 11963561982, "lat": 50.0649047, "lon": 19.9285417}, {"type": "node", "id": 11963561985, "lat": 50.065002, "lon": 19.9292371}, {"type": "node", "id": 11963561986, "lat": 50.0649867, "lon": 19.9291269}, {"type": "node", "id": 11963561988, "lat": 50.0651131, "lon": 19.930017}, {"type": "node", "id": 11963561989, "lat": 50.0650979, "lon": 19.9299073}, {"type": "node", "id": 11963561992, "lat": 50.0651955, "lon": 19.9306016}, {"type": "node", "id": 11963561993, "lat": 50.0651801, "lon": 19.9304913}, {"type": "node", "id": 11963561995, "lat": 50.0652068, "lon": 19.9306826}, {"type": "node", "id": 11963561997, "lat": 50.065234, "lon": 19.9308392, "tags": {"entrance": "service"}}, {"type": "node", "id": 11963562001, "lat": 50.0652312, "lon": 19.9308205}, {"type": "node", "id": 11963562002, "lat": 50.0652369, "lon": 19.9308589}, {"type": "node", "id": 11963562008, "lat": 50.0652118, "lon": 19.9307182, "tags": {"entrance": "yes"}}, {"type": "node", "id": 11963562009, "lat": 50.0652131, "lon": 19.9307272}, {"type": "node", "id": 11963562016, "lat": 50.065188, "lon": 19.9305476, "tags": {"entrance": "yes"}}, {"type": "node", "id": 11963562051, "lat": 50.0649124, "lon": 19.9285973, "tags": {"entrance": "yes"}}, {"type": "node", "id": 11963573345, "lat": 50.064875, "lon": 19.9282982, "tags": {"entrance": "yes"}}, {"type": "node", "id": 11963573349, "lat": 50.064878, "lon": 19.9283196}, {"type": "node", "id": 11963573818, "lat": 50.0650528, "lon": 19.9294852, "tags": {"entrance": "yes"}}, {"type": "node", "id": 11963573820, "lat": 50.0649945, "lon": 19.9291825, "tags": {"entrance": "yes"}}, {"type": "node", "id": 11963574136, "lat": 50.0651056, "lon": 19.929963, "tags": {"entrance": "yes"}}, {"type": "node", "id": 11963574145, "lat": 50.0652373, "lon": 19.9308618}, {"type": "node", "id": 11963574162, "lat": 50.0652453, "lon": 19.9303269}, {"type": "way", "id": 29327226, "nodes": [322639476, 4067088415, 7239005611, 6499487973, 11963574145, 11963562002, 11963561997, 11963562001, 4163269378, 4163269377, 11963562009, 11963562008, 11963561995, 11963561992, 11963562016, 11963561993, 752177481, 752177425, 11963574162, 752177394, 752177501, 11963561988, 11963574136, 11963561989, 4163269375, 4163269376, 4163269374, 4163269373, 11931302373, 11931242268, 11931302371, 11931302372, 11931242266, 11931242264, 11931302369, 11931242267, 11963573818, 11931302370, 4163269369, 4163269370, 11931194119, 4163269368, 4163269367, 11963561985, 11963573820, 11963561986, 752177531, 752177399, 11931194116, 752177460, 752177492, 11963561981, 11963562051, 11963561982, 4163269360, 4163269362, 11963573349, 11963573345, 322639480, 322639479, 4163269353, 4163269354, 4163269357, 4163269356, 4163269358, 4163269359, 752177530, 4163269363, 4163269361, 4163269364, 4163269365, 4163269372, 4163269371, 322639478, 7239005612, 4067088414, 322639476], "tags": {"access": "yes", "addr:city": "Krak\u00f3w", "addr:housenumber": "1", "addr:postcode": "31-124", "addr:street": "Rajska", "amenity": "library", "building": "yes", "building:levels": "3", "email": "biblioteka@rajska.info", "internet_access": "wlan", "internet_access:fee": "no", "name": "Wojew\u00f3dzka Biblioteka Publiczna w Krakowie", "opening_hours": "Mo-Sa 08:00-19:00; Su 08:00-14:00", "wheelchair": "yes", "wikidata": "Q9377100", "wikimedia_commons": "Category:Building of the Public Voivodship Library in Krak\u00f3w", "wikipedia": "pl:Wojew\u00f3dzka Biblioteka Publiczna w Krakowie"}}, {"type": "way", "id": 83499248, "nodes": [2987575837, 2987575839, 2987575410, 2987575833, 2987575403, 2987575398, 2987575392, 3070615914, 2987568928, 2987575636, 2987575255, 2987575361, 2987575352, 2987575349, 2987575338, 2987575026, 2987575020, 2987575247, 2987575023, 2987575337, 2987575346, 2987575367, 2987572491, 2987568927, 2987575395, 2987575393, 6501983039, 2987575401, 2987575404, 2987575408, 2987575409, 2987575411, 2987575836, 3070613998, 2987575837], "tags": {"addr:city": "Krak\u00f3w", "addr:housenumber": "26", "addr:postcode": "31-501", "addr:street": "Miko\u0142aja Kopernika", "alt_name": "Biblioteka Uniwersytetu Ignatianum w Krakowie", "amenity": "library", "building": "yes", "building:levels": "2", "email": "biblioteka@ignatianum.edu.pl", "name": "Biblioteka UIK", "name:en": "UIK Library", "old_name": "Biblioteka Naukowa Ksi\u0119\u017cy Jezuit\u00f3w w Krakowie", "opening_hours": "Mo-Fr 09:00-18:00, Sa 09:00-15:00", "phone": "+48123999680", "short_name": "Biblioteka Ignatianum", "website": "https://portal.BibliotekaAIK.pl"}}, {"type": "way", "id": 87527972, "nodes": [4291849146, 4291849145, 4291849147, 7914367880, 4291849142, 7914367881, 4291849139, 4291849138, 7914421396, 4291849132, 4291849126, 4291849131, 4291849130, 4291849133, 4291849134, 4291849137, 4291849140, 4291849141, 4291849146], "tags": {"amenity": "library", "building": "university", "building:levels": "2", "internet_access": "yes", "name": "Biblioteka G\u0142\u00f3wna", "opening_hours": "Mo-Th 08:00-16:00, Fr-Sa 09:00-15:00", "operator": "Politechnika Krakowska", "phone": "12 628 29 63", "website": "https://www.biblos.pk.edu.pl/"}}, {"type": "way", "id": 137068994, "nodes": [1503618118, 1503618117, 1503618110, 1503618113, 1503618118]}, {"type": "way", "id": 153033941, "nodes": [3320709147, 3320709142, 3320713045, 3320709140, 3320700846, 3320709135, 3320712289, 3320713033, 3320709138, 3320709147], "tags": {"addr:city": "Krak\u00f3w", "addr:country": "PL", "addr:housenumber": "17", "addr:postcode": "31-018", "addr:street": "\u015awi\u0119tego Marka", "amenity": "library", "building": "yes", "building:levels": "5", "check_date": "2024-08-03", "name": "Biblioteka Ksi\u0105\u017c\u0105t Czartoryskich", "operator": "Muzeum Narodowe w Krakowie", "website": "https://mnk.pl/oddzial/biblioteka-ksiazat-czartoryskich", "wikidata": "Q11687968", "wikimedia_commons": "File:Czartoryski Library in Krak\u00f3w.jpg", "wikipedia": "pl:Biblioteka Ksi\u0105\u017c\u0105t Czartoryskich"}}, {"type": "way", "id": 231208227, "nodes": [3462361606, 3462361604, 3462361609, 3462363224, 3462361606], "tags": {"addr:housenumber": "297", "addr:street": "Balicka", "amenity": "library", "building": "yes", "heritage": "2", "heritage:operator": "nid", "name": "Biblioteka Krak\u00f3w Filia 23", "opening_hours": "Mo,We,Fr 11:00-15:30,16:00-18:00; Tu 08:30-11:30, Tu,Th 12:00-15:30", "ref:inspire": "PL.1.9.ZIPOZ.NID_N_12_BK.202228", "ref:nid": "A-142", "wikidata": "Q30161416"}}, {"type": "way", "id": 231815478, "nodes": [2401457077, 2401457270, 2401457181, 2401457032, 8977974244, 2401457077], "tags": {"addr:city": "Krak\u00f3w", "addr:housename": "U-1", "addr:housenumber": "30", "addr:postcode": "30-059", "addr:street": "Aleja Adama Mickiewicza", "alt_name": "Biblioteka AGH", "amenity": "library", "building": "library", "building:levels": "3", "name": "Biblioteka G\u0142\u00f3wna AGH", "opening_hours": "Mo-Th 08:00-19:45; Fr 08:00-18:00; Sa 08:00-15:00; Su,PH off", "ref": "U-1", "wheelchair": "yes", "wikidata": "Q9170775", "wikipedia": "pl:Biblioteka G\u0142\u00f3wna Akademii G\u00f3rniczo-Hutniczej"}}, {"type": "way", "id": 233092514, "nodes": [2414349544, 2414349581, 2414349521, 2414349532, 2414349380, 2414349369, 2414349354, 2414349351, 2414349359, 2414349356, 2414349213, 2414349200, 2414349182, 2414349165, 2414349398, 2414349399, 2414349455, 2414349453, 2414349544], "tags": {"addr:city": "Krak\u00f3w", "addr:housenumber": "39", "addr:postcode": "30-119", "addr:street": "Aleja Marsza\u0142ka Ferdinanda Focha", "amenity": "library", "building": "public", "name": "Pedagogiczna Biblioteka Wojew\u00f3dzka im. Hugona Ko\u0142\u0142\u0105taja", "website": "https://www.pbw.edu.pl/"}}, {"type": "way", "id": 233371390, "nodes": [2417693085, 2417693109, 2417693123, 2417693137, 2417693112, 2417693069, 2417693067, 2417693034, 2417693039, 2417693019, 2417692998, 2417692982, 2417692964, 2417692936, 2417692915, 2417692903, 2417692892, 2417692867, 2417692836, 2417692809, 2417692782, 2417692761, 2417692744, 2417692698, 2417692652, 2417692621, 2417692614, 2417693085], "tags": {"addr:city": "Krak\u00f3w", "addr:country": "PL", "addr:housenumber": "10", "addr:postcode": "30-348", "addr:street": "Profesora Micha\u0142a Bobrzy\u0144skiego", "amenity": "library", "building": "yes", "email": "biblioteka@upjp2.edu.pl", "int_name": "The New Library of The Pontifical University of John Paul II", "name": "Biblioteka G\u0142\u00f3wna Uniwersytetu Papieskiego Jana Paw\u0142a II", "phone": "+48 12 421 84 40", "roof:colour": "grey", "roof:shape": "round", "website": "http://www.pat.krakow.pl/"}}, {"type": "way", "id": 256406931, "nodes": [3025535790, 5926461100, 2620683842, 2620683839, 3025535789, 2620683838, 3025535790], "tags": {"addr:city": "Krak\u00f3w", "addr:housenumber": "22", "addr:postcode": "30-059", "addr:street": "Aleja Adama Mickiewicza", "amenity": "library", "loc_name": "Jagiellonka", "name": "Biblioteka Jagiello\u0144ska", "name:de": "Jagiellonische Bibliothek", "name:en": "Jagiellonian Library", "name:fr": "Biblioth\u00e8que Jagellonne", "name:it": "Biblioteca Jagellonica", "name:la": "Bibliotheca Iagellonica", "name:lt": "Jogailos universiteto biblioteka", "name:nl": "Jagiellonische Bibliotheek", "name:pl": "Biblioteka Jagiello\u0144ska", "website": "https://bj.uj.edu.pl/", "wikidata": "Q24101", "wikipedia": "pl:Biblioteka Jagiello\u0144ska"}}, {"type": "way", "id": 1134982398, "nodes": [6133600954, 10580284089, 10580284086, 10580284087, 10580284088, 6133600954], "tags": {"access": "customers", "addr:city": "Krak\u00f3w", "addr:housenumber": "12", "addr:postcode": "31-124", "addr:street": "J\u00f3zefa Szujskiego", "air_conditioning": "yes", "amenity": "library", "building": "yes", "internet_access": "wlan", "internet_access:fee": "no", "name": "Arteteka Wojew\u00f3dzkiej Biblioteki Publicznej w Krakowie", "opening_hours": "Mo-Fr 10:00-19:00, Sa 11:30-19:00, Su 10:00-16:00", "operator": "Wojew\u00f3dzka Biblioteka Publiczna w Krakowie", "operator:type": "public", "payment:cash": "yes", "payment:nfc": "yes", "start_date": "2013", "wheelchair": "yes"}}, {"type": "way", "id": 1211749527, "nodes": [3486989557, 3486989465, 3486989473, 3486989561, 1503618109, 1503618123, 3486989786, 1503618126, 1503618120, 1503618102, 3486989557]}, {"type": "relation", "id": 11215192, "members": [{"type": "node", "ref": 1505834169, "role": ""}, {"type": "node", "ref": 1506803234, "role": ""}, {"type": "node", "ref": 1506803231, "role": ""}, {"type": "node", "ref": 2836978988, "role": ""}, {"type": "node", "ref": 1506289503, "role": ""}, {"type": "node", "ref": 2448315054, "role": ""}, {"type": "node", "ref": 5691423174, "role": ""}, {"type": "node", "ref": 1506803162, "role": ""}, {"type": "node", "ref": 1505834168, "role": ""}, {"type": "node", "ref": 1283188892, "role": ""}, {"type": "node", "ref": 1506803208, "role": ""}, {"type": "node", "ref": 5160264851, "role": ""}, {"type": "node", "ref": 1506291278, "role": ""}, {"type": "node", "ref": 1506803184, "role": ""}, {"type": "node", "ref": 1506803178, "role": ""}, {"type": "node", "ref": 1506803153, "role": ""}, {"type": "node", "ref": 1506291252, "role": ""}, {"type": "node", "ref": 1505834178, "role": ""}, {"type": "node", "ref": 1505834175, "role": ""}, {"type": "node", "ref": 1506291282, "role": ""}, {"type": "node", "ref": 1506803171, "role": ""}, {"type": "node", "ref": 3752682717, "role": ""}, {"type": "node", "ref": 6276353799, "role": ""}, {"type": "node", "ref": 1505834177, "role": ""}, {"type": "node", "ref": 3752712418, "role": ""}, {"type": "node", "ref": 1506291306, "role": ""}, {"type": "node", "ref": 3752604299, "role": ""}, {"type": "node", "ref": 1506803140, "role": ""}, {"type": "node", "ref": 1505834174, "role": ""}, {"type": "node", "ref": 1506291269, "role": ""}, {"type": "node", "ref": 1506291299, "role": ""}, {"type": "node", "ref": 1506803219, "role": ""}, {"type": "node", "ref": 1373921678, "role": ""}, {"type": "node", "ref": 2564191368, "role": ""}, {"type": "node", "ref": 1506803144, "role": ""}, {"type": "node", "ref": 1505834172, "role": ""}, {"type": "node", "ref": 1506803224, "role": ""}, {"type": "node", "ref": 1505834166, "role": ""}, {"type": "node", "ref": 1506803196, "role": ""}, {"type": "node", "ref": 1506803212, "role": ""}, {"type": "node", "ref": 2495854158, "role": ""}, {"type": "node", "ref": 3752720265, "role": ""}, {"type": "node", "ref": 5691376228, "role": ""}, {"type": "node", "ref": 5335873472, "role": ""}, {"type": "node", "ref": 3752733193, "role": ""}, {"type": "node", "ref": 3752616225, "role": ""}, {"type": "node", "ref": 1505834171, "role": ""}, {"type": "node", "ref": 3752712845, "role": ""}, {"type": "node", "ref": 1506803195, "role": ""}, {"type": "node", "ref": 1506291294, "role": ""}, {"type": "node", "ref": 1416965544, "role": ""}, {"type": "node", "ref": 3752587933, "role": ""}, {"type": "node", "ref": 1506803158, "role": ""}, {"type": "node", "ref": 1505834170, "role": ""}, {"type": "node", "ref": 3752712844, "role": ""}, {"type": "node", "ref": 1506289507, "role": ""}, {"type": "node", "ref": 1506803188, "role": ""}, {"type": "node", "ref": 1506803204, "role": ""}, {"type": "node", "ref": 8791138270, "role": ""}], "tags": {"amenity": "library", "check_date": "2024-02-21", "contact:email": "sekretariat@biblioteka.krakow.pl", "contact:fax": "+48 12 61 89 145", "contact:phone": "+48 12 61 89 100", "name": "Biblioteka Krak\u00f3w", "opening_hours": "Mo,Fr 08:30-19:00; Tu 12:00-19:00; Sa 09:00-14:00", "operator": "Biblioteka Krak\u00f3w", "operator:type": "public", "operator:wikidata": "Q48841935", "type": "site", "website": "https://www.biblioteka.krakow.pl/kontakt/"}}, {"type": "relation", "id": 16394638, "members": [{"type": "way", "ref": 137068994, "role": "inner"}, {"type": "way", "ref": 1211749527, "role": "outer"}], "tags": {"amenity": "library", "building": "yes", "name": "Biblioteka G\u0142\u00f3wna UEK", "type": "multipolygon", "wikidata": "Q9170784", "wikipedia": "pl:Biblioteka Uniwersytetu Ekonomicznego w Krakowie"}}]}