{"version": 0.6, "generator": "Overpass API 0.7.62.5 1bd436f1", "osm3s": {"timestamp_osm_base": "2025-05-30T23:00:16Z", "copyright": "The data included in this document is from www.openstreetmap.org. The data is made available under ODbL."}, "elements": [{"type": "node", "id": 41943557, "lat": 50.0835874, "lon": 19.8597855, "tags": {"name": "Krak\u00f3w Mydlniki", "name:pl": "Krak\u00f3w Mydlniki", "name:ru": "\u041a\u0440\u0430\u043a\u043e\u0432 \u041c\u044b\u0434\u043b\u0438\u043d\u043a\u0438", "name:uk": "\u041a\u0440\u0430\u043a\u0456\u0432 \u041c\u0438\u0434\u043b\u043d\u0456\u043a\u0456", "operator": "PKP Polskie Linie Kolejowe S.A.", "public_transport": "station", "railway": "station", "railway:ref": "KMd", "train": "yes", "wikidata": "Q2328335", "wikipedia": "pl:Krak\u00f3w Mydlniki"}}, {"type": "node", "id": 206270454, "lat": 50.0686663, "lon": 19.947802, "tags": {"alt_name": "Krakow Glowny railway station", "designation": "A", "name": "Krak\u00f3w G\u0142\u00f3wny", "name:cs": "Krakov hlavn\u00ed n\u00e1dra\u017e\u00ed", "name:de": "Krakau Hauptbahnhof", "name:en": "Krakow Main Station", "name:pl": "Krak\u00f3w G\u0142\u00f3wny", "name:ru": "\u0421\u0442\u0430\u043d\u0446\u0438\u044f \u041a\u0440\u0430\u043a\u043e\u0432-\u0413\u043b\u0430\u0432\u043d\u044b\u0439", "name:uk": "\u041a\u0440\u0430\u043a\u0456\u0432 \u0413\u043e\u043b\u043e\u0432\u043d\u0438\u0439", "name:zh": "\u514b\u62c9\u79d1\u592b\u706b\u8eca\u7e3d\u7ad9", "operator": "PKP Polskie Linie Kolejowe S.A.", "platforms": "5", "public_transport": "station", "railway": "station", "railway:ref": "KG", "source": "PKP PLK SA", "train": "yes", "uic_ref": "5100028", "wheelchair": "yes", "wikidata": "Q2154725", "wikipedia": "pl:Krak\u00f3w G\u0142\u00f3wny"}}, {"type": "node", "id": 206270914, "lat": 50.0350214, "lon": 19.9747852, "tags": {"name": "Krak\u00f3w P\u0142asz\u00f3w", "name:pl": "Krak\u00f3w P\u0142asz\u00f3w", "name:ru": "\u041a\u0440\u0430\u043a\u043e\u0432 \u041f\u043b\u0430\u0448\u0443\u0432", "name:uk": "\u041a\u0440\u0430\u043a\u0456\u0432 \u041f\u043b\u0430\u0448\u0443\u0432", "operator": "PKP Polskie Linie Kolejowe S.A.", "public_transport": "station", "railway": "station", "railway:ref": "KP", "wikidata": "Q3077203", "wikipedia": "pl:Krak\u00f3w P\u0142asz\u00f3w"}}, {"type": "node", "id": 598669907, "lat": 50.0214997, "lon": 20.0298488, "tags": {"name": "Krak\u00f3w Bie\u017can\u00f3w", "name:pl": "Krak\u00f3w Bie\u017can\u00f3w", "name:ru": "\u041a\u0440\u0430\u043a\u043e\u0432 \u0411\u0435\u0436\u0430\u043d\u0443\u0432", "name:uk": "\u041a\u0440\u0430\u043a\u0456\u0432 \u0411\u0435\u0436\u0430\u043d\u0443\u0432", "operator": "PKP Polskie Linie Kolejowe S.A.", "public_transport": "station", "railway": "station", "railway:ref": "KBn", "train": "yes", "wikidata": "Q2569196", "wikipedia": "pl:Krak\u00f3w Bie\u017can\u00f3w"}}, {"type": "node", "id": 3555929714, "lat": 50.0298423, "lon": 19.9464698, "tags": {"name": "Krak\u00f3w Bonarka", "name:pl": "Krak\u00f3w Bonarka", "name:ru": "\u041a\u0440\u0430\u043a\u043e\u0432 \u0411\u043e\u043d\u0430\u0440\u043a\u0430", "name:uk": "\u041a\u0440\u0430\u043a\u0456\u0432 \u0411\u043e\u043d\u0430\u0440\u043a\u0430", "operator": "PKP Polskie Linie Kolejowe S.A.", "public_transport": "station", "railway": "station", "railway:ref": "KB", "wheelchair": "yes", "wikidata": "Q11747926", "wikipedia": "pl:Krak\u00f3w Bonarka"}}]}