{"version": 0.6, "generator": "Overpass API 0.7.62.5 1bd436f1", "osm3s": {"timestamp_osm_base": "2025-05-30T23:01:20Z", "copyright": "The data included in this document is from www.openstreetmap.org. The data is made available under ODbL."}, "elements": [{"type": "node", "id": 469988553, "lat": 50.047555, "lon": 19.9441983, "tags": {"amenity": "pharmacy", "dispensing": "yes", "email": "trynitarska4@neostrada.pl", "healthcare": "pharmacy", "name": "Trynitarska", "opening_hours": "Mo-Fr 08:00-20:00; Sa 08:00-14:00", "operator": "Esculap s.j. Antonina Dyl", "phone": "+48 12 4301404", "ref:csioz": "1035759"}}, {"type": "node", "id": 469988871, "lat": 50.0514718, "lon": 19.9417621, "tags": {"addr:city": "Krak\u00f3w", "addr:housenumber": "1", "addr:postcode": "31-062", "addr:street": "Krakowska", "amenity": "pharmacy", "brand": "Gemini", "check_date:opening_hours": "2025-04-22", "dispensing": "yes", "healthcare": "pharmacy", "name": "Gemini", "opening_hours": "Mo-Fr 07:00-21:00; Sa 08:00-17:00; Su 10:00-17:00", "ref:csioz": "1076206"}}, {"type": "node", "id": 469988969, "lat": 50.0528743, "lon": 19.9400451, "tags": {"addr:city": "Krak\u00f3w", "addr:housenumber": "15", "addr:postcode": "31-058", "addr:street": "Stradomska", "amenity": "pharmacy", "brand": "Apteka S\u0142oneczna", "dispensing": "yes", "healthcare": "pharmacy", "name": "Apteka S\u0142oneczna", "official_name": "Apteka S\u0142oneczna", "opening_hours": "Mo-Fr 07:00-21:00; Sa,Su,PH 08:00-21:00", "ref:csioz": "1035841"}}, {"type": "node", "id": 469990840, "lat": 50.0523823, "lon": 19.9448611, "tags": {"addr:city": "Krak\u00f3w", "addr:housenumber": "3", "addr:postcode": "31-056", "addr:street": "Estery", "amenity": "pharmacy", "dispensing": "yes", "healthcare": "pharmacy", "name": "Esterka", "opening_hours": "Mo-Fr 10:00-18:00; Sa 11:00-19:00", "ref:csioz": "1077079"}}, {"type": "node", "id": 470208423, "lat": 50.0468594, "lon": 19.9440171, "tags": {"amenity": "pharmacy", "contact:email": "aptekabonifratrow@op.pl", "contact:phone": "+48 12 4268010", "contact:website": "http://bonifratrzy.pl/index.php?option=18&action=articles_show&art_id=111", "dispensing": "yes", "healthcare": "pharmacy", "name": "Apteka Bonifratr\u00f3w", "official_name": "Apteka Bonifratr\u00f3w Uzdrowienie Chorych", "opening_hours": "Mo-Fr 08:00-20:00; Sa 09:00-14:00", "ref:csioz": "1034736"}}, {"type": "node", "id": 470637599, "lat": 50.0658977, "lon": 19.930465, "tags": {"addr:city": "Krak\u00f3w", "addr:housenumber": "23", "addr:postcode": "31-131", "addr:street": "Karmelicka", "amenity": "pharmacy", "brand": "Dr. Max", "brand:wikidata": "Q56317371", "brand:wikipedia": "fr:Dr.Max", "check_date": "2023-09-15", "dispensing": "yes", "healthcare": "pharmacy", "name": "Dr. Max", "opening_hours": "24/7", "phone": "+48 12 631 19 80", "ref:csioz": "1038139", "wheelchair": "yes"}}, {"type": "node", "id": 475387293, "lat": 50.0629066, "lon": 19.9368144, "tags": {"addr:city": "Krak\u00f3w", "addr:housenumber": "1", "addr:postcode": "31-011", "addr:street": "Szczepa\u0144ska", "amenity": "pharmacy", "check_date": "2022-09-18", "dispensing": "yes", "healthcare": "pharmacy", "name": "Pod Z\u0142otym Tygrysem", "opening_hours": "Mo-Fr 08:00-20:00; Sa 08:00-15:00; Su 10:00-18:00", "ref:csioz": "1042103"}}, {"type": "node", "id": 613384192, "lat": 49.9992696, "lon": 19.895259, "tags": {"addr:city": "Krak\u00f3w", "addr:country": "PL", "addr:housenumber": "23B", "addr:postcode": "30-389", "addr:street": "Profesora Boles\u0142awa Wiktora Wicherkiewicza", "amenity": "pharmacy", "brand": "Dbam o Zdrowie", "brand:wikidata": "Q62563833", "dispensing": "yes", "drive_through": "no", "healthcare": "pharmacy", "name": "Dbam o Zdrowie", "official_name": "Apteka Dbam O Zdrowie", "opening_hours": "Mo-Fr 8:00-20:00; Sa 8:00-15:00", "ref:csioz": "1036289", "short_name": "DOZ", "website": "https://www.doz.pl/", "wheelchair": "yes", "wheelchair:description": "Dostep bez schodow, ale jest ostry zjazd w dol (lagodniejszy od strony ul. Komuny Paryskiej niz od ul. Wicherkiewicza)."}}, {"type": "node", "id": 635866769, "lat": 50.0154497, "lon": 20.0196714, "tags": {"amenity": "pharmacy", "brand": "Dr. Max", "brand:wikidata": "Q56317371", "dispensing": "yes", "healthcare": "pharmacy", "name": "Dr. Max", "opening_hours": "Mo-Sa 07:00-22:00; Su 08:00-21:00", "phone": "+48 12 658 10 01", "ref:csioz": "1182272", "wheelchair": "limited"}}, {"type": "node", "id": 656382754, "lat": 50.0125122, "lon": 20.0190997, "tags": {"amenity": "pharmacy", "check_date:opening_hours": "2021-07-29", "dispensing": "yes", "name": "Ziko Apteka", "official_name": "Ziko", "opening_hours": "Mo-Fr 08:00-20:30; Sa 08:00-16:00", "payment:cash": "yes", "payment:coins": "yes", "payment:mastercard": "yes", "payment:visa": "yes", "phone": "+48 12 687 57 47", "ref:csioz": "1034555", "website": "https://www.ziko.pl/krakow-apteki-drogerie-ziko/aleksandry-11/"}}, {"type": "node", "id": 682408441, "lat": 50.093651, "lon": 20.0018525, "tags": {"amenity": "pharmacy", "brand": "S\u0142oneczna", "dispensing": "yes", "healthcare": "pharmacy", "name": "S\u0142oneczna", "ref:csioz": "1035962"}}, {"type": "node", "id": 699692514, "lat": 50.0731849, "lon": 20.04243, "tags": {"amenity": "pharmacy", "brand": "Dbam o Zdrowie", "brand:wikidata": "Q62563833", "dispensing": "yes", "healthcare": "pharmacy", "name": "Dbam o Zdrowie", "official_name": "Apteka Dbam O Zdrowie", "opening_hours": "24/7", "phone": "+48 800 110 110", "ref:csioz": "1038412", "short_name": "DOZ", "trash_accepted:medicines": "yes", "wheelchair": "no"}}, {"type": "node", "id": 749934296, "lat": 50.0188154, "lon": 19.9835979, "tags": {"amenity": "pharmacy", "dispensing": "yes", "healthcare": "pharmacy", "name": "Hygieia", "ref:csioz": "1075503"}}, {"type": "node", "id": 799230489, "lat": 50.0176263, "lon": 19.8929139, "tags": {"amenity": "pharmacy", "brand": "Dbam o Zdrowie", "brand:wikidata": "Q62563833", "healthcare": "pharmacy", "name": "Dbam o Zdrowie", "opening_hours": "Mo-Fr 08:00-21:00; Sa 08:00-15:00", "ref:csioz": "1074896", "short_name": "DOZ"}}, {"type": "node", "id": 957908507, "lat": 50.0536231, "lon": 19.9547852, "tags": {"amenity": "pharmacy", "dispensing": "yes", "name": "Superfarm", "ref:csioz": "1077562"}}, {"type": "node", "id": 973922057, "lat": 50.0576865, "lon": 19.9491041, "tags": {"addr:housenumber": "3", "addr:street": "Al. Ignacego Daszy\u0144skiego", "amenity": "pharmacy", "dispensing": "yes", "healthcare": "pharmacy", "name": "Gemini", "name:ar": "\u0635\u064a\u062f\u0644\u064a\u0629", "opening_hours": "Mo-Fr 07:00-20:00; Sa 08:00-16:00", "ref:csioz": "1076342", "wheelchair": "yes"}}, {"type": "node", "id": 974197861, "lat": 50.0710226, "lon": 19.9147948, "tags": {"addr:city": "Krak\u00f3w", "addr:housenumber": "10", "addr:postcode": "30-079", "addr:street": "Aleja Kijowska", "amenity": "pharmacy", "dispensing": "yes", "healthcare": "pharmacy", "name": "Hygieia", "opening_hours": "Mo-Fr 07:00-21:00; Sa 07:00-18:00", "ref:csioz": "1056815"}}, {"type": "node", "id": 982823717, "lat": 50.0733208, "lon": 19.9344565, "tags": {"amenity": "pharmacy", "brand": "Ziko Apteka", "brand:wikidata": "Q63432892", "dispensing": "yes", "name": "Ziko Apteka", "opening_hours": "Mo-Fr 08:00-22:00, Sa 08:00-18:00, Su 10:00-18:00", "operator": "Ziko", "payment:cash": "yes", "payment:coins": "yes", "payment:mastercard": "yes", "payment:visa": "yes", "phone": "+48 12 687 57 47", "ref:csioz": "1036137", "short_name": "Ziko", "website": "https://www.ziko.pl/krakow-apteki-drogerie-ziko/dluga-88/", "wheelchair": "limited"}}, {"type": "node", "id": 1038599492, "lat": 50.0332187, "lon": 19.9393586, "tags": {"addr:housenumber": "6", "addr:postcode": "30-415", "addr:street": "Wadowicka", "amenity": "pharmacy", "dispensing": "yes", "healthcare": "pharmacy", "name": "\u017byczliwa Apteka", "opening_hours": "Mo-Fr 07:00-20:30; Sa 08:00-14:00", "ref:csioz": "1077352"}}, {"type": "node", "id": 1038629538, "lat": 50.0559631, "lon": 19.9461017, "tags": {"addr:city": "Krak\u00f3w", "addr:country": "PL", "addr:housenumber": "28", "addr:postcode": "31-032", "addr:street": "Starowi\u015blna", "amenity": "pharmacy", "check_date:opening_hours": "2025-03-08", "dispensing": "yes", "healthcare": "pharmacy", "name": "Galen", "opening_hours": "Mo-Sa 09:00-21:00; Su 11:00-19:00", "ref:csioz": "1038499"}}, {"type": "node", "id": 1167619999, "lat": 50.0641069, "lon": 20.0189332, "tags": {"amenity": "pharmacy", "dispensing": "yes", "ref:csioz": "1077519"}}, {"type": "node", "id": 1245992879, "lat": 50.0590952, "lon": 19.9622084, "tags": {"amenity": "pharmacy", "dispensing": "yes", "name": "S\u0142oneczna", "official_name": "Apteka S\u0142oneczna", "opening_hours": "Mo-Fr 07:00-22:00; PH,Sa,Su 08:00-22:00", "ref:csioz": "1042364"}}, {"type": "node", "id": 1251896320, "lat": 50.0456837, "lon": 19.9308084, "tags": {"amenity": "pharmacy", "contact:phone": "+48 12 269 08 94", "dispensing": "yes", "drive_through": "no", "healthcare": "pharmacy", "name": "Apteka Komandos\u00f3w 1", "opening_hours": "Mo-Fr 08:00-20:00; Sa 08:00-15:00", "ref:csioz": "1113289", "survey:date": "2021-08-26", "website": "http://aptekakomandosow.pl", "wheelchair": "yes"}}, {"type": "node", "id": 1308904271, "lat": 50.084858, "lon": 19.849033, "tags": {"amenity": "pharmacy", "dispensing": "yes", "name": "Hygieia", "opening_hours": "Mo-Fr 07:00-21:00; Sa 07:00-16:00", "ref:csioz": "1035620"}}, {"type": "node", "id": 1319234306, "lat": 50.0278749, "lon": 19.929368, "tags": {"amenity": "pharmacy", "check_date:opening_hours": "2025-02-02", "dispensing": "yes", "healthcare": "pharmacy", "name": "Apteka Zdrowie", "opening_hours": "Mo-Fr 07:00-21:00; Sa 08:00-16:00", "ref:csioz": "1075097"}}, {"type": "node", "id": 1351089136, "lat": 50.0839428, "lon": 19.9357462, "tags": {"amenity": "pharmacy", "dispensing": "yes", "name": "Dr. Max", "official_name": "Dr. Max Apteka Centrum Tanich Lek\u00f3w", "ref:csioz": "1074557"}}, {"type": "node", "id": 1370606696, "lat": 50.0593232, "lon": 19.9420765, "tags": {"addr:city": "Krak\u00f3w", "addr:housenumber": "1", "addr:postcode": "31-038", "addr:street": "Starowi\u015blna", "amenity": "pharmacy", "dispensing": "yes", "healthcare": "pharmacy", "name": "Niezapominajka", "official_name": "Niezapominajka Dla Ca\u0142ej Rodziny", "opening_hours": "Mo-Fr 08:00-21:00, Sa 08:00-18:00, Su 09:00-16:00", "ref:csioz": "1038791"}}, {"type": "node", "id": 1416547482, "lat": 50.0639478, "lon": 19.9269087, "tags": {"addr:city": "Krak\u00f3w", "addr:country": "PL", "addr:housenumber": "5", "addr:postcode": "31-121", "addr:street": "Czysta", "amenity": "pharmacy", "check_date": "2025-01-02", "dispensing": "yes", "healthcare": "pharmacy", "name": "Czysta 5", "opening_hours": "Mo-Fr 08:00-17:00", "ref:csioz": "1056295", "wheelchair": "yes"}}, {"type": "node", "id": 1453450310, "lat": 50.0994352, "lon": 19.964654, "tags": {"amenity": "pharmacy", "dispensing": "yes", "healthcare": "pharmacy", "name": "Hygieia", "ref:csioz": "1076855"}}, {"type": "node", "id": 1480541217, "lat": 50.0453536, "lon": 19.9494671, "tags": {"addr:city": "Krak\u00f3w", "addr:housenumber": "14", "addr:postcode": "30-851", "addr:street": "Rynek Podg\u00f3rski", "amenity": "pharmacy", "dispensing": "yes", "ref:csioz": "1034757"}}, {"type": "node", "id": 1480542023, "lat": 50.0435862, "lon": 19.9464219, "tags": {"addr:city": "Krak\u00f3w", "addr:housenumber": "14", "addr:postcode": "30-504", "addr:street": "Kalwaryjska", "amenity": "pharmacy", "dispensing": "yes", "healthcare": "pharmacy", "name": "Apteka Niezapominajka", "name:en": "Apteka Niezapominajka", "name:pl": "Apteka Niezapominajka", "official_name": "Niezapominajka Dla Ca\u0142ej Rodziny", "old_name": "Pod Koron\u0105", "opening_hours": "Mo-Fr 08:00-21:00; Sa 08:00-16:00", "ref:csioz": "1076240", "website": "https://apteka-niezapominajka.pl/"}}, {"type": "node", "id": 1481034546, "lat": 50.0437453, "lon": 19.9467325, "tags": {"amenity": "pharmacy", "atm": "yes", "brand": "Ziko Apteka", "brand:wikidata": "Q63432892", "dispensing": "yes", "healthcare": "pharmacy", "name": "Ziko Apteka", "opening_hours": "Mo-Fr 08:00-21:00; Sa 08:00-16:00", "payment:cash": "yes", "payment:coins": "yes", "payment:mastercard": "yes", "payment:visa": "yes", "phone": "+48 12 687 57 47", "ref:csioz": "1182945", "short_name": "Ziko", "website": "https://www.ziko.pl/krakow-apteki-drogerie-ziko/kalwaryjska-12/"}}, {"type": "node", "id": 1616142289, "lat": 50.0330235, "lon": 19.9712812, "tags": {"addr:city": "Krak\u00f3w", "addr:housenumber": "76", "addr:postcode": "30-552", "addr:street": "Wielicka", "amenity": "pharmacy", "dispensing": "yes", "name": "Na Wielickiej", "opening_hours": "Mo-Fr 08:00-20:00; Sa 08:00-15:00", "ref:csioz": "1077245"}}, {"type": "node", "id": 1642499121, "lat": 50.0821548, "lon": 20.0037249, "tags": {"amenity": "pharmacy", "dispensing": "yes", "name": "Apteka Aloka", "official_name": "Aloka", "ref:csioz": "1076067"}}, {"type": "node", "id": 1643189698, "lat": 50.0165984, "lon": 19.9723306}, {"type": "node", "id": 1643189699, "lat": 50.016604, "lon": 19.9724681}, {"type": "node", "id": 1643189705, "lat": 50.0166709, "lon": 19.9723243}, {"type": "node", "id": 1643189716, "lat": 50.0167076, "lon": 19.9723205}, {"type": "node", "id": 1643189718, "lat": 50.016712, "lon": 19.9724867}, {"type": "node", "id": 1686324434, "lat": 50.0793989, "lon": 19.9738251, "tags": {"addr:city": "Krak\u00f3w", "addr:country": "PL", "addr:housenumber": "8", "addr:postcode": "31-465", "addr:street": "Jerzego Bajana", "amenity": "pharmacy", "dispensing": "yes", "healthcare": "pharmacy", "name": "Apteka Ewa Rydz", "opening_hours": "Mo-Fr 08:00-20:00; Sa 08:00-15:00", "ref:csioz": "1034950", "wheelchair": "yes"}}, {"type": "node", "id": 1691398735, "lat": 50.0797304, "lon": 19.8951834, "tags": {"amenity": "pharmacy", "check_date:opening_hours": "2025-04-19", "dispensing": "yes", "name": "Anthoxanthum", "official_name": "Apteka Anthoxanthum", "opening_hours": "Mo-Fr 08:00-20:00, Sa 08:00-16:00", "ref:csioz": "1077524", "wheelchair": "yes"}}, {"type": "node", "id": 1708313807, "lat": 50.0450859, "lon": 19.9580346, "tags": {"addr:city": "Krak\u00f3w", "addr:housenumber": "26", "addr:postcode": "30-549", "addr:street": "Romualda Traugutta", "amenity": "pharmacy", "dispensing": "yes", "healthcare": "pharmacy", "name": "Supra", "official_name": "Apteka Supra", "opening_hours": "Mo-Fr 08:00-20:00; Sa 08:00-14:00", "ref:csioz": "1076038"}}, {"type": "node", "id": 1719218245, "lat": 50.0226256, "lon": 19.9810536, "tags": {"amenity": "pharmacy", "dispensing": "yes", "healthcare": "pharmacy", "name": "Wolska 24h", "official_name": "Wolska", "opening_hours": "24/7", "phone": "+48 12 657 13 16", "ref:csioz": "1219691"}}, {"type": "node", "id": 1758992018, "lat": 50.064142, "lon": 19.9977039}, {"type": "node", "id": 1759429655, "lat": 50.0734058, "lon": 19.9128128, "tags": {"amenity": "pharmacy", "check_date:opening_hours": "2024-12-12", "dispensing": "yes", "healthcare": "pharmacy", "name": "Hygieia", "opening_hours": "Mo-Fr 07:00-21:00; Sa 07:00-18:00", "ref:csioz": "1038628"}}, {"type": "node", "id": 1772741529, "lat": 50.02845, "lon": 19.9182925, "tags": {"amenity": "pharmacy", "dispensing": "yes", "healthcare": "pharmacy", "name": "Apteka S\u0142oneczna", "opening_hours": "Mo-Fr 07:00-21:00; PH,Su 08:00-21:00", "phone": "+48 122667248", "ref:csioz": "1035956", "wheelchair": "yes"}}, {"type": "node", "id": 1777297385, "lat": 50.0778256, "lon": 20.0452907, "tags": {"amenity": "pharmacy", "brand": "Apteka S\u0142oneczna", "dispensing": "yes", "healthcare": "pharmacy", "name": "Apteka S\u0142oneczna", "opening_hours": "Mo-Fr 07:00-21:00; Sa 08:00-15:00", "phone": "+48 12 6440690", "ref:csioz": "1076583", "wheelchair": "yes"}}, {"type": "node", "id": 1778571005, "lat": 50.0332493, "lon": 19.9248774, "tags": {"amenity": "pharmacy", "dispensing": "yes", "healthcare": "pharmacy", "layer": "1", "level": "1", "name": "Apteka Galen", "opening_hours": "Mo-Su 08:00-21:30", "operator": "j. Taliok, M. Stolarczyk, sp\u00f3\u0142ka jawna", "phone": "+48 12 296 42 39", "ref:csioz": "1076956", "website": "https://www.aptekagalen.pl/", "wheelchair": "yes"}}, {"type": "node", "id": 1780086332, "lat": 50.026809, "lon": 19.9209646, "tags": {"amenity": "pharmacy", "dispensing": "yes", "healthcare": "pharmacy", "name": "Apteka \"Centrum\"", "opening_hours": "Mo-Fr 08:00-22:00; Sa 09:00-17:00", "phone": "+48 122689988", "ref:csioz": "1036852"}}, {"type": "node", "id": 1786358200, "lat": 50.0812431, "lon": 19.8886974, "tags": {"amenity": "pharmacy", "check_date:opening_hours": "2024-09-16", "dispensing": "yes", "name": "Apteka Na Widoku", "official_name": "Na Widoku", "opening_hours": "Mo-Fr 08:00-21:00; Sa 08:00-15:00; Su 09:00-15:00", "ref:csioz": "1075606", "wheelchair": "yes"}}, {"type": "node", "id": 1786536220, "lat": 50.0811639, "lon": 19.8837365, "tags": {"amenity": "pharmacy", "check_date:opening_hours": "2023-12-23", "dispensing": "yes", "name": "Ziko Apteka", "opening_hours": "Mo-Fr 08:00-21:00; Sa 08:00-16:00", "payment:cash": "yes", "payment:coins": "yes", "payment:mastercard": "yes", "payment:visa": "yes", "phone": "+48 12 687 57 47", "ref:csioz": "1035571", "website": "https://www.ziko.pl/krakow-apteki-drogerie-ziko/balicka-14/", "wheelchair": "yes"}}, {"type": "node", "id": 1786536245, "lat": 50.0817851, "lon": 19.8824708, "tags": {"amenity": "pharmacy", "check_date:opening_hours": "2025-02-22", "dispensing": "yes", "name": "Apteka Niezapominajka", "official_name": "Niezapominajka Dla Ca\u0142ej Rodziny", "opening_hours": "Mo-Fr 08:00-20:00; Sa 08:00-16:00", "ref:csioz": "1179268", "trash_accepted:medicines": "yes", "wheelchair": "yes"}}, {"type": "node", "id": 1819649753, "lat": 50.1018991, "lon": 20.0135211, "tags": {"amenity": "pharmacy", "brand": "Ziko Apteka", "brand:wikidata": "Q63432892", "check_date:opening_hours": "2022-07-06", "dispensing": "yes", "healthcare": "pharmacy", "name": "Ziko Apteka", "opening_hours": "Mo-Fr 07:00-20:00, Sa 08:00-16:00", "payment:cash": "yes", "payment:coins": "yes", "payment:mastercard": "yes", "payment:visa": "yes", "phone": "+48 12 687 57 47", "ref:csioz": "1035552", "short_name": "Ziko", "website": "https://www.ziko.pl/krakow-apteki-drogerie-ziko/piastow-60/"}}, {"type": "node", "id": 1835961716, "lat": 50.074524, "lon": 20.0348234, "tags": {"amenity": "pharmacy", "brand": "Dbam o Zdrowie", "brand:wikidata": "Q62563833", "check_date:opening_hours": "2023-12-17", "dispensing": "yes", "healthcare": "pharmacy", "name": "Dbam o Zdrowie", "official_name": "Apteka Dbam O Zdrowie", "opening_hours": "Mo-Fr 08:00-20:00; Sa 08:00-15:00", "ref:csioz": "1038387", "short_name": "DOZ", "trash_accepted:medicines": "yes"}}, {"type": "node", "id": 1852596173, "lat": 50.0116209, "lon": 20.0094593, "tags": {"amenity": "pharmacy", "check_date:opening_hours": "2024-11-23", "dispensing": "yes", "name": "Galen", "opening_hours": "Mo-Fr 08:00-20:00; Sa 08:00-15:00", "ref:csioz": "1035792", "wheelchair": "yes"}}, {"type": "node", "id": 1870457788, "lat": 50.0197651, "lon": 19.8978989, "tags": {"amenity": "pharmacy", "dispensing": "yes", "name": "Apteka Vita", "opening_hours": "Mo-Fr 08:00-21:00; Sa 08:00-20:00", "ref:csioz": "1037242"}}, {"type": "node", "id": 1878175671, "lat": 50.0721817, "lon": 19.9139652, "tags": {"amenity": "pharmacy", "check_date:opening_hours": "2023-10-10", "dispensing": "yes", "healthcare": "pharmacy", "name": "S\u0142oneczna", "official_name": "Apteka S\u0142oneczna", "opening_hours": "Mo-Fr 07:00-22:00; PH,Sa,Su 08:00-22:00", "recycling:drugs": "yes", "ref:csioz": "1077136"}}, {"type": "node", "id": 1878936751, "lat": 50.07172, "lon": 19.9137179, "tags": {"amenity": "pharmacy", "brand": "Dbam o Zdrowie", "brand:wikidata": "Q62563833", "dispensing": "yes", "healthcare": "pharmacy", "name": "Dbam o Zdrowie", "opening_hours": "24/7", "phone": "+48 12 636 73 65", "ref:csioz": "1076552", "short_name": "DOZ", "trash_accepted:medicines": "no"}}, {"type": "node", "id": 1882727014, "lat": 50.0260446, "lon": 19.9046514, "tags": {"amenity": "pharmacy", "dispensing": "yes", "healthcare": "pharmacy", "name": "Hygieia", "opening_hours": "Mo-Fr 08:00-21:00; Sa 08:00-16:00", "phone": "+48 12 2640060", "ref:csioz": "1038615"}}, {"type": "node", "id": 1890197190, "lat": 50.1014778, "lon": 20.0121712, "tags": {"addr:city": "Krak\u00f3w", "addr:country": "PL", "addr:housenumber": "76", "addr:place": "Osiedle Bohater\u00f3w Wrze\u015bnia", "addr:postcode": "31-423", "amenity": "pharmacy", "dispensing": "yes", "name": "Hygieia", "opening_hours": "Mo-Fr 07:00-21:00; Sa 07:00-18:00; Su 09:00-15:00", "ref:csioz": "1035657"}}, {"type": "node", "id": 1892027891, "lat": 50.0711944, "lon": 19.9159407, "tags": {"amenity": "pharmacy", "check_date": "2024-10-03", "check_date:opening_hours": "2024-10-03", "dispensing": "yes", "drive_through": "no", "healthcare": "pharmacy", "internet_access": "no", "name": "Hygieia", "opening_hours": "Mo-Fr 07:00-21:00; Sa 07:00-18:00", "payment:mastercard": "yes", "payment:visa": "yes", "ref:csioz": "1038653", "wheelchair": "yes"}}, {"type": "node", "id": 1898465760, "lat": 50.0762289, "lon": 20.0172072}, {"type": "node", "id": 1898465762, "lat": 50.0762376, "lon": 20.0170958}, {"type": "node", "id": 1901391948, "lat": 50.0988492, "lon": 20.0116236, "tags": {"amenity": "pharmacy", "brand": "Apteka S\u0142oneczna", "dispensing": "yes", "healthcare": "pharmacy", "name": "Apteka S\u0142oneczna", "opening_hours": "Mo-Fr 07:00-21:00; Sa 08:00-15:00", "ref:csioz": "1035886"}}, {"type": "node", "id": 1914358911, "lat": 50.0722095, "lon": 19.9072745, "tags": {"addr:city": "Krak\u00f3w", "addr:housenumber": "10", "addr:postcode": "30-069", "addr:street": "Warmijska", "amenity": "pharmacy", "check_date:opening_hours": "2024-11-25", "dispensing": "yes", "healthcare": "pharmacy", "noname": "yes", "opening_hours": "Mo-Fr 07:00-21:00; Sa 08:00-15:00", "ref:csioz": "1075860"}}, {"type": "node", "id": 1972661235, "lat": 50.0798455, "lon": 19.9188443, "tags": {"amenity": "pharmacy", "dispensing": "yes", "name": "Oliwna", "official_name": "Esculap Dyl Sp. J. Apteka Oliwna", "opening_hours": "Mo-Fr 08:00-21:00; Sa 09:00-16:00", "ref:csioz": "1035768", "trash_accepted:medicines": "yes", "wheelchair": "yes"}}, {"type": "node", "id": 1979745739, "lat": 50.0513123, "lon": 19.9264612, "tags": {"addr:city": "Krak\u00f3w", "addr:housenumber": "9", "addr:postcode": "30-319", "addr:street": "Rynek D\u0119bnicki", "amenity": "pharmacy", "dispensing": "yes", "ref:csioz": "1076784"}}, {"type": "node", "id": 2019012107, "lat": 50.0935545, "lon": 19.9354497, "tags": {"addr:city": "Krak\u00f3w", "addr:housenumber": "3", "addr:postcode": "31-222", "addr:street": "Piotra Kluzeka", "amenity": "pharmacy", "check_date:opening_hours": "2023-09-15", "dispensing": "yes", "drive_through": "no", "healthcare": "pharmacy", "name": "Franczak Teresa, mgr farm. Apteka Prywatna", "opening_hours": "Mo-Fr 08:00-19:00, Sa 08:00-14:00", "phone": "+48 12 4152097", "ref:csioz": "1077161", "wheelchair": "yes"}}, {"type": "node", "id": 2019014518, "lat": 50.0188409, "lon": 19.9265778, "tags": {"addr:city": "Krak\u00f3w", "addr:housenumber": "7", "addr:postcode": "30-427", "addr:street": "Juliana Ursyna Niemcewicza", "amenity": "pharmacy", "dispensing": "yes", "drive_through": "no", "healthcare": "pharmacy", "name": "Apteka S\u0142oneczna", "opening_hours": "Mo-Fr 07:00-21:00; Sa 08:00-15:00", "ref:csioz": "1076417"}}, {"type": "node", "id": 2019014943, "lat": 50.0894776, "lon": 19.9294777, "tags": {"amenity": "pharmacy", "brand": "Apteka Gemini", "dispensing": "yes", "healthcare": "pharmacy", "name": "Apteka Gemini", "opening_hours": "Mo-Fr 07:00-21:00; Sa 08:00-17:00; PH closed"}}, {"type": "node", "id": 2140070637, "lat": 50.0474948, "lon": 19.9415431, "tags": {"addr:city": "Krak\u00f3w", "addr:country": "PL", "addr:housenumber": "9", "addr:postcode": "31-066", "addr:street": "Skawi\u0144ska", "amenity": "pharmacy", "brand": "Apteka S\u0142oneczna", "dispensing": "yes", "healthcare": "pharmacy", "name": "Apteka S\u0142oneczna", "ref:csioz": "1077495"}}, {"type": "node", "id": 2202711652, "lat": 50.0725307, "lon": 19.9688255, "tags": {"amenity": "pharmacy", "dispensing": "yes", "healthcare": "pharmacy", "name": "Apteka Kryniczna", "opening_hours": "Mo-Fr 09:00-19:00; Sa 08:00-15:00", "ref:csioz": "1056150"}}, {"type": "node", "id": 2255631039, "lat": 50.052931, "lon": 19.9289053, "tags": {"addr:country": "PL", "addr:housenumber": "3", "addr:postcode": "30-332", "addr:street": "Marii Konopnickiej", "amenity": "pharmacy", "brand": "Ziko Apteka", "brand:wikidata": "Q63432892", "check_date:opening_hours": "2025-05-21", "dispensing": "yes", "healthcare": "pharmacy", "name": "Ziko Apteka", "opening_hours": "Mo-Fr 08:00-20:00, Sa 08:00-15:00", "payment:cash": "yes", "payment:coins": "yes", "payment:mastercard": "yes", "payment:visa": "yes", "ref:csioz": "1035072", "short_name": "Ziko", "website": "https://www.ziko.pl/krakow-apteki-drogerie-ziko/Konopnickiej-3/", "wheelchair": "no"}}, {"type": "node", "id": 2360485573, "lat": 50.0822117, "lon": 20.0051582, "tags": {"amenity": "pharmacy", "dispensing": "yes", "name": "Charytatywny Punkt Wydawania Lek\u00f3w", "opening_hours": "Mo,We 14:00-17:00; Tu-Fr 10:30-13:30; PH off", "operator": "Stowarzyszenie Lekarze Nadziei", "phone": "+48 12 6472808", "website": "https://sln.org.pl/kontakt/", "wheelchair": "yes"}}, {"type": "node", "id": 2363529523, "lat": 50.0737361, "lon": 19.9590865, "tags": {"amenity": "pharmacy", "dispensing": "yes", "healthcare": "pharmacy", "opening_hours": "Mo-Fr 08:00-20:00; Sa 08:00-14:00", "ref:csioz": "1076612"}}, {"type": "node", "id": 2392829476, "lat": 50.0429486, "lon": 19.9320537, "tags": {"amenity": "pharmacy", "dispensing": "yes", "healthcare": "pharmacy", "name": "Podwawelska", "opening_hours": "Mo-Fr 07:00-20:00; Sa 08:00-16:00", "ref:csioz": "1042036"}}, {"type": "node", "id": 2423264120, "lat": 50.0687151, "lon": 19.9372013, "tags": {"addr:city": "Krak\u00f3w", "addr:housenumber": "31", "addr:postcode": "31-141", "addr:street": "Krowoderska", "amenity": "pharmacy", "dispensing": "yes", "name": "Dbam o Zdrowie", "official_name": "Apteka Dbam O Zdrowie", "opening_hours": "Mo-Fr 08:00-20:00", "ref:csioz": "1038256"}}, {"type": "node", "id": 2454258950, "lat": 50.0191126, "lon": 19.9866397, "tags": {"addr:city": "Krak\u00f3w", "addr:housenumber": "1", "addr:postcode": "30-668", "addr:street": "Wlotowa", "amenity": "pharmacy", "dispensing": "yes", "name": "Niezapominajka", "official_name": "Niezapominajka Dla Ca\u0142ej Rodziny", "opening_hours": "Mo-Fr 07:00-22:00; Sa 08:00-18:00; Su 09:00-16:00", "ref:csioz": "1036024", "wheelchair": "yes"}}, {"type": "node", "id": 2496178187, "lat": 50.0722601, "lon": 19.9569681, "tags": {"addr:city": "Krak\u00f3w", "addr:housenumber": "5", "addr:postcode": "31-513", "addr:street": "Olsza\u0144ska", "amenity": "pharmacy", "brand": "Dr. Max", "brand:wikidata": "Q56317371", "dispensing": "yes", "healthcare": "pharmacy", "name": "Dr. Max", "opening_hours": "Mo-Fr 07:30-20:00", "ref:csioz": "1034876", "website": "https://www.drmax.pl/"}}, {"type": "node", "id": 2498736087, "lat": 50.0061595, "lon": 19.8973553, "tags": {"amenity": "pharmacy", "dispensing": "yes", "name": "DOZ", "official_name": "Apteka Vita", "opening_hours": "Mo-Sa 08:00-21:00", "ref:csioz": "1115415", "website": "https://www.doz.pl/apteki/a115867-DOZ_Apteka_Dbam_o_Zdrowie"}}, {"type": "node", "id": 2611209886, "lat": 50.0559376, "lon": 19.9266176, "tags": {"addr:city": "Krak\u00f3w", "addr:housenumber": "8", "addr:postcode": "30-102", "addr:street": "Kazimierza Morawskiego", "amenity": "pharmacy", "dispensing": "yes", "healthcare": "pharmacy", "name": "Apteka S\u0142oneczna", "opening_hours": "Mo-Fr 07:00-21:00; Sa 08:00-15:00", "phone": "+48 12 427 13 17", "ref:csioz": "1076604", "wheelchair": "no"}}, {"type": "node", "id": 2611470232, "lat": 50.0700309, "lon": 19.9369727, "tags": {"addr:city": "Krak\u00f3w", "addr:housenumber": "48", "addr:postcode": "31-146", "addr:street": "D\u0142uga", "amenity": "pharmacy", "dispensing": "yes", "name": "Apteka s\u0142oneczna", "official_name": "Apteka S\u0142oneczna", "opening_hours": "Mo-Fr 07:00-21:00; Sa 08:00-15:00", "ref:csioz": "1195979"}}, {"type": "node", "id": 2628685535, "lat": 50.0672636, "lon": 19.940321, "tags": {"addr:city": "Krak\u00f3w", "addr:housenumber": "13", "addr:postcode": "31-149", "addr:street": "Krzywa", "amenity": "pharmacy", "check_date:opening_hours": "2023-09-29", "dispensing": "yes", "name": "Apteka Mandragora", "opening_hours": "Mo-Fr 08:00-21:00, Sa 08:00-15:00", "ref:csioz": "1056574"}}, {"type": "node", "id": 2628685537, "lat": 50.0678397, "lon": 19.9408589, "tags": {"addr:city": "Krak\u00f3w", "addr:housenumber": "14", "addr:postcode": "31-150", "addr:street": "Rynek Kleparski", "amenity": "pharmacy", "dispensing": "yes", "name": "Hygieia", "opening_hours": "Mo-Fr 07:00-21:00; Sa 07:00-18:00", "ref:csioz": "1076841"}}, {"type": "node", "id": 2765971142, "lat": 49.9908453, "lon": 19.9434253, "tags": {"amenity": "pharmacy", "dispensing": "yes", "name": "Apteka Vita", "opening_hours": "Mo-Fr 08:00-20:00; Sa 08:00-15:00", "operator": "Maria Kucharska-Pitala", "ref:csioz": "1037156", "source": "survey"}}, {"type": "node", "id": 2766012313, "lat": 49.9725809, "lon": 19.9475126, "tags": {"addr:city": "Krak\u00f3w", "addr:housenumber": "43", "addr:postcode": "30-698", "addr:street": "Miros\u0142awa Krzy\u017ca\u0144skiego", "amenity": "pharmacy", "dispensing": "yes", "drive_through": "no", "healthcare": "pharmacy", "name": "DOZ", "opening_hours": "Mo-Fr 08:00-21:00; Sa 08:00-15:00", "ref:csioz": "1042582", "wheelchair": "yes"}}, {"type": "node", "id": 2795276887, "lat": 50.0299679, "lon": 19.9112274}, {"type": "node", "id": 2795276888, "lat": 50.0300135, "lon": 19.9111829}, {"type": "node", "id": 2795276889, "lat": 50.0300546, "lon": 19.9114346}, {"type": "node", "id": 2795276891, "lat": 50.0300942, "lon": 19.9113761}, {"type": "node", "id": 2813557393, "lat": 50.0655995, "lon": 19.966179, "tags": {"amenity": "pharmacy", "contact:phone": "+48122020466", "dispensing": "yes", "healthcare": "pharmacy", "name": "Apteka S\u0142oneczna", "opening_hours": "Mo-Fr 08:00-21:00; Sa 08:00-15:00", "ref:csioz": "1222107"}}, {"type": "node", "id": 2833540324, "lat": 50.0079206, "lon": 19.9596784, "tags": {"addr:city": "Krak\u00f3w", "addr:country": "PL", "addr:housenumber": "30A", "addr:postcode": "30-611", "addr:street": "Marii i Boles\u0142awa Wys\u0142ouch\u00f3w", "amenity": "pharmacy", "dispensing": "yes", "name": "Apteka Rumianek", "name:en": "Apteka Niezapominajka", "name:pl": "Apteka Niezapominajka", "official_name": "Niezapominajka Dla Ca\u0142ej Rodziny", "opening_hours": "Mo-Fr 08:00-20:00; Sa 08:00-16:00", "phone": "(12) 647 14 48", "ref:csioz": "1196033", "website": "http://www.apteka-niezapominajka.pl/apteka/Krakow-Wyslouchow"}}, {"type": "node", "id": 2862353367, "lat": 50.0131293, "lon": 19.9508122, "tags": {"addr:city": "Krak\u00f3w", "addr:housenumber": "1K", "addr:postcode": "30-611", "addr:street": "Porucznika Jerzego Halszki", "amenity": "pharmacy", "dispensing": "yes", "healthcare": "pharmacy", "name": "Apteka S\u0142oneczna", "ref:csioz": "1035417", "source:addr": "EMUiA (emuia.gugik.gov.pl)"}}, {"type": "node", "id": 2879888186, "lat": 50.0300927, "lon": 19.9113878, "tags": {"entrance": "main", "wheelchair": "yes"}}, {"type": "node", "id": 2895825353, "lat": 50.0051046, "lon": 19.9496889, "tags": {"amenity": "pharmacy", "check_date": "2024-09-04", "dispensing": "yes", "name": "Doz Apteka Dbam O Zdrowie", "ref:csioz": "1199166"}}, {"type": "node", "id": 2983071006, "lat": 50.0875811, "lon": 19.9846958}, {"type": "node", "id": 3009553773, "lat": 50.0212052, "lon": 19.9027859}, {"type": "node", "id": 3015118475, "lat": 50.0300915, "lon": 19.9113981}, {"type": "node", "id": 3024438244, "lat": 50.0463229, "lon": 19.9817766, "tags": {"amenity": "pharmacy", "dispensing": "yes", "email": "apteka.plaszowska@hygieia.pl", "name": "Hygieia", "opening_hours": "Mo-Fr 07:00-21:00; Sa 07:00-18:00; PH off", "phone": "12 658 97 99", "ref:csioz": "1038644", "website": "https://hygieia.pl/"}}, {"type": "node", "id": 3036638553, "lat": 50.0631948, "lon": 19.9278369, "tags": {"addr:city": "Krak\u00f3w", "addr:housenumber": "2", "addr:postcode": "31-115", "addr:street": "Garncarska", "amenity": "pharmacy", "brand": "Ziko Apteka", "brand:wikidata": "Q63432892", "check_date:opening_hours": "2024-03-19", "dispensing": "yes", "healthcare": "pharmacy", "name": "Ziko Apteka", "opening_hours": "Mo-Fr 08:00-21:00, Sa 09:00-17:00", "payment:cash": "yes", "payment:coins": "yes", "payment:mastercard": "yes", "payment:visa": "yes", "phone": "+48 12 687 57 47", "ref:csioz": "1211529", "short_name": "Ziko", "website": "https://www.ziko.pl/krakow-apteki-drogerie-ziko/garncarska-2/"}}, {"type": "node", "id": 3039442418, "lat": 50.0588765, "lon": 19.9380307, "tags": {"addr:city": "Krak\u00f3w", "addr:housenumber": "26", "addr:postcode": "31-044", "addr:street": "Grodzka", "amenity": "pharmacy", "check_date": "2025-04-19", "dispensing": "yes", "healthcare": "pharmacy", "name": "Bobilewicz", "opening_hours": "Mo-Fr 08:00-21:00, Sa,Su 10:00-20:00", "phone": "+48 12 4320760", "ref:csioz": "1035350", "website": "https://www.apteki-bobilewicz.pl/"}}, {"type": "node", "id": 3039761280, "lat": 50.0867583, "lon": 19.9386294, "tags": {"addr:city": "Krak\u00f3w", "addr:housenumber": "69", "addr:postcode": "31-202", "addr:street": "Pr\u0105dnicka", "amenity": "pharmacy", "check_date:opening_hours": "2024-12-01", "dispensing": "yes", "name": "Niezapominajka", "opening_hours": "Mo-Fr 08:00-20:00; Sa 08:00-16:00", "ref:csioz": "1035997", "wheelchair": "yes"}}, {"type": "node", "id": 3042830118, "lat": 50.0259484, "lon": 19.9134253, "tags": {"amenity": "pharmacy", "contact:phone": "+48 12 269 1745", "dispensing": "yes", "healthcare": "pharmacy", "name": "Apteka Janbor S.J.", "ref:csioz": "1035190"}}, {"type": "node", "id": 3043510886, "lat": 50.0876182, "lon": 20.0207561, "tags": {"addr:city": "Krak\u00f3w", "addr:country": "PL", "addr:housenumber": "30", "addr:place": "Osiedle Kazimierzowskie", "addr:postcode": "31-844", "amenity": "pharmacy", "brand": "Gemini", "dispensing": "yes", "healthcare": "pharmacy", "name": "Gemini", "opening_hours": "24/7", "phone": "+48 571 601 679", "ref:csioz": "1076657", "wheelchair": "yes"}}, {"type": "node", "id": 3045571587, "lat": 50.0657017, "lon": 20.0454373, "tags": {"amenity": "pharmacy", "contact:phone": "+48 12 644 0696", "dispensing": "yes", "healthcare": "pharmacy", "layer": "-1", "name": "Galen", "note": "nieczynne do odwo\u0142ania", "official_name": "Galen", "opening_hours": "Mo-Fr off", "ref:csioz": "1075679"}}, {"type": "node", "id": 3057515574, "lat": 50.0211092, "lon": 19.9027922}, {"type": "node", "id": 3057515578, "lat": 50.0211276, "lon": 19.9027298}, {"type": "node", "id": 3057515584, "lat": 50.0211865, "lon": 19.902848}, {"type": "node", "id": 3077030062, "lat": 50.0817747, "lon": 19.9743872, "tags": {"amenity": "pharmacy", "dispensing": "yes", "healthcare": "pharmacy", "name": "S\u0142oneczna", "official_name": "Apteka S\u0142oneczna", "opening_hours": "Mo-Fr 07:00-21:00; Sa 08:00-15:00", "ref:csioz": "1076997", "wheelchair": "no"}}, {"type": "node", "id": 3087320587, "lat": 50.0940097, "lon": 19.9741034, "tags": {"amenity": "pharmacy", "dispensing": "yes", "email": "krakow-strzelcow@apteka-sloneczna.pl", "healthcare": "pharmacy", "name": "Apteka S\u0142oneczna", "opening_hours": "Mo-Fr 07:00-21:00, Sa 08:00-15:00", "payment:cash": "yes", "payment:mastercard": "yes", "payment:visa": "yes", "payment:visa_debit": "yes", "payment:visa_electron": "yes", "phone": "+48 12 413 66 13", "ref:csioz": "1075486", "website": "http://www.apteka-sloneczna.pl/"}}, {"type": "node", "id": 3109374265, "lat": 49.9947827, "lon": 19.946698, "tags": {"amenity": "pharmacy", "dispensing": "yes", "name": "Apteka Rumianek", "official_name": "Apteka Rumianek Nasze Zdrowie Ma\u0142e Ceny", "opening_hours": "Mo-Fr 08:30-19:30; Sa 08:30-14:00", "ref:csioz": "1119904"}}, {"type": "node", "id": 3139920440, "lat": 50.0376161, "lon": 19.9408416, "tags": {"amenity": "pharmacy", "brand": "Dbam o Zdrowie", "brand:wikidata": "Q62563833", "dispensing": "yes", "email": "apt65770@dbamozdrowie.pl", "healthcare": "pharmacy", "name": "Dbam o Zdrowie", "official_name": "Apteka Dbam O Zdrowie", "opening_hours": "24/7", "operator": "Cefarm", "phone": "+48 800 110 110", "recycling:drugs": "yes", "ref:csioz": "1038398", "short_name": "DOZ"}}, {"type": "node", "id": 3281129159, "lat": 50.0080308, "lon": 19.9491987, "tags": {"addr:city": "Krak\u00f3w", "addr:housenumber": "2", "addr:postcode": "30-611", "addr:street": "Marii i Boles\u0142awa Wys\u0142ouch\u00f3w", "amenity": "pharmacy", "dispensing": "yes", "name": "Hygieia", "ref:csioz": "1075826"}}, {"type": "node", "id": 3294938781, "lat": 50.0439971, "lon": 19.8256835, "tags": {"amenity": "pharmacy", "dispensing": "yes", "name": "Apteka Na Bielanach", "ref:csioz": "1056517"}}, {"type": "node", "id": 3295090925, "lat": 50.0082918, "lon": 19.9540201, "tags": {"amenity": "pharmacy", "dispensing": "yes", "name": "Apteka S\u0142oneczna", "ref:csioz": "1210297"}}, {"type": "node", "id": 3350299167, "lat": 50.0587913, "lon": 19.9380058, "tags": {"amenity": "pharmacy", "healthcare": "pharmacy"}}, {"type": "node", "id": 3366915924, "lat": 50.0752402, "lon": 19.9108501, "tags": {"amenity": "pharmacy", "dispensing": "yes", "healthcare": "pharmacy", "noname": "yes", "opening_hours": "Mo-Fr 08:00-20:00; Sa 08:00-15:00"}}, {"type": "node", "id": 3368718544, "lat": 50.0640614, "lon": 19.9334202, "tags": {"addr:city": "Krak\u00f3w", "addr:housenumber": "2", "addr:postcode": "31-133", "addr:street": "Juliana Dunajewskiego", "amenity": "pharmacy", "brand": "Ziko Apteka", "brand:wikidata": "Q63432892", "check_date:opening_hours": "2025-03-05", "dispensing": "yes", "healthcare": "pharmacy", "name": "Ziko Apteka", "opening_hours": "Mo-Fr 08:00-22:00, Sa 09:00-18:00, Su 10:00-18:00", "payment:cash": "yes", "payment:coins": "yes", "payment:mastercard": "yes", "payment:visa": "yes", "phone": "+48 12 687 57 47", "ref:csioz": "1113184", "short_name": "Ziko", "website": "https://www.ziko.pl/krakow-apteki-drogerie-ziko/dunajewskiego-2/", "wheelchair": "no"}}, {"type": "node", "id": 3368718545, "lat": 50.0641003, "lon": 19.9320758, "tags": {"addr:city": "Krak\u00f3w", "addr:housenumber": "10", "addr:postcode": "31-128", "addr:street": "Karmelicka", "amenity": "pharmacy", "dispensing": "yes", "healthcare": "pharmacy", "name": "Apteka Remedium", "note": "informacja@remedium.ch", "opening_hours": "Mo-Fr 07:00-21:00; Sa 08:00-15:00", "phone": "+48 605 720 019", "ref:csioz": "1173594", "website": "https://www.remedium.ch/"}}, {"type": "node", "id": 3372158958, "lat": 50.0641387, "lon": 19.9451487, "tags": {"addr:city": "Krak\u00f3w", "addr:housenumber": "1", "addr:postcode": "31-033", "addr:street": "Westerplatte", "amenity": "pharmacy", "check_date:opening_hours": "2023-04-23", "dispensing": "yes", "healthcare": "pharmacy", "name": "S\u0142oneczna", "official_name": "Apteka S\u0142oneczna G. Kwiecie\u0144 Sp.J.", "opening_hours": "Mo-Fr 07:00-21:00; Sa,Su 08:00-21:00; PH 08:00-21:00", "ref:csioz": "1035908"}}, {"type": "node", "id": 3373613937, "lat": 50.0629242, "lon": 19.9321435, "tags": {"amenity": "pharmacy", "brand": "Dbam o Zdrowie", "brand:wikidata": "Q62563833", "dispensing": "yes", "healthcare": "pharmacy", "name": "Dbam o Zdrowie", "official_name": "Apteka Dbam O Zdrowie", "opening_hours": "Mo-Fr 08:00-20:00; Sa 09:00-15:00", "ref:csioz": "1035177", "short_name": "DOZ", "website": "https://www.doz.pl/", "wheelchair": "limited"}}, {"type": "node", "id": 3373641811, "lat": 50.0585031, "lon": 19.9380773, "tags": {"addr:city": "Krak\u00f3w", "addr:housenumber": "34", "addr:postcode": "31-044", "addr:street": "Grodzka", "amenity": "pharmacy", "dispensing": "yes", "healthcare": "pharmacy", "name": "Tastaka", "opening_hours": "Mo-Fr 08:00-21:00, Sa 10:00-18:00, Su 10:00-18:00", "ref:csioz": "1056191"}}, {"type": "node", "id": 3426407329, "lat": 50.0798072, "lon": 19.9694444, "tags": {"entrance": "main"}}, {"type": "node", "id": 3443250842, "lat": 50.0730045, "lon": 19.9826172, "tags": {"amenity": "pharmacy", "check_date:opening_hours": "2023-10-03", "dispensing": "yes", "name": "S\u0142oneczna", "name:pl": "S\u0142oneczna", "official_name": "Apteka S\u0142oneczna", "opening_hours": "Mo-Fr 07:00-21:00; Sa-Su 08:00-18:00", "ref:csioz": "1035943", "wheelchair": "limited"}}, {"type": "node", "id": 3451250651, "lat": 50.0157373, "lon": 20.037972}, {"type": "node", "id": 3451250652, "lat": 50.01575, "lon": 20.0380391}, {"type": "node", "id": 3451250654, "lat": 50.0158064, "lon": 20.0379405}, {"type": "node", "id": 3451254304, "lat": 50.0158191, "lon": 20.0380075}, {"type": "node", "id": 3650373571, "lat": 50.0930037, "lon": 20.0218185, "tags": {"amenity": "pharmacy", "dispensing": "yes", "name": "DOZ", "official_name": "Doz Apteka. Dbam O Zdrowie. Vita", "opening_hours": "Mo-Fr 08:00-21:00; Sa 08:00-20:00", "ref:csioz": "1056605", "wheelchair": "yes"}}, {"type": "node", "id": 3677773802, "lat": 50.0985443, "lon": 20.0151628, "tags": {"amenity": "pharmacy", "brand": "Zdrowie", "dispensing": "yes", "healthcare": "pharmacy", "name": "Zdrowie", "opening_hours": "Mo-Fr 07:30-20:00", "ref:csioz": "1038152"}}, {"type": "node", "id": 3678983034, "lat": 50.0947418, "lon": 19.9517366, "tags": {"amenity": "pharmacy", "dispensing": "yes", "name": "Apteka Hygieia", "ref:csioz": "1035685"}}, {"type": "node", "id": 3689051006, "lat": 50.0976391, "lon": 20.0202685, "tags": {"amenity": "pharmacy", "check_date:opening_hours": "2024-02-15", "dispensing": "yes", "name": "DOZ Apteka", "official_name": "Apteka Dbam O Zdrowie", "opening_hours": "Mo-Fr 08:00-20:00; Sa 08:00-16:00", "ref:csioz": "1077022"}}, {"type": "node", "id": 3736668967, "lat": 50.0796672, "lon": 19.969555}, {"type": "node", "id": 3736668968, "lat": 50.0797271, "lon": 19.9696287}, {"type": "node", "id": 3736668969, "lat": 50.0797613, "lon": 19.969368}, {"type": "node", "id": 3736668970, "lat": 50.0798056, "lon": 19.9694224}, {"type": "node", "id": 3745363407, "lat": 50.0082901, "lon": 19.9597643, "tags": {"amenity": "pharmacy", "dispensing": "yes", "name": "Dbam o Zdrowie", "official_name": "Apteka Dbam O Zdrowie", "opening_hours": "Mo-Fr 08:00-18:00; Sa 08:00-15:00", "ref:csioz": "1036304"}}, {"type": "node", "id": 3752720432, "lat": 50.0087995, "lon": 19.9597568, "tags": {"addr:city": "Krak\u00f3w", "addr:housenumber": "73", "addr:postcode": "30-619", "addr:street": "Turniejowa", "amenity": "pharmacy", "dispensing": "yes", "name": "Centrum", "opening_hours": "Mo-Fr 08:00-20:00; Sa 08:00-15:00", "ref:csioz": "1037124"}}, {"type": "node", "id": 3765354272, "lat": 50.0947713, "lon": 20.062044, "tags": {"amenity": "pharmacy", "dispensing": "yes", "name": "Apteka Zdrowie", "ref:csioz": "1120613"}}, {"type": "node", "id": 3808371094, "lat": 50.0947008, "lon": 19.9304924, "tags": {"amenity": "pharmacy", "dispensing": "yes", "drive_through": "no", "healthcare": "pharmacy", "name": "Hygieia", "opening_hours": "7:00 - 20:00", "operator": "Hygieia", "ref:csioz": "1056465", "website": "https://www.hygieia.pl"}}, {"type": "node", "id": 3808427367, "lat": 50.0955845, "lon": 19.9324553, "tags": {"addr:city": "Krak\u00f3w", "addr:postcode": "31-227", "addr:street": "Zieli\u0144ska", "amenity": "pharmacy", "brand": "Dbam o Zdrowie", "brand:wikidata": "Q62563833", "dispensing": "yes", "drive_through": "no", "healthcare": "pharmacy", "name": "Dbam o Zdrowie", "official_name": "Apteka Dbam O Zdrowie", "opening_hours": "24/7", "operator": "DOZ", "phone": "+48 800 110 110", "ref:csioz": "1038354", "short_name": "DOZ"}}, {"type": "node", "id": 3833804231, "lat": 50.0586476, "lon": 19.8968309, "tags": {"addr:city": "Krak\u00f3w", "addr:housenumber": "132", "addr:postcode": "30-212", "addr:street": "Kr\u00f3lowej Jadwigi", "amenity": "pharmacy", "dispensing": "yes", "drive_through": "no", "name": "Apteka pod kopcem", "official_name": "\"Apteka \"\"Pod Kopcem\"\" S.C. Sabina Bia\u0142as, Marek Bia\u0142as\"", "opening_hours": "Mo-Fr 08:00-20:00, Sa 08:00-15:00", "ref:csioz": "1036982"}}, {"type": "node", "id": 3882428100, "lat": 50.0571724, "lon": 19.9284078, "tags": {"addr:city": "Krak\u00f3w", "addr:housenumber": "23", "addr:postcode": "31-108", "addr:street": "Retoryka", "amenity": "pharmacy", "brand": "Ziko Apteka", "brand:wikidata": "Q63432892", "check_date": "2022-11-14", "dispensing": "yes", "healthcare": "pharmacy", "name": "Ziko Apteka", "opening_hours": "Mo-Fr 08:00-22:00; Sa 08:00-16:00", "payment:blik": "yes", "payment:cash": "yes", "payment:coins": "yes", "payment:mastercard": "yes", "payment:visa": "yes", "phone": "+48 12 687 57 47", "ref:csioz": "1035539", "short_name": "Ziko", "stroller": "yes", "website": "https://www.ziko.pl/krakow-apteki-drogerie-ziko/retoryka-23/", "wheelchair": "yes"}}, {"type": "node", "id": 3894889587, "lat": 50.093919, "lon": 19.9894718, "tags": {"amenity": "pharmacy", "dispensing": "yes", "name": "Hygieia", "opening_hours": "Mo-Fr 7:00-21:00;Sa 7:00-18:00", "phone": "+48 12 686 20 54", "ref:csioz": "1035648"}}, {"type": "node", "id": 3958188221, "lat": 50.0652388, "lon": 19.9512801, "tags": {"amenity": "pharmacy", "brand": "Dbam o Zdrowie", "brand:wikidata": "Q62563833", "check_date:opening_hours": "2025-05-25", "dispensing": "yes", "healthcare": "pharmacy", "name": "Dbam o Zdrowie", "opening_hours": "Mo-Fr 08:00-20:00; Sa 08:00-14:00", "ref:csioz": "1075883", "short_name": "DOZ", "wheelchair": "limited"}}, {"type": "node", "id": 4014864898, "lat": 50.092785, "lon": 20.020044, "tags": {"addr:city": "Krak\u00f3w", "addr:housenumber": "1", "addr:place": "Osiedle Z\u0142otej Jesieni", "addr:postcode": "31-826", "amenity": "pharmacy", "brand": "S\u0142oneczna", "dispensing": "yes", "drive_through": "no", "healthcare": "pharmacy", "name": "S\u0142oneczna", "official_name": "Apteka S\u0142oneczna", "opening_hours": "Mo-Fr 07:00-22:00; Sa,Su,PH 08:00-22:00", "ref:csioz": "1036244", "trash_accepted:medicines": "no", "wheelchair": "yes"}}, {"type": "node", "id": 4086666902, "lat": 50.0910412, "lon": 19.9895478, "tags": {"amenity": "pharmacy", "dispensing": "yes", "name": "Hygieia", "ref:csioz": "1183888"}}, {"type": "node", "id": 4118840303, "lat": 50.0266708, "lon": 19.9122833, "tags": {"addr:city": "Krak\u00f3w", "addr:housenumber": "93", "addr:postcode": "30-382", "addr:street": "Kobierzy\u0144ska", "amenity": "pharmacy", "brand": "Ziko Apteka", "brand:wikidata": "Q63432892", "dispensing": "yes", "drive_through": "no", "healthcare": "pharmacy", "name": "Ziko Apteka", "opening_hours": "Mo-Fr 08:00-21:00, Sa 08:00-16:00", "operator": "Ziko", "payment:cash": "yes", "payment:coins": "yes", "payment:mastercard": "yes", "payment:visa": "yes", "phone": "+48 12 687 57 47", "ref:csioz": "1198917", "short_name": "Ziko", "website": "https://www.ziko.pl/krakow-apteki-drogerie-ziko/kobierzynska-93/"}}, {"type": "node", "id": 4192963800, "lat": 50.0941797, "lon": 19.9463273, "tags": {"amenity": "pharmacy", "dispensing": "yes", "healthcare": "pharmacy", "name": "Dr Zdrowie", "ref:csioz": "1034578"}}, {"type": "node", "id": 4271289402, "lat": 50.072982, "lon": 20.0370789, "tags": {"amenity": "pharmacy", "brand": "Ziko Apteka", "brand:wikidata": "Q63432892", "check_date:opening_hours": "2025-04-25", "dispensing": "yes", "healthcare": "pharmacy", "name": "Ziko Apteka", "opening_hours": "Mo-Fr 08:00-21:00, Sa 08:00-16:00", "payment:cash": "yes", "payment:coins": "yes", "payment:mastercard": "yes", "payment:visa": "yes", "phone": "+48 12 687 57 47", "ref:csioz": "1188707", "short_name": "Ziko", "trash_accepted:medicines": "yes", "website": "https://www.ziko.pl/krakow-apteki-drogerie-ziko/centrum-c1/", "wheelchair": "yes"}}, {"type": "node", "id": 4281246649, "lat": 50.061647, "lon": 19.9408268, "tags": {"addr:city": "Krak\u00f3w", "addr:housenumber": "4", "addr:postcode": "31-027", "addr:street": "Miko\u0142ajska", "amenity": "pharmacy", "brand": "Dbam o Zdrowie", "brand:wikidata": "Q62563833", "dispensing": "yes", "healthcare": "pharmacy", "name": "Dbam o Zdrowie", "official_name": "Apteka Dbam O Zdrowie", "opening_hours": "Mo-Fr 08:00-20:00; Sa 09:00-18:00", "ref:csioz": "1038404", "short_name": "DOZ", "wheelchair": "limited"}}, {"type": "node", "id": 4306223250, "lat": 50.0683192, "lon": 19.948408, "tags": {"addr:city": "Krak\u00f3w", "addr:housenumber": "5a", "addr:postcode": "31-154", "addr:street": "Pawia", "amenity": "pharmacy", "brand": "Super-Pharm", "brand:en": "Super-Pharm", "brand:he": "\u05e1\u05d5\u05e4\u05e8-\u05e4\u05d0\u05e8\u05dd", "brand:wikidata": "Q13220217", "dispensing": "yes", "healthcare": "pharmacy", "level": "-1", "name": "Super-Pharm", "name:ar": "\u0633\u0648\u0628\u064a\u0631 \u0641\u0627\u0631\u0645", "name:en": "Super-Pharm", "name:he": "\u05e1\u05d5\u05e4\u05e8-\u05e4\u05d0\u05e8\u05dd", "name:ru": "\u0421\u0443\u043f\u0435\u0440-\u0424\u0430\u0440\u043c", "official_name": "Super-Pharm Apteka", "opening_hours": "Mo-Fr 06:00-22:00; Sa,Su 08:00-21:00", "ref:csioz": "1124229", "wheelchair": "yes"}}, {"type": "node", "id": 4424450489, "lat": 50.0091045, "lon": 19.961579, "tags": {"addr:city": "Krak\u00f3w", "addr:country": "PL", "addr:housenumber": "73F", "addr:postcode": "30-619", "addr:street": "Turniejowa", "amenity": "pharmacy", "check_date:opening_hours": "2024-03-30", "dispensing": "yes", "healthcare": "pharmacy", "name": "Gemini", "opening_hours": "Mo-Fr 08:00-21:00; Sa 08:00-17:00; Su 08:00-15:00", "phone": "12 654 04 20", "ref:csioz": "1036503", "wheelchair": "yes"}}, {"type": "node", "id": 4426464600, "lat": 50.0745458, "lon": 20.0393962, "tags": {"amenity": "pharmacy", "check_date:opening_hours": "2024-06-15", "dispensing": "yes", "name": "Niezapominajka", "official_name": "Niezapominajka Dla Ca\u0142ej Rodziny", "opening_hours": "Mo-Fr 08:00-21:00; Sa 08:00-18:00; Su 09:00-16:00", "ref:csioz": "1036019", "trash_accepted:medicines": "yes", "wheelchair": "limited"}}, {"type": "node", "id": 4428759370, "lat": 50.0786492, "lon": 20.0324287, "tags": {"amenity": "pharmacy", "brand": "Apteka S\u0142oneczna", "dispensing": "yes", "drive_through": "no", "healthcare": "pharmacy", "name": "Apteka S\u0142oneczna", "opening_hours": "Mo-Fr 07:00-21:00; Sa 08:00-15:00", "payment:card": "yes", "payment:cash": "yes", "ref:csioz": "1036253", "wheelchair": "no"}}, {"type": "node", "id": 4441796526, "lat": 50.0539826, "lon": 19.9180073, "tags": {"amenity": "pharmacy", "check_date:opening_hours": "2025-02-01", "dispensing": "yes", "drive_through": "no", "healthcare": "pharmacy", "name": "S\u0142oneczna", "official_name": "Apteka S\u0142oneczna", "opening_hours": "Mo-Fr 07:00-21:00; Sa-Su 08:00-21:00", "operator": "Apteka S\u0142oneczna", "phone": "+48 12 421 64 81", "ref:csioz": "1035919", "website": "http://www.apteka-sloneczna.pl/krakow/"}}, {"type": "node", "id": 4442413529, "lat": 50.0645436, "lon": 19.9502251, "tags": {"amenity": "pharmacy", "dispensing": "yes", "healthcare": "pharmacy", "name": "Hygieia", "opening_hours": "Mo-Fr 07:00-21:00, Sa 08:00-18:00", "ref:csioz": "1035713", "wheelchair": "no"}}, {"type": "node", "id": 4516329793, "lat": 50.0742443, "lon": 20.046301, "tags": {"amenity": "pharmacy", "brand": "Zdrowie", "check_date": "2025-03-13", "check_date:opening_hours": "2025-03-13", "dispensing": "yes", "healthcare": "pharmacy", "name": "Zdrowie", "opening_hours": "Mo-Sa 08:00-21:00; Su 10:00-18:00", "ref:csioz": "1038219", "wheelchair": "yes"}}, {"type": "node", "id": 4519799011, "lat": 50.0646212, "lon": 19.8798517, "tags": {"amenity": "pharmacy", "dispensing": "yes", "name": "Ziko Apteka", "ref:csioz": "1230827"}}, {"type": "node", "id": 4538116267, "lat": 50.0111944, "lon": 19.9752516, "tags": {"amenity": "pharmacy", "check_date:opening_hours": "2021-05-24", "contact:phone": "+48 12 345 06 05", "dispensing": "yes", "name": "Orchis", "official_name": "Apteka Orchis", "opening_hours": "Mo-Fr 08:00-22:00; Sa 08:00-17:00; Su 09:00-19:00", "operator": "Orchis", "ref:csioz": "1119021", "source": "survey", "website": "https://aptekaorchis.com/"}}, {"type": "node", "id": 4548546255, "lat": 50.0195022, "lon": 19.927394, "tags": {"amenity": "pharmacy", "dispensing": "yes", "name": "DOZ Apteka dbam o zdrowie", "official_name": "Doz Apteka. Dbam O Zdrowie. Vita", "opening_hours": "Mo-Fr 08:00-21:00; Sa 08:00-20:00", "ref:csioz": "1122686"}}, {"type": "node", "id": 4728249345, "lat": 50.0533719, "lon": 19.9488881, "tags": {"addr:city": "Krak\u00f3w-\u015ar\u00f3dmie\u015bcie", "addr:housenumber": "54", "addr:postcode": "31-032", "addr:street": "Starowi\u015blna", "amenity": "pharmacy", "brand": "Ziko Apteka", "brand:wikidata": "Q63432892", "dispensing": "yes", "healthcare": "pharmacy", "name": "Ziko Apteka", "opening_hours": "Mo-Fr 08:00-21:00, Sa 08:00-16:00", "payment:cash": "yes", "payment:coins": "yes", "payment:mastercard": "yes", "payment:visa": "yes", "phone": "+48 12 687 57 47", "ref:csioz": "1209874", "short_name": "Ziko", "website": "https://www.ziko.pl/krakow-apteki-drogerie-ziko/starowislna-54/"}}, {"type": "node", "id": 4800890423, "lat": 50.0859955, "lon": 20.0175363, "tags": {"amenity": "pharmacy", "brand": "Apteka S\u0142oneczna", "check_date:opening_hours": "2024-09-22", "dispensing": "yes", "healthcare": "pharmacy", "name": "Apteka S\u0142oneczna", "opening_hours": "Mo-Fr 07:00-21:00; PH off, Sa,Su 08:00-21:00", "ref:csioz": "1036159"}}, {"type": "node", "id": 4802462714, "lat": 49.9938367, "lon": 19.9453739, "tags": {"amenity": "pharmacy", "dispensing": "yes", "drive_through": "no", "level": "0", "name": "Apteka Rumianek", "official_name": "Doz Apteka. Dbam O Zdrowie. Rumianek", "opening_hours": "Mo-Fr 07:30-21:00; Sa 07:30-18:00; Su off", "ref:csioz": "1213393"}}, {"type": "node", "id": 4866671551, "lat": 50.0738112, "lon": 19.9347638, "tags": {"amenity": "pharmacy", "brand": "Ziko Apteka", "brand:wikidata": "Q63432892", "check_date:opening_hours": "2023-06-28", "dispensing": "yes", "healthcare": "pharmacy", "name": "Ziko Apteka", "opening_hours": "Mo-Fr 07:00-21:00; Sa 07:00-15:00", "payment:cash": "yes", "payment:coins": "yes", "payment:mastercard": "yes", "payment:visa": "yes", "phone": "+48 12 687 57 47", "ref:csioz": "1111001", "short_name": "Ziko", "trash_accepted:medicines": "no", "website": "https://www.ziko.pl/krakow-apteki-drogerie-ziko/slowackiego-62/"}}, {"type": "node", "id": 4872347322, "lat": 50.0947553, "lon": 20.0011154, "tags": {"addr:city": "Krak\u00f3w", "addr:country": "PL", "addr:housenumber": "19", "addr:place": "Osiedle Z\u0142otego Wieku", "addr:postcode": "31-616", "amenity": "pharmacy", "brand": "Apteka Gemini", "check_date": "2025-01-08", "dispensing": "yes", "healthcare": "pharmacy", "name": "Apteka Gemini", "ref:csioz": "1042048"}}, {"type": "node", "id": 4895177015, "lat": 50.0122617, "lon": 19.9998234, "tags": {"amenity": "pharmacy", "dispensing": "yes", "name": "Centrum", "official_name": "Apteka Lek\u00f3w Gotowych Centrum", "opening_hours": "Mo-Su 09:00-17:00", "ref:csioz": "1075772"}}, {"type": "node", "id": 4958777184, "lat": 50.060282, "lon": 19.9666577, "tags": {"amenity": "pharmacy", "check_date:opening_hours": "2023-06-27", "dispensing": "yes", "healthcare": "pharmacy", "name": "Niezapominajka", "official_name": "Niezapominajka Dla Ca\u0142ej Rodziny", "opening_hours": "Mo-Fr 08:00-20:00; Sa 08:00-16:00", "ref:csioz": "1035981"}}, {"type": "node", "id": 4962339121, "lat": 50.0129251, "lon": 19.9718418, "tags": {"amenity": "pharmacy", "dispensing": "yes", "name": "Hygieia", "opening_hours": "Mo-Fr 07:00-21:00; Sa 07:00-18:00", "ref:csioz": "1056433"}}, {"type": "node", "id": 4997976023, "lat": 50.068419, "lon": 20.0449567, "tags": {"amenity": "pharmacy", "dispensing": "yes", "name": "Twoje zdrowie", "opening_hours": "Mo-Fr 07:30-20:00; Sa,Su 08:00-15:00", "ref:csioz": "1113266", "wheelchair": "no"}}, {"type": "node", "id": 5014007463, "lat": 50.07979, "lon": 20.0032608, "tags": {"amenity": "pharmacy", "check_date:opening_hours": "2023-06-19", "dispensing": "yes", "name": "Apteka Hygieia", "official_name": "Hygieia", "opening_hours": "Mo-Fr 07:00-21:00; Sa 07:00-18:00", "ref:csioz": "1218415", "wheelchair": "yes"}}, {"type": "node", "id": 5054999457, "lat": 50.0750942, "lon": 19.9330322, "tags": {"addr:city": "Krak\u00f3w", "addr:housenumber": "8/6u", "addr:postcode": "30-006", "addr:street": "Wroc\u0142awska", "amenity": "pharmacy", "dispensing": "yes", "name": "Hygieia", "opening_hours": "Mo-Fr 07:00-21:00, Sa 07:00-18:00", "ref:csioz": "1218722", "wheelchair": "yes"}}, {"type": "node", "id": 5054999459, "lat": 50.074999, "lon": 19.9335555, "tags": {"addr:city": "Krak\u00f3w", "addr:country": "PL", "addr:housenumber": "8", "addr:postcode": "30-006", "addr:street": "Wroc\u0142awska", "amenity": "pharmacy", "dispensing": "yes", "healthcare": "pharmacy", "name": "Pod Li\u015bciem Mi\u0119ty", "opening_hours": "Mo-Fr 08:00-20:00; Sa 09:00-17:00; Su 10:00-16:00", "ref:csioz": "1035425", "wheelchair": "limited"}}, {"type": "node", "id": 5059128075, "lat": 50.0741437, "lon": 19.9355582, "tags": {"amenity": "pharmacy", "check_date:opening_hours": "2023-06-28", "dispensing": "yes", "healthcare": "pharmacy", "name": "Niezapominajka", "opening_hours": "Mo-Fr 07:00-20:00; Sa 07:00-16:00", "ref:csioz": "1038788", "wheelchair": "yes"}}, {"type": "node", "id": 5126519924, "lat": 50.0153614, "lon": 19.8088564, "tags": {"amenity": "pharmacy", "dispensing": "yes", "name": "Apteka w Ty\u0144cu", "official_name": "Apteka W Ty\u0144cu W Malwach", "ref:csioz": "1075019"}}, {"type": "node", "id": 5131415393, "lat": 50.0589445, "lon": 19.9761638, "tags": {"amenity": "pharmacy", "dispensing": "yes", "ref:csioz": "1034942"}}, {"type": "node", "id": 5160940144, "lat": 50.0151218, "lon": 20.0412618, "tags": {"addr:city": "Krak\u00f3w", "addr:housenumber": "42A", "addr:postcode": "30-898", "addr:street": "Ksi\u0119dza Jerzego Popie\u0142uszki", "amenity": "pharmacy", "dispensing": "yes", "drive_through": "no", "healthcare": "pharmacy", "name": "Apteka Pod Gwiazd\u0105", "ref:csioz": "1209424"}}, {"type": "node", "id": 5168273121, "lat": 50.0775707, "lon": 19.9017941, "tags": {"amenity": "pharmacy", "check_date:opening_hours": "2025-04-19", "dispensing": "yes", "email": "apteka.wiosenna@onet.eu", "name": "Apteka Wiosenna", "opening_hours": "Mo-Fr 08:00-20:00; Sa 08:00-14:00", "phone": "+48 12 638 14 45", "ref:csioz": "1208875", "website": "https://aptekawiosenna.pl/"}}, {"type": "node", "id": 5168273221, "lat": 50.045925, "lon": 19.9276821, "tags": {"amenity": "pharmacy", "dispensing": "yes", "name": "Apteka Mieszcza\u0144ska", "official_name": "Apteka Mieszcza\u0144ska- Mgr Farm. Andrzej Snopkowski I Wsp\u00f3lnicy Sp\u00f3lka Jawna", "opening_hours": "Mo-Fr 08:00-20:00; Sa 08:00-15:00", "phone": "+48 12 266 41 40", "ref:csioz": "1056530"}}, {"type": "node", "id": 5231262322, "lat": 50.0408177, "lon": 19.9425721, "tags": {"amenity": "pharmacy", "dispensing": "yes", "healthcare": "pharmacy", "name": "Apteka Hygieia", "official_name": "Hygieia", "opening_hours": "Mo-Sa 07:00-22:00; Su 10:00-22:00", "ref:csioz": "1038631"}}, {"type": "node", "id": 5269482824, "lat": 50.0590283, "lon": 19.9487566, "tags": {"addr:city": "Krak\u00f3w", "addr:housenumber": "4", "addr:postcode": "31-530", "addr:street": "Grzeg\u00f3rzecka", "amenity": "pharmacy", "brand": "Ziko Apteka", "brand:wikidata": "Q63432892", "dispensing": "yes", "healthcare": "pharmacy", "name": "Ziko Apteka", "opening_hours": "Mo-Fr 08:00-20:00, Sa 08:00-16:00", "payment:cash": "yes", "payment:coins": "yes", "payment:mastercard": "yes", "payment:notes": "yes", "payment:visa": "yes", "phone": "+48 12 687 57 47", "ref:csioz": "1221596", "short_name": "Ziko", "website": "https://www.ziko.pl/krakow-apteki-drogerie-ziko/grzegorzecka-4/", "wheelchair": "no"}}, {"type": "node", "id": 5269482825, "lat": 50.0591197, "lon": 19.9494778, "tags": {"addr:city": "Krak\u00f3w", "addr:housenumber": "8", "addr:postcode": "31-530", "addr:street": "Grzeg\u00f3rzecka", "amenity": "pharmacy", "brand": "Dbam o Zdrowie", "brand:wikidata": "Q62563833", "dispensing": "yes", "healthcare": "pharmacy", "name": "Dbam o Zdrowie", "official_name": "Apteka Dbam O Zdrowie", "opening_hours": "Sa 08:00-14:00;Mo-Fr 08:00-18:00", "ref:csioz": "1075738", "short_name": "DOZ"}}, {"type": "node", "id": 5350017517, "lat": 50.0167786, "lon": 20.0103847, "tags": {"amenity": "pharmacy", "check_date:opening_hours": "2024-04-17", "dispensing": "yes", "name": "Niezapominajka", "official_name": "Niezapominajka Dla Ca\u0142ej Rodziny", "opening_hours": "Mo-Fr 08:00-20:00; Sa 07:30-16:00", "ref:csioz": "1230821"}}, {"type": "node", "id": 5369511655, "lat": 50.0867836, "lon": 19.9263643, "tags": {"amenity": "pharmacy", "dispensing": "yes", "name": "Hygieia", "ref:csioz": "1035745"}}, {"type": "node", "id": 5369519167, "lat": 50.0866999, "lon": 19.9269408, "tags": {"amenity": "pharmacy", "dispensing": "yes", "name": "S\u0142oneczna", "official_name": "Apteka S\u0142oneczna", "opening_hours": "Mo-Fr 07:00-21:00; Sa 08:00-21:00; PH,Su 08:00-21:00", "ref:csioz": "1075894"}}, {"type": "node", "id": 5402579547, "lat": 50.0148979, "lon": 20.019411, "tags": {"addr:city": "Krak\u00f3w", "addr:housenumber": "3B", "addr:postcode": "30-837", "addr:street": "Aleksandry", "amenity": "pharmacy", "dispensing": "yes", "name": "S\u0142oneczna", "official_name": "Apteka S\u0142oneczna", "opening_hours": "Mo-Sa 07:00-21:00; Su,PH 08:00-21:00", "ref:csioz": "1035829", "wheelchair": "limited"}}, {"type": "node", "id": 5431977649, "lat": 50.0848159, "lon": 20.0136376, "tags": {"amenity": "pharmacy", "dispensing": "yes", "healthcare": "pharmacy", "name": "Hygieia", "official_name": "Hygieia Centrum Tanich Lek\u00f3w", "opening_hours": "Mo-Fr 07:00-21:00; Sa 07:00-18:00", "ref:csioz": "1113805"}}, {"type": "node", "id": 5448195423, "lat": 50.0888901, "lon": 19.9488161, "tags": {"amenity": "pharmacy", "brand": "Ziko Apteka", "brand:wikidata": "Q63432892", "dispensing": "yes", "healthcare": "pharmacy", "name": "Ziko Apteka", "opening_hours": "Mo-Fr 07:00-20:00, Sa 08:00-20:00, Su 10:00-20:00 \"tylko niedziele handlowe\"", "payment:cash": "yes", "payment:coins": "yes", "payment:mastercard": "yes", "payment:visa": "yes", "phone": "+48 12 687 57 47", "ref:csioz": "1225180", "short_name": "Ziko", "website": "https://www.ziko.pl/krakow-apteki-drogerie-ziko/Grazyny-4/", "wheelchair": "yes"}}, {"type": "node", "id": 5448195522, "lat": 50.0845983, "lon": 19.9449508, "tags": {"amenity": "pharmacy", "dispensing": "yes", "name": "Hygieia", "opening_hours": "Mo-Fr 07:00-21:00; Sa 07:00-18:00", "ref:csioz": "1035737"}}, {"type": "node", "id": 5508892692, "lat": 50.0609392, "lon": 19.9481066, "tags": {"amenity": "pharmacy", "dispensing": "yes", "healthcare": "pharmacy", "name": "Sumifarm", "note": "Apteka czasowo zamkni\u0119ta, aktualny stan mo\u017cna sprawdzi\u0107, wyszukuj\u0105c identyfikator z ref:csioz w rejestrze CSIOZ, dost\u0119pnym pod adresem https://rejestrymedyczne.ezdrowie.gov.pl/api/filegenerator/getcsv", "opening_hours": "Mo-Fr 08:00-19:00;Sa 08:00-15:00", "ref:csioz": "1076832", "wheelchair": "yes"}}, {"type": "node", "id": 5530509421, "lat": 50.0630003, "lon": 19.9608311, "tags": {"amenity": "pharmacy", "brand": "Ziko Apteka", "brand:wikidata": "Q63432892", "dispensing": "yes", "drive_through": "no", "healthcare": "pharmacy", "name": "Ziko Apteka", "opening_hours": "Mo-Fr 07:00-20:00; Sa 08:00-16:00", "payment:cash": "yes", "payment:coins": "yes", "payment:mastercard": "yes", "payment:visa": "yes", "phone": "+48 12 687 57 47", "ref:csioz": "1217839", "short_name": "Ziko", "website": "https://www.ziko.pl/krakow-apteki-drogerie-ziko/powstania-warszawskiego-12/"}}, {"type": "node", "id": 5597322330, "lat": 50.0833211, "lon": 19.9529096, "tags": {"addr:city": "Krak\u00f3w", "addr:housenumber": "65", "addr:postcode": "31-425", "addr:street": "Aleja 29 Listopada", "amenity": "pharmacy", "branch": "Dermo", "brand": "Ziko Apteka", "brand:wikidata": "Q63432892", "check_date:opening_hours": "2024-08-27", "dispensing": "yes", "healthcare": "pharmacy", "name": "Ziko Apteka", "opening_hours": "Mo-Fr 08:00-21:00, Sa 08:00-16:00", "payment:cash": "yes", "payment:coins": "yes", "payment:credit_cards": "yes", "payment:debit_cards": "yes", "payment:mastercard": "yes", "payment:visa": "yes", "phone": "+48 12 687 57 47", "shop": "chemist", "short_name": "Ziko", "website": "https://www.ziko.pl/krakow-drogerie-ziko/29-listopada-65/", "wheelchair": "yes"}}, {"type": "node", "id": 5620547878, "lat": 50.0146221, "lon": 20.0218894, "tags": {"amenity": "pharmacy", "dispensing": "yes", "email": "krakow.cwiklinskiej14@drmax.com.pl", "name": "Dr.Max", "opening_hours": "Mo-Sa 08:00-21:00; Su 09:00-19:00", "phone": "+48 12 653 42 02", "ref:csioz": "1212123"}}, {"type": "node", "id": 5635042825, "lat": 50.00587, "lon": 19.9045637, "tags": {"amenity": "pharmacy", "check_date:opening_hours": "2021-09-01", "dispensing": "yes", "name": "Fantazja", "official_name": "Apteka Fantazja", "opening_hours": "Mo-Fr 08:00-21:00; Sa 08:00-20:00", "ref:csioz": "1214102", "wheelchair": "yes"}}, {"type": "node", "id": 5752384688, "lat": 50.0886048, "lon": 19.964818, "tags": {"amenity": "pharmacy", "dispensing": "yes", "email": "apteka@hygieia.pl", "name": "Apteka Hygieia", "official_name": "Hygieia", "opening_hours": "Mo-Sa 07:00-21:00; Su 08:00-21:00", "phone": "+48 12 412 38 88", "ref:csioz": "1035700", "website": "https://apteka.hygieia.pl/"}}, {"type": "node", "id": 5781016759, "lat": 50.0747572, "lon": 19.9188848, "tags": {"amenity": "pharmacy", "brand": "S\u0142oneczna", "check_date": "2024-10-06", "dispensing": "yes", "healthcare": "pharmacy", "name": "S\u0142oneczna", "opening_hours": "Mo-Fr 07:00-21:00; Sa 08:00-15:00", "ref:csioz": "1183451", "trash_accepted:medicines": "yes"}}, {"type": "node", "id": 5838978394, "lat": 50.0458262, "lon": 19.9299831, "tags": {"amenity": "pharmacy", "brand": "Dbam o Zdrowie", "brand:wikidata": "Q62563833", "check_date:opening_hours": "2021-08-26", "dispensing": "yes", "healthcare": "pharmacy", "name": "Dbam o Zdrowie", "official_name": "Doz Apteka. Dbam O Zdrowie", "opening_hours": "Mo-Fr 08:00-21:00; Sa 08:00-16:00", "ref:csioz": "1219155", "short_name": "DOZ", "wheelchair": "yes"}}, {"type": "node", "id": 5902697014, "lat": 50.0149834, "lon": 20.0086905, "tags": {"amenity": "pharmacy", "dispensing": "yes", "healthcare": "pharmacy", "name": "Hygieia", "ref:csioz": "1035699"}}, {"type": "node", "id": 6031503334, "lat": 50.074697, "lon": 20.033232, "tags": {"amenity": "pharmacy", "brand": "Gemini", "brand:wikidata": "Q130243797", "check_date:opening_hours": "2024-10-14", "dispensing": "yes", "healthcare": "pharmacy", "name": "Gemini", "opening_hours": "Mo-Fr 07:00-21:00; Sa 08:00-16:00", "phone": "+48 737165611", "ref:csioz": "1042530", "wheelchair": "yes"}}, {"type": "node", "id": 6156251174, "lat": 50.069517, "lon": 19.9263196, "tags": {"addr:city": "Krak\u00f3w", "addr:country": "PL", "addr:housenumber": "8", "addr:postcode": "30-033", "addr:street": "Plac Inwalid\u00f3w", "amenity": "pharmacy", "check_date:opening_hours": "2024-09-13", "dispensing": "yes", "healthcare": "pharmacy", "name": "Niezapominajka", "official_name": "Niezapominajka Dla Ca\u0142ej Rodziny", "opening_hours": "Mo-Fr 07:00-20:00; Sa 08:00-18:00", "ref:csioz": "1228917", "wheelchair": "yes"}}, {"type": "node", "id": 6158774585, "lat": 50.0842537, "lon": 19.9638804, "tags": {"amenity": "pharmacy", "brand": "Dbam o Zdrowie", "brand:wikidata": "Q62563833", "dispensing": "yes", "healthcare": "pharmacy", "name": "Dbam o Zdrowie", "official_name": "Apteka Dbam O Zdrowie", "opening_hours": "Mo-Fr 08:00-20:00; Sa 08:00-15:00", "ref:csioz": "1038365", "short_name": "DOZ", "website": "https://www.doz.pl/"}}, {"type": "node", "id": 6183896285, "lat": 50.0780579, "lon": 19.923851, "tags": {"addr:city": "Krak\u00f3w", "addr:country": "PL", "addr:housenumber": "48", "addr:postcode": "30-011", "addr:street": "Wroc\u0142awska", "amenity": "pharmacy", "check_date:opening_hours": "2022-11-19", "dispensing": "yes", "level": "0", "name": "Hygieia", "official_name": "Hygieia Centrum Tanich Lek\u00f3w", "opening_hours": "Mo-Fr 07:00-21:00; Sa 07:00-18:00", "ref:csioz": "1113290", "trash_accepted:medicines": "yes", "wheelchair": "yes"}}, {"type": "node", "id": 6221711486, "lat": 50.0116804, "lon": 19.8866422, "tags": {"addr:city": "Krak\u00f3w", "addr:housenumber": "33", "addr:postcode": "30-392", "addr:street": "Czerwone Maki", "amenity": "pharmacy", "brand": "Ziko Apteka", "brand:wikidata": "Q63432892", "dispensing": "yes", "healthcare": "pharmacy", "level": "0", "name": "Ziko Apteka", "opening_hours": "Mo-Fr 08:00-21:00, Sa 08:00-20:00, Su 10:00-20:00", "payment:cash": "yes", "payment:coins": "yes", "payment:mastercard": "yes", "payment:visa": "yes", "phone": "+48 12 687 57 47", "ref:csioz": "1228860", "short_name": "Ziko", "website": "https://www.ziko.pl/krakow-apteki-drogerie-ziko/Czerwone-Maki-33/", "wheelchair": "yes"}}, {"type": "node", "id": 6229623774, "lat": 50.0159303, "lon": 19.9510527, "tags": {"amenity": "pharmacy", "check_date:opening_hours": "2024-11-13", "dispensing": "yes", "name": "Ziko", "opening_hours": "Mo-Fr 08:00-22:00, Sa 08:00-17:00, Su 09:00-16:00", "payment:cash": "yes", "payment:coins": "yes", "payment:mastercard": "yes", "payment:visa": "yes", "phone": "+48 12 687 57 47", "ref:csioz": "1035560", "website": "https://www.ziko.pl/krakow-apteki-drogerie-ziko/beskidzka-30/"}}, {"type": "node", "id": 6375601637, "lat": 50.0834275, "lon": 19.9346513, "tags": {"amenity": "pharmacy", "dispensing": "yes", "name": "Ziko Apteka", "official_name": "Ziko", "opening_hours": "Mo-Fr 08:00-21:00, Sa 08:00-16:00", "payment:cash": "yes", "payment:coins": "yes", "payment:mastercard": "yes", "payment:visa": "yes", "phone": "+48 12 687 57 47", "ref:csioz": "1035583", "website": "https://www.ziko.pl/krakow-apteki-drogerie-ziko/bratyslawska-2/"}}, {"type": "node", "id": 6375677557, "lat": 50.0723999, "lon": 19.918432, "tags": {"addr:city": "Krak\u00f3w", "addr:housenumber": "47", "addr:street": "Kr\u00f3lewska", "amenity": "pharmacy", "brand": "Ziko Apteka", "brand:wikidata": "Q63432892", "check_date": "2022-11-14", "dispensing": "yes", "healthcare": "pharmacy", "internet_access": "no", "name": "Ziko Apteka", "opening_hours": "Mo-Fr 08:00-22:00; Sa 08:00-16:00", "payment:cash": "yes", "payment:coins": "yes", "payment:mastercard": "yes", "payment:visa": "yes", "phone": "+48 12 687 57 47", "ref:csioz": "1184336", "short_name": "Ziko", "website": "https://www.ziko.pl/krakow-apteki-drogerie-ziko/krolewska-47/"}}, {"type": "node", "id": 6375756700, "lat": 50.0723863, "lon": 19.9184985, "tags": {"addr:city": "Krak\u00f3w", "addr:housenumber": "47", "addr:postcode": "30-040", "addr:street": "Kr\u00f3lewska", "amenity": "pharmacy", "branch": "Dermo", "brand": "Ziko Apteka", "brand:wikidata": "Q63432892", "check_date": "2022-11-14", "check_date:opening_hours": "2023-12-19", "description": "Ziko Dermo zlokalizowana jest w Krakowie przy ulicy Kr\u00f3lewskiej 47. Czynna jest przez 6 dni w tygodniu \u2013 od poniedzia\u0142ku do soboty. W niedziele plac\u00f3wka jest nieczynna.", "dispensing": "yes", "healthcare": "pharmacy", "internet_access": "no", "name": "Ziko Apteka", "opening_hours": "Mo-Fr 08:00-22:00; Sa 08:00-16:00", "payment:cash": "yes", "payment:coins": "yes", "payment:credit_cards": "yes", "payment:debit_cards": "yes", "payment:mastercard": "yes", "payment:visa": "yes", "phone": "+48 12 687 57 47", "shop": "chemist", "short_name": "Ziko", "website": "https://www.ziko.pl/krakow-drogerie-ziko/krolewska-47/"}}, {"type": "node", "id": 6375904177, "lat": 50.0844307, "lon": 20.0279149, "tags": {"amenity": "pharmacy", "brand": "Ziko Apteka", "brand:wikidata": "Q63432892", "dispensing": "yes", "healthcare": "pharmacy", "name": "Ziko Apteka", "opening_hours": "Mo-Fr 08:00-20:00; Sa 08:00-16:00", "payment:cash": "yes", "payment:coins": "yes", "payment:mastercard": "yes", "payment:visa": "yes", "phone": "+48 12 687 57 47", "ref:csioz": "1034564", "short_name": "Ziko", "website": "https://www.ziko.pl/krakow-apteki-drogerie-ziko/jagiellonskie-19/"}}, {"type": "node", "id": 6376151445, "lat": 50.0124223, "lon": 19.964814, "tags": {"amenity": "pharmacy", "brand": "Ziko Apteka", "brand:wikidata": "Q63432892", "check_date:opening_hours": "2025-05-28", "dispensing": "yes", "healthcare": "pharmacy", "name": "Ziko Apteka", "opening_hours": "Mo-Fr 08:00-21:00, Sa 08:00-16:00", "payment:cash": "yes", "payment:coins": "yes", "payment:mastercard": "yes", "payment:visa": "yes", "ref:csioz": "1216646", "short_name": "Ziko", "website": "https://www.ziko.pl/krakow-apteki-drogerie-ziko/kordiana-34a/"}}, {"type": "node", "id": 6376192130, "lat": 50.0888607, "lon": 19.9304429, "tags": {"addr:city": "Krak\u00f3w", "addr:housenumber": "8", "addr:postcode": "31-272", "addr:street": "Krowoderskich Zuch\u00f3w", "amenity": "pharmacy", "dispensing": "yes", "healthcare": "pharmacy", "name": "Ziko Apteka", "opening_hours": "Mo-Fr 08:00-21:00, Sa 08:00-16:00", "payment:cash": "yes", "payment:coins": "yes", "payment:mastercard": "yes", "payment:visa": "yes", "ref:csioz": "1216638", "website": "https://www.ziko.pl/krakow-apteki-drogerie-ziko/krowoderskich-zuchow-8/"}}, {"type": "node", "id": 6376220787, "lat": 50.0117224, "lon": 19.9268545, "tags": {"addr:city": "Krak\u00f3w", "addr:housenumber": "1", "addr:postcode": "30-437", "addr:street": "Orzechowa", "amenity": "pharmacy", "dispensing": "yes", "name": "Ziko Apteka", "opening_hours": "Mo-Fr 07:00-21:00, Sa 08:00-15:00", "payment:cash": "yes", "payment:coins": "yes", "payment:mastercard": "yes", "payment:visa": "yes", "phone": "+48 12 687 57 47", "ref:csioz": "1034656", "website": "https://www.ziko.pl/krakow-apteki-drogerie-ziko/orzechowa-1/"}}, {"type": "node", "id": 6376232584, "lat": 50.083286, "lon": 19.9528754, "tags": {"amenity": "pharmacy", "brand": "Ziko Apteka", "brand:wikidata": "Q63432892", "dispensing": "yes", "healthcare": "pharmacy", "name": "Ziko Apteka", "opening_hours": "Mo-Fr 08:00-21:00, Sa 08:00-16:00", "payment:cash": "yes", "payment:coins": "yes", "payment:mastercard": "yes", "payment:visa": "yes", "phone": "+48 12 687 57 47", "ref:csioz": "1211296", "short_name": "Ziko", "website": "https://www.ziko.pl/krakow-apteki-drogerie-ziko/29-listopada-65/", "wheelchair": "yes"}}, {"type": "node", "id": 6438770586, "lat": 50.0817427, "lon": 20.0253004, "tags": {"amenity": "pharmacy", "brand": "Niezapominajka", "check_date": "2024-05-08", "contact:email": "przyarce.krakow@apteka-niezapominajka.pl", "contact:website": "https://apteka-niezapominajka.pl", "dispensing": "yes", "name": "Apteka Niezapominajka", "opening_hours": "Mo-Fr 08:00-20:00, Sa 08:00-16:00, PH off", "ref:csioz": "1075231"}}, {"type": "node", "id": 6439140787, "lat": 50.0830142, "lon": 20.0316505, "tags": {"addr:city": "Krak\u00f3w", "addr:housenumber": "11", "addr:place": "Bie\u0144czycki Plac Targowy", "addr:postcode": "31-831", "amenity": "pharmacy", "brand": "Niezapominajka", "contact:email": "placbienczycki.krakow@apteka-niezapominajka.pl", "dispensing": "yes", "healthcare": "pharmacy", "name": "Niezapominajka", "official_name": "Niezapominajka Dla Ca\u0142ej Rodziny", "opening_hours": "Mo-Fr 07:00-20:00, Sa 07:00-16:00, PH off", "ref:csioz": "1226245"}}, {"type": "node", "id": 6507310616, "lat": 50.0158411, "lon": 20.0042401, "tags": {"amenity": "pharmacy", "check_date:opening_hours": "2024-11-10", "dispensing": "yes", "healthcare": "pharmacy", "name": "Gemini", "official_name": "Apteka Zdrowie", "opening_hours": "Mo-Fr 07:00-20:00; Sa 08:00-16:00", "ref:csioz": "1076430"}}, {"type": "node", "id": 6537146940, "lat": 50.0157906, "lon": 20.0379477}, {"type": "node", "id": 6568693009, "lat": 50.0138911, "lon": 19.9958946, "tags": {"addr:city": "Krak\u00f3w", "addr:housenumber": "259", "addr:postcode": "30-663", "addr:street": "Wielicka", "amenity": "pharmacy", "brand": "Dr. Max", "brand:wikidata": "Q56317371", "brand:wikipedia": "fr:Dr.Max", "dispensing": "yes", "healthcare": "pharmacy", "name": "Dr. Max", "opening_hours": "Mo-Fr 08:00-22:00", "ref:csioz": "1038126"}}, {"type": "node", "id": 6632953786, "lat": 50.0764153, "lon": 20.0172463}, {"type": "node", "id": 6632953787, "lat": 50.0764231, "lon": 20.0172032}, {"type": "node", "id": 6636942889, "lat": 50.040327, "lon": 19.999677, "tags": {"addr:city": "Krak\u00f3w", "addr:housenumber": "49", "addr:postcode": "30-721", "addr:street": "Lipska", "amenity": "pharmacy", "dispensing": "yes", "email": "apteka.lipska@hygieia.pl", "healthcare": "pharmacy", "name": "Apteka Hygieia", "official_name": "Hygieia", "opening_hours": "Mo-Fr 07:00-21:00; Sa 07:00-20:00; PH,Su off", "phone": "+48 12 296 79 29", "ref:csioz": "1075871"}}, {"type": "node", "id": 6665995879, "lat": 50.0755316, "lon": 19.9269315, "tags": {"amenity": "pharmacy", "check_date:opening_hours": "2023-08-01", "dispensing": "yes", "name": "J&P Machalscy", "opening_hours": "Mo-Fr 08:00-20:00; Sa 08:00-14:00; PH closed", "ref:csioz": "1035287", "trash_accepted:medicines": "no", "wheelchair": "yes"}}, {"type": "node", "id": 6695758115, "lat": 50.0142125, "lon": 19.9280651, "tags": {"amenity": "pharmacy", "dispensing": "yes", "name": "Euro Apteka", "opening_hours": "Mo-Fr 11:00-19:00", "ref:csioz": "1038281"}}, {"type": "node", "id": 6791986185, "lat": 50.0830079, "lon": 19.9374351, "tags": {"amenity": "pharmacy", "dispensing": "yes", "email": "apteka.pradnicka@hygieia.pl", "name": "Hygieia", "opening_hours": "Mo-Fr 07:00-21:00; Sa 08:00-16:00", "phone": "+48 12 384 85 90", "ref:csioz": "1218711", "website": "https://apteka.hygieia.pl/", "wheelchair": "yes"}}, {"type": "node", "id": 7157205259, "lat": 50.0680531, "lon": 19.9458875}, {"type": "node", "id": 7157205263, "lat": 50.0680554, "lon": 19.946011}, {"type": "node", "id": 7157205275, "lat": 50.0681641, "lon": 19.9458823}, {"type": "node", "id": 7157205276, "lat": 50.0681656, "lon": 19.9459565}, {"type": "node", "id": 7157205277, "lat": 50.0682049, "lon": 19.9459547}, {"type": "node", "id": 7157205278, "lat": 50.0682059, "lon": 19.9460041}, {"type": "node", "id": 7157205280, "lat": 50.068148, "lon": 19.9460067}, {"type": "node", "id": 7157205282, "lat": 50.0681022, "lon": 19.9460089}, {"type": "node", "id": 7157205727, "lat": 50.0672808, "lon": 19.9465604}, {"type": "node", "id": 7157205730, "lat": 50.067225, "lon": 19.9467116}, {"type": "node", "id": 7157205731, "lat": 50.0672226, "lon": 19.946567}, {"type": "node", "id": 7157205732, "lat": 50.0672161, "lon": 19.9465673}, {"type": "node", "id": 7157205733, "lat": 50.0672117, "lon": 19.9463117}, {"type": "node", "id": 7157205734, "lat": 50.0672765, "lon": 19.946309}, {"type": "node", "id": 7157205735, "lat": 50.0672833, "lon": 19.9467091}, {"type": "node", "id": 7220586792, "lat": 50.0794807, "lon": 20.0374413, "tags": {"amenity": "pharmacy", "brand": "S\u0142oneczna", "check_date": "2024-10-06", "dispensing": "yes", "healthcare": "pharmacy", "name": "S\u0142oneczna", "opening_hours": "Mo-Fr 07:00-21:00, Sa 08:00-15:00", "ref:csioz": "1035893", "wheelchair": "yes"}}, {"type": "node", "id": 7966016385, "lat": 50.0770361, "lon": 20.0377522, "tags": {"amenity": "pharmacy", "brand": "Gemini", "brand:wikidata": "Q130243797", "dispensing": "yes", "healthcare": "pharmacy", "name": "Gemini", "opening_hours": "Mo-Fr 07:00-21:00; Sa 08:00-17:00", "ref:csioz": "1074621", "trash_accepted:medicines": "yes", "wheelchair": "yes"}}, {"type": "node", "id": 7966024085, "lat": 50.0770188, "lon": 20.0379622, "tags": {"amenity": "pharmacy", "brand": "Ziko Apteka", "brand:wikidata": "Q63432892", "check_date:opening_hours": "2025-03-21", "dispensing": "yes", "healthcare": "pharmacy", "name": "Ziko Apteka", "opening_hours": "Mo-Fr 07:00-20:00; Sa 08:00-16:00", "ref:csioz": "1035547", "short_name": "Ziko", "trash_accepted:medicines": "no"}}, {"type": "node", "id": 8108432119, "lat": 50.0847394, "lon": 20.0210458}, {"type": "node", "id": 8108432120, "lat": 50.0848102, "lon": 20.0211633}, {"type": "node", "id": 8108432123, "lat": 50.0847517, "lon": 20.0212489}, {"type": "node", "id": 8108432124, "lat": 50.0846809, "lon": 20.0211315}, {"type": "node", "id": 8109697284, "lat": 50.082338, "lon": 20.0222032, "tags": {"amenity": "pharmacy", "dispensing": "yes", "name": "Hygieia", "official_name": "Hygieia Centrum Lek\u00f3w", "ref:csioz": "1172008"}}, {"type": "node", "id": 8312884280, "lat": 50.0885917, "lon": 19.9132607, "tags": {"addr:housenumber": "17", "addr:postcode": "31-322", "addr:street": "J\u00f3zefa Mehoffera", "amenity": "pharmacy", "dispensing": "yes", "name": "Apteka S\u0142oneczna", "opening_hours": "Mo-Fr 07:00-21:00, Sa 08:00-15:00", "ref:csioz": "1035924"}}, {"type": "node", "id": 8312884431, "lat": 50.0828388, "lon": 19.914546, "tags": {"amenity": "pharmacy", "dispensing": "yes", "name": "Apteka Hygieia", "opening_hours": "Mo-Fr 07:00-21:00; Sa 08:00-18:00", "ref:csioz": "1035661", "website": "https://www.hygieia.pl/"}}, {"type": "node", "id": 8312884432, "lat": 50.0829742, "lon": 19.9132242, "tags": {"amenity": "pharmacy", "dispensing": "yes", "name": "Apteka S\u0142oneczna", "opening_hours": "Mo-Fr 07:00-19:00", "ref:csioz": "1036228", "website": "http://www.apteka-sloneczna.pl/"}}, {"type": "node", "id": 8314578049, "lat": 50.0907853, "lon": 19.9267791, "tags": {"amenity": "pharmacy", "dispensing": "yes", "name": "Apteka \"S\u0142oneczna\"", "opening_hours": "Mo-Fr 07:00-21:00; Sa 08:00-15:00", "ref:csioz": "1076673", "wheelchair": "yes"}}, {"type": "node", "id": 8314676452, "lat": 50.0861761, "lon": 19.9267167, "tags": {"amenity": "pharmacy", "dispensing": "yes", "name": "Apteka Niezapominajka dla Ca\u0142ej Rodziny", "ref:csioz": "1035279"}}, {"type": "node", "id": 8485230282, "lat": 50.0190542, "lon": 19.9813418, "tags": {"addr:city": "Krak\u00f3w", "addr:housenumber": "3", "addr:postcode": "30-682", "addr:street": "Sp\u00f3\u0142dzielc\u00f3w", "amenity": "pharmacy", "dispensing": "yes", "name": "Gemini", "official_name": "Apteka Gemini", "opening_hours": "Mo-Fr 07:00-20:00; Sa 08:00-16:00", "ref:csioz": "1037093"}}, {"type": "node", "id": 8870263677, "lat": 50.0796355, "lon": 20.0653022, "tags": {"amenity": "pharmacy", "brand": "Apteka S\u0142oneczna", "dispensing": "yes", "healthcare": "pharmacy", "name": "Apteka S\u0142oneczna", "ref:csioz": "1231016"}}, {"type": "node", "id": 9004559841, "lat": 50.0734552, "lon": 19.9301603, "tags": {"amenity": "pharmacy", "dispensing": "yes", "healthcare": "pharmacy", "name": "Mazowiecka", "opening_hours": "Mo-Fr 08:00-20:00; Sa 08:00-14:00", "ref:csioz": "1171857", "trash_accepted:medicines": "yes"}}, {"type": "node", "id": 9021402703, "lat": 50.0950831, "lon": 19.9995998, "tags": {"amenity": "pharmacy", "dispensing": "yes", "healthcare": "pharmacy", "name": "Niezapominajka", "official_name": "Niezapominajka Dla Ca\u0142ej Rodziny", "opening_hours": "Mo-Fr 08:00-20:00; Sa 08:00-16:00; Su closed", "operator": "Niezapominajka", "ref:csioz": "1074922"}}, {"type": "node", "id": 9044149329, "lat": 50.0927524, "lon": 20.0146802, "tags": {"addr:city": "Krak\u00f3w", "addr:country": "PL", "addr:housenumber": "12B", "addr:place": "Osiedle Kalinowe", "addr:postcode": "31-813", "amenity": "pharmacy", "brand": "S\u0142oneczna", "dispensing": "yes", "healthcare": "pharmacy", "name": "S\u0142oneczna", "official_name": "Apteka S\u0142oneczna", "opening_hours": "Mo-Fr 07:00-21:00; Sa 08:00-16:00; Su,PH 09:00-16:00", "ref:csioz": "1035855", "trash_accepted:medicines": "yes", "wheelchair": "yes"}}, {"type": "node", "id": 9164818279, "lat": 50.057521, "lon": 20.008247}, {"type": "node", "id": 9223943562, "lat": 50.0877216, "lon": 19.9275998, "tags": {"amenity": "pharmacy", "dispensing": "yes", "healthcare": "pharmacy", "name": "Adart", "official_name": "Adart Apteka", "opening_hours": "Mo-Fr 08:00-19:00; Sa 08:00-13:00", "ref:csioz": "1076388", "wheelchair": "yes"}}, {"type": "node", "id": 9248004025, "lat": 50.0904637, "lon": 19.9763314, "tags": {"amenity": "pharmacy", "check_date:opening_hours": "2024-10-26", "dispensing": "yes", "healthcare": "pharmacy", "name": "Govita", "opening_hours": "Mo-Fr 08:00-20:00; Sa 08:00-14:00; PH off", "ref:csioz": "1036640"}}, {"type": "node", "id": 9249331001, "lat": 50.0473489, "lon": 19.9003745, "tags": {"addr:city": "Krak\u00f3w", "addr:housenumber": "20", "addr:postcode": "30-206", "addr:street": "Ksi\u0119cia J\u00f3zefa", "amenity": "pharmacy", "brand": "Ziko Apteka", "brand:wikidata": "Q63432892", "dispensing": "yes", "healthcare": "pharmacy", "name": "Ziko Apteka", "opening_hours": "Mo-Sa 08:00-21:00", "ref:csioz": "1231160", "short_name": "Ziko"}}, {"type": "node", "id": 9260366621, "lat": 50.0973701, "lon": 19.9121641, "tags": {"addr:city": "Krak\u00f3w", "addr:housenumber": "136A", "addr:postcode": "31-334", "addr:street": "W\u0142adys\u0142awa \u0141okietka", "amenity": "pharmacy", "dispensing": "yes", "healthcare": "pharmacy", "name": "Apteka Hygieia", "ref:csioz": "1230366"}}, {"type": "node", "id": 9263356312, "lat": 50.0944043, "lon": 19.9278648, "tags": {"amenity": "pharmacy", "dispensing": "yes", "name": "Melissa S.J.", "opening_hours": "Mo-Fr 08:00-20:00; Sa 08:00-15:00", "ref:csioz": "1056549"}}, {"type": "node", "id": 9330848530, "lat": 50.0785523, "lon": 20.0249907, "tags": {"amenity": "pharmacy", "brand": "Dbam o Zdrowie", "brand:wikidata": "Q62563833", "dispensing": "yes", "healthcare": "pharmacy", "name": "Dbam o Zdrowie", "official_name": "Apteka Dbam O Zdrowie", "opening_hours": "Sa 07:00-15:00; Mo-Fr 08:00-18:00", "ref:csioz": "1075723", "short_name": "DOZ", "wheelchair": "yes"}}, {"type": "node", "id": 9587922812, "lat": 50.0143727, "lon": 19.8961255, "tags": {"amenity": "pharmacy", "dispensing": "yes", "name": "Doz Apteka. Dbam O Zdrowie. Vita", "opening_hours": "Mo-Fr 08:00-21:00; Sa 08:00-20:00; Su 10:00-17:00", "ref:csioz": "1222155"}}, {"type": "node", "id": 9587922813, "lat": 50.0183042, "lon": 19.9067923, "tags": {"amenity": "pharmacy", "dispensing": "yes", "name": "Apteka Niezapominajka Dla Ca\u0142ej Rodziny", "ref:csioz": "1194711"}}, {"type": "node", "id": 9587922814, "lat": 50.0087337, "lon": 20.0133899, "tags": {"amenity": "pharmacy", "dispensing": "yes", "name": "S\u0142oneczna", "opening_hours": "Mo-Fr 07:00-21:00; Sa 08:00-15:00", "phone": "+48 12 650 02 55", "ref:csioz": "1074692"}}, {"type": "node", "id": 9587922815, "lat": 50.0075529, "lon": 19.9633337, "tags": {"amenity": "pharmacy", "dispensing": "yes", "name": "Apteka S\u0142oneczna", "opening_hours": "Mo-Fr 07:00-21:00; Sa 08:00-15:00", "ref:csioz": "1042440"}}, {"type": "node", "id": 9587939317, "lat": 50.0942504, "lon": 20.0559018, "tags": {"amenity": "pharmacy", "brand": "Zdrowie", "dispensing": "yes", "healthcare": "pharmacy", "name": "Zdrowie", "official_name": "Apteka Zdrowie", "opening_hours": "Mo-Fr 08:00-20:00; Sa 08:00-14:00", "operator": "Apteka Zdrowie", "ref:csioz": "1038208", "website": "http://www.apteka-zdrowie.eu/"}}, {"type": "node", "id": 9588531264, "lat": 50.0885885, "lon": 19.9946207, "tags": {"amenity": "pharmacy", "brand": "Apteka S\u0142oneczna", "dispensing": "yes", "healthcare": "pharmacy", "name": "Apteka S\u0142oneczna", "ref:csioz": "1034813"}}, {"type": "node", "id": 9588531266, "lat": 50.0058293, "lon": 20.0117122, "tags": {"amenity": "pharmacy", "dispensing": "yes", "name": "Apteka \"Pod Gwiazd\u0105\"", "ref:csioz": "1034532"}}, {"type": "node", "id": 9588531268, "lat": 50.020624, "lon": 19.9761441, "tags": {"amenity": "pharmacy", "dispensing": "yes", "name": "Apteka Antek", "ref:csioz": "1220927"}}, {"type": "node", "id": 9588531269, "lat": 50.0121432, "lon": 19.9267665, "tags": {"addr:city": "Krak\u00f3w-Podg\u00f3rze", "addr:housenumber": "115c", "addr:postcode": "30-418", "addr:street": "Zakopia\u0144ska", "amenity": "pharmacy", "dispensing": "yes", "name": "Niezapominajka", "official_name": "Niezapominajka Dla Ca\u0142ej Rodziny", "ref:csioz": "1209830"}}, {"type": "node", "id": 9588531271, "lat": 50.0024374, "lon": 19.9266202, "tags": {"addr:city": "Krak\u00f3w", "addr:country": "PL", "addr:housenumber": "20A", "addr:postcode": "30-433", "addr:street": "Ciechoci\u0144ska", "amenity": "pharmacy", "dispensing": "yes", "name": "APTEKA", "opening_hours": "Mo-Fr 09:00-22:00; Sa,Su 09:00-19:00", "ref:csioz": "1042127"}}, {"type": "node", "id": 9588531272, "lat": 50.0065643, "lon": 19.8731762, "tags": {"amenity": "pharmacy", "dispensing": "yes", "ref:csioz": "1036723"}}, {"type": "node", "id": 9588531273, "lat": 50.0123163, "lon": 19.9546411, "tags": {"amenity": "pharmacy", "dispensing": "yes", "healthcare": "pharmacy", "name": "Apteka Niezapominajka", "official_name": "Niezapominajka Dla Ca\u0142ej Rodziny", "opening_hours": "Mo-Fr 08:00-20:00; Sa 08:00-16:00", "ref:csioz": "1036709"}}, {"type": "node", "id": 9588531274, "lat": 50.0134425, "lon": 19.9314572, "tags": {"amenity": "pharmacy", "dispensing": "yes", "healthcare": "pharmacy", "official_name": "Apteka Lek\u00f3w Gotowych Fantazja", "ref:csioz": "1036698"}}, {"type": "node", "id": 9590964009, "lat": 50.0906879, "lon": 20.0060523, "tags": {"amenity": "pharmacy", "dispensing": "yes", "healthcare": "pharmacy", "name": "Apteka \"Prima\"", "ref:csioz": "1077467"}}, {"type": "node", "id": 9590964010, "lat": 50.0936688, "lon": 20.0110427, "tags": {"amenity": "pharmacy", "dispensing": "yes", "healthcare": "pharmacy", "ref:csioz": "1075780"}}, {"type": "node", "id": 9590964011, "lat": 50.0923376, "lon": 20.0225971, "tags": {"amenity": "pharmacy", "brand": "Apteka S\u0142oneczna", "dispensing": "yes", "healthcare": "pharmacy", "name": "Apteka S\u0142oneczna", "ref:csioz": "1038171"}}, {"type": "node", "id": 9590964012, "lat": 50.0942657, "lon": 20.0047438, "tags": {"amenity": "pharmacy", "dispensing": "yes", "healthcare": "pharmacy", "name": "Hygieia", "official_name": "Hygieia Centrum Tanich Lek\u00f3w", "opening_hours": "Mo-Fr 07:00-21:00; Sa 07:00-18:00", "ref:csioz": "1035673"}}, {"type": "node", "id": 9590964014, "lat": 50.0739967, "lon": 20.0353624, "tags": {"amenity": "pharmacy", "brand": "Apteka S\u0142oneczna", "dispensing": "yes", "healthcare": "pharmacy", "name": "Apteka S\u0142oneczna", "opening_hours": "Mo-Fr 07:00-21:00; Sa 08:00-15:00", "ref:csioz": "1121738", "trash_accepted:medicines": "no"}}, {"type": "node", "id": 9590964015, "lat": 50.0793875, "lon": 20.0108363, "tags": {"amenity": "pharmacy", "dispensing": "yes", "name": "Apteka Zdrowie", "ref:csioz": "1113550"}}, {"type": "node", "id": 9590964016, "lat": 50.0746651, "lon": 20.0201796, "tags": {"amenity": "pharmacy", "brand": "S\u0142oneczna", "check_date:opening_hours": "2025-03-27", "dispensing": "yes", "healthcare": "pharmacy", "name": "S\u0142oneczna", "opening_hours": "Mo-Fr 07:00-21:00; Sa 08:00-15:00", "ref:csioz": "1077717", "wheelchair": "limited"}}, {"type": "node", "id": 9590991417, "lat": 50.067794, "lon": 20.0428586, "tags": {"amenity": "pharmacy", "dispensing": "yes", "healthcare": "pharmacy", "ref:csioz": "1074684"}}, {"type": "node", "id": 9590991418, "lat": 50.0820901, "lon": 20.0210309, "tags": {"amenity": "pharmacy", "brand": "Apteka S\u0142oneczna", "dispensing": "yes", "healthcare": "pharmacy", "name": "Apteka S\u0142oneczna", "ref:csioz": "1056280"}}, {"type": "node", "id": 9592171983, "lat": 50.0798088, "lon": 19.9694664}, {"type": "node", "id": 9592171984, "lat": 50.0674578, "lon": 19.9327007, "tags": {"addr:city": "Krak\u00f3w", "addr:housenumber": "3", "addr:postcode": "31-135", "addr:street": "Stefana Batorego", "amenity": "pharmacy", "dispensing": "yes", "healthcare": "pharmacy", "name": "S\u0142oneczna", "opening_hours": "Mo-Fr 07:00-20:00; Sa,Su off", "ref:csioz": "1035970"}}, {"type": "node", "id": 9592171985, "lat": 50.0881859, "lon": 19.9389077, "tags": {"addr:city": "Krak\u00f3w", "addr:housenumber": "85", "addr:postcode": "31-202", "addr:street": "Pr\u0105dnicka", "amenity": "pharmacy", "dispensing": "yes", "name": "Apteka Gemini", "ref:csioz": "1035115"}}, {"type": "node", "id": 9592171986, "lat": 50.0916023, "lon": 20.0068794, "tags": {"amenity": "pharmacy", "dispensing": "yes", "name": "Apteka \"Prima\"", "ref:csioz": "1077451"}}, {"type": "node", "id": 9592171987, "lat": 50.0831148, "lon": 20.0318341, "tags": {"addr:city": "Krak\u00f3w", "addr:housenumber": "13", "addr:place": "Bie\u0144czycki Plac Targowy", "addr:postcode": "31-863", "amenity": "pharmacy", "dispensing": "yes", "healthcare": "pharmacy", "name": "Hygieia", "ref:csioz": "1218706"}}, {"type": "node", "id": 9592171988, "lat": 50.0804331, "lon": 20.0111262, "tags": {"amenity": "pharmacy", "brand": "Apteka S\u0142oneczna", "dispensing": "yes", "healthcare": "pharmacy", "name": "Apteka S\u0142oneczna", "opening_hours": "Mo-Fr 07:00-21:00; Sa 08:00-15:00", "ref:csioz": "1212114"}}, {"type": "node", "id": 9592171990, "lat": 50.0738237, "lon": 20.0270116, "tags": {"amenity": "pharmacy", "check_date:opening_hours": "2025-01-08", "dispensing": "yes", "name": "Hygieia", "official_name": "Hygieia Centrum Lek\u00f3w", "opening_hours": "Mo-Fr 07:00-21:00; Sa 07:00-18:00", "ref:csioz": "1124651", "wheelchair": "yes"}}, {"type": "node", "id": 9592681575, "lat": 50.0920552, "lon": 19.9437246, "tags": {"amenity": "pharmacy", "dispensing": "yes", "healthcare": "pharmacy", "level": "0", "name": "Hygieia", "official_name": "Hygieia Centrum Lek\u00f3w", "opening_hours": "Mo-Fr 07:00-20:00, Su 08:00-15:00", "ref:csioz": "1172723", "wheelchair": "designated"}}, {"type": "node", "id": 9592681576, "lat": 50.0855073, "lon": 19.9106256, "tags": {"addr:city": "Krak\u00f3w", "addr:housenumber": "5", "addr:postcode": "31-318", "addr:street": "Marii Jaremy", "amenity": "pharmacy", "dispensing": "yes", "name": "Apteka Pod Owieczk\u0105", "opening_hours": "Mo-Fr 08:00-20:00; Sa 08:00-15:00", "ref:csioz": "1124210", "trash_accepted:medicines": "yes"}}, {"type": "node", "id": 9592681577, "lat": 50.0627058, "lon": 19.9310234, "tags": {"amenity": "pharmacy", "dispensing": "yes", "official_name": "Studencka", "ref:csioz": "1077098"}}, {"type": "node", "id": 9592681578, "lat": 50.097718, "lon": 19.9591214, "tags": {"amenity": "pharmacy", "dispensing": "yes", "name": "Apteka Anthoxanthum", "ref:csioz": "1077120"}}, {"type": "node", "id": 9592681580, "lat": 50.0753277, "lon": 19.9003921, "tags": {"amenity": "pharmacy", "dispensing": "yes", "healthcare": "pharmacy", "name": "Apteka \"Arnika\"", "opening_hours": "Mo-Fr 08:00-20:00; Sa 08:00-14:00", "ref:csioz": "1076166"}}, {"type": "node", "id": 9592681581, "lat": 50.0675855, "lon": 19.9188077, "tags": {"addr:city": "Krak\u00f3w", "addr:housenumber": "65", "addr:postcode": "30-049", "addr:street": "Czarnowiejska", "amenity": "pharmacy", "check_date": "2024-12-15", "dispensing": "yes", "healthcare": "pharmacy", "name": "\u015aw. Weronika", "wheelchair": "yes"}}, {"type": "node", "id": 9593049149, "lat": 50.0891094, "lon": 19.9340348, "tags": {"addr:city": "Krak\u00f3w", "addr:housenumber": "14", "addr:postcode": "31-209", "addr:street": "Genera\u0142a Augusta Fieldorfa-Nila", "amenity": "pharmacy", "dispensing": "yes", "drive_through": "no", "healthcare": "pharmacy", "name": "Apteka S\u0142oneczna", "opening_hours": "Mo-Fr 07:00-21:00", "ref:csioz": "1035832"}}, {"type": "node", "id": 9593049150, "lat": 50.0928438, "lon": 19.9746901, "tags": {"amenity": "pharmacy", "check_date:opening_hours": "2025-02-14", "dispensing": "yes", "email": "apteka.strzelcow@hygieia.pl", "healthcare": "pharmacy", "name": "Apteka Hygieia", "opening_hours": "Mo-Fr 07:00-21:00; Sa 08:00-19:00", "payment:cash": "yes", "payment:mastercard": "yes", "payment:visa": "yes", "payment:visa_debit": "yes", "payment:visa_electron": "yes", "phone": "+48 12 376 71 88", "ref:csioz": "1035636"}}, {"type": "node", "id": 9595802639, "lat": 50.0841413, "lon": 19.909099, "tags": {"addr:postcode": "31-311", "amenity": "pharmacy", "dispensing": "yes", "drive_through": "no", "healthcare": "pharmacy", "name": "Apteka \"Pod Owieczk\u0105\"", "name:en": "Pharmacy \"Pod Owieczk\u0105\"", "opening_hours": "Mo-Fr 08:00-20:30; Sa 08:00-18:00; Su 10:00-16:00", "ref:csioz": "1077185"}}, {"type": "node", "id": 9595802640, "lat": 50.0458737, "lon": 19.9243678, "tags": {"amenity": "pharmacy", "dispensing": "yes", "ref:csioz": "1076776"}}, {"type": "node", "id": 9595802642, "lat": 50.0539955, "lon": 19.9200661, "tags": {"amenity": "pharmacy", "dispensing": "yes", "healthcare": "pharmacy", "name": "Apteka \u201eNa Stawach\u201d", "ref:csioz": "1076265"}}, {"type": "node", "id": 9595802644, "lat": 50.0276502, "lon": 19.9524464, "tags": {"amenity": "pharmacy", "dispensing": "yes", "name": "Dr. Max", "ref:csioz": "1075751"}}, {"type": "node", "id": 9595802645, "lat": 50.0576031, "lon": 19.9530919, "tags": {"amenity": "pharmacy", "brand": "Dbam o Zdrowie", "brand:wikidata": "Q62563833", "dispensing": "yes", "healthcare": "pharmacy", "name": "Dbam o Zdrowie", "ref:csioz": "1075478", "short_name": "DOZ"}}, {"type": "node", "id": 9595802646, "lat": 50.0618016, "lon": 19.9275284, "tags": {"addr:city": "Krak\u00f3w", "addr:housenumber": "2", "addr:postcode": "31-117", "addr:street": "Napoleona Cybulskiego", "amenity": "pharmacy", "dispensing": "yes", "healthcare": "pharmacy", "name": "\u015awiat zdrowia", "opening_hours": "Mo-Fr 08:00-18:00", "ref:csioz": "1074637"}}, {"type": "node", "id": 9595892892, "lat": 50.1014794, "lon": 19.9680075, "tags": {"amenity": "pharmacy", "dispensing": "yes", "healthcare": "pharmacy", "name": "Galen", "opening_hours": "Mo-Fr 09:00-19:00", "ref:csioz": "1216068"}}, {"type": "node", "id": 9595892895, "lat": 50.0729725, "lon": 19.9752279, "tags": {"addr:flats": "u2", "addr:housenumber": "34B", "addr:postcode": "31-444", "addr:street": "\u015aliczna", "amenity": "pharmacy", "dispensing": "yes", "name": "Apteka S\u0142oneczna", "opening_hours": "Mo-Fr 07:00-21:00; Sa 08:00-15:00", "phone": "+48 126225307", "ref:csioz": "1204214", "wheelchair": "yes"}}, {"type": "node", "id": 9595892896, "lat": 50.0448809, "lon": 19.9711416, "tags": {"amenity": "pharmacy", "brand": "Dbam o Zdrowie", "brand:wikidata": "Q62563833", "dispensing": "yes", "healthcare": "pharmacy", "name": "Dbam o Zdrowie", "ref:csioz": "1195600", "short_name": "DOZ"}}, {"type": "node", "id": 9595892897, "lat": 50.052969, "lon": 19.957623, "tags": {"amenity": "pharmacy", "dispensing": "yes", "name": "Medicover", "ref:csioz": "1195247"}}, {"type": "node", "id": 9595892901, "lat": 50.0871624, "lon": 19.8942116, "tags": {"amenity": "pharmacy", "dispensing": "yes", "drive_through": "no", "healthcare": "pharmacy", "name": "Eskulap", "official_name": "Aptekaeskulap.Pl", "opening_hours": "Mo-Sa 08:00-21:00; Su 09:00-19:00", "ref:csioz": "1180919"}}, {"type": "node", "id": 9595892903, "lat": 50.0927793, "lon": 19.8980027, "tags": {"amenity": "pharmacy", "brand": "Dr. Max", "brand:wikidata": "Q56317371", "dispensing": "yes", "healthcare": "pharmacy", "name": "Dr. Max", "ref:csioz": "1121550"}}, {"type": "node", "id": 9595935856, "lat": 50.0700068, "lon": 19.9005913, "tags": {"amenity": "pharmacy", "check_date:opening_hours": "2025-01-22", "dispensing": "yes", "healthcare": "pharmacy", "name": "Apteka \u015aw. Klara", "opening_hours": "Mo-Fr 07:00-20:00; Sa 08:00-14:00", "ref:csioz": "1225965", "wheelchair": "yes"}}, {"type": "node", "id": 9595935857, "lat": 50.087719, "lon": 19.985049}, {"type": "node", "id": 9595935858, "lat": 50.0284371, "lon": 19.9493189, "tags": {"amenity": "pharmacy", "dispensing": "yes", "name": "Super-Pharm Apteka", "ref:csioz": "1223398"}}, {"type": "node", "id": 9979343436, "lat": 50.0640894, "lon": 19.9979085}, {"type": "node", "id": 9979343437, "lat": 50.0641719, "lon": 19.9978738}, {"type": "node", "id": 9979343534, "lat": 50.0640854, "lon": 19.9977261}, {"type": "node", "id": 9979343725, "lat": 50.0640663, "lon": 19.9977743}, {"type": "node", "id": 9982905428, "lat": 50.0763227, "lon": 20.0172269}, {"type": "node", "id": 9982944622, "lat": 50.0764295, "lon": 20.0171073}, {"type": "node", "id": 9982963117, "lat": 50.0762966, "lon": 20.0170778}, {"type": "node", "id": 9982963118, "lat": 50.0762477, "lon": 20.0169868}, {"type": "node", "id": 9982963217, "lat": 50.0763035, "lon": 20.0170027}, {"type": "node", "id": 10016079163, "lat": 50.0166215, "lon": 19.9724951}, {"type": "node", "id": 10652430046, "lat": 50.0808236, "lon": 20.0686724, "tags": {"amenity": "pharmacy", "dispensing": "yes", "fixme": "Lokalizacja do weryfikacji", "healthcare": "pharmacy", "ref:csioz": "1231214"}}, {"type": "node", "id": 10652430047, "lat": 50.0843314, "lon": 20.0276531, "tags": {"amenity": "pharmacy", "brand": "Gemini", "brand:wikidata": "Q130243797", "dispensing": "yes", "healthcare": "pharmacy", "name": "Gemini", "opening_hours": "Mo-Fr 07:00-21:00; Sa 08:00-16:00", "ref:csioz": "1056781"}}, {"type": "node", "id": 10652430049, "lat": 50.0600107, "lon": 19.936112, "tags": {"amenity": "pharmacy", "dispensing": "yes", "healthcare": "pharmacy", "name": "Centrum Krak\u00f3w", "ref:csioz": "1231057"}}, {"type": "node", "id": 10691742006, "lat": 50.0919292, "lon": 19.900393, "tags": {"amenity": "pharmacy", "brand": "Dr. Max", "brand:wikidata": "Q56317371", "healthcare": "pharmacy", "level": "0", "name": "Dr. Max"}}, {"type": "node", "id": 10723976030, "lat": 50.0842434, "lon": 19.8885697, "tags": {"amenity": "pharmacy", "dispensing": "yes", "drive_through": "no", "healthcare": "pharmacy", "name": "Apteka Medica", "opening_hours": "Mo-Fr 08:00-20:00, Sa 08:00-14:00", "phone": "12 3077109"}}, {"type": "node", "id": 11217773053, "lat": 50.029007, "lon": 19.8558188, "tags": {"addr:housenumber": "161", "addr:street": "Tyniecka", "amenity": "pharmacy", "brand": "Ziko Apteka", "brand:wikidata": "Q63432892", "check_date": "2023-09-25", "healthcare": "pharmacy", "name": "Ziko Apteka", "opening_hours": "Mo-Fr 08:00-21:00; Sa 08:00-17:00", "short_name": "Ziko", "wheelchair": "yes"}}, {"type": "node", "id": 11518979144, "lat": 50.0281015, "lon": 19.9532549, "tags": {"amenity": "pharmacy", "healthcare": "pharmacy"}}, {"type": "node", "id": 11825018490, "lat": 50.0440208, "lon": 19.8256762, "tags": {"addr:housenumber": "170a", "addr:street": "Ksi\u0119cia J\u00f3zefa", "amenity": "pharmacy", "check_date": "2024-04-17", "healthcare": "pharmacy", "name": "Apteka Na Bielanach", "opening_hours": "Mo-Fr 09:00-18:00; Sa 09:00-13:00", "wheelchair": "yes"}}, {"type": "node", "id": 12066882763, "lat": 50.0625112, "lon": 20.0108735, "tags": {"amenity": "pharmacy", "healthcare": "pharmacy", "name": "Apteka Centralna"}}, {"type": "node", "id": 12247116019, "lat": 50.0166134, "lon": 19.9724825, "tags": {"entrance": "yes"}}, {"type": "node", "id": 12285056752, "lat": 50.0575184, "lon": 20.0081857, "tags": {"entrance": "yes", "level": "0", "name": "Ziko Apteka"}}, {"type": "node", "id": 12285056765, "lat": 50.0573816, "lon": 20.0082615}, {"type": "node", "id": 12285056766, "lat": 50.0573771, "lon": 20.0081489}, {"type": "node", "id": 12285056770, "lat": 50.0575161, "lon": 20.0081343}, {"type": "node", "id": 12479466355, "lat": 50.0368192, "lon": 20.0510368, "tags": {"amenity": "pharmacy", "brand": "Gemini", "brand:wikidata": "Q130243797", "healthcare": "pharmacy", "name": "Gemini"}}, {"type": "node", "id": 12488348500, "lat": 50.0207723, "lon": 20.0496489, "tags": {"addr:city": "Krak\u00f3w", "addr:housenumber": "4", "addr:postcode": "30-798", "addr:street": "Nefrytowa", "amenity": "pharmacy", "healthcare": "pharmacy", "name": "Apteka S\u0142oneczna"}}, {"type": "node", "id": 12582787591, "lat": 50.0870326, "lon": 19.9823476}, {"type": "node", "id": 12582787592, "lat": 50.0869449, "lon": 19.9823687}, {"type": "node", "id": 12582787593, "lat": 50.0870199, "lon": 19.9822201}, {"type": "node", "id": 12582787594, "lat": 50.0869322, "lon": 19.9822412}, {"type": "node", "id": 12726562244, "lat": 50.0900445, "lon": 20.0067972, "tags": {"amenity": "pharmacy", "healthcare": "pharmacy", "name": "Prima"}}, {"type": "node", "id": 12823874536, "lat": 50.0876703, "lon": 19.9850209}, {"type": "node", "id": 12823874537, "lat": 50.0876414, "lon": 19.9849882}, {"type": "node", "id": 12823874538, "lat": 50.0876092, "lon": 19.9849342}, {"type": "node", "id": 12823874539, "lat": 50.0875908, "lon": 19.9848982}, {"type": "node", "id": 12823874540, "lat": 50.0875435, "lon": 19.9848446}, {"type": "node", "id": 12823874541, "lat": 50.0877095, "lon": 19.9846572}, {"type": "node", "id": 12823874542, "lat": 50.0877295, "lon": 19.9848295}, {"type": "node", "id": 12823874543, "lat": 50.0877692, "lon": 19.9850727}, {"type": "node", "id": 12823874551, "lat": 50.0877407, "lon": 19.9848263}, {"type": "node", "id": 12823874552, "lat": 50.0877584, "lon": 19.984979}, {"type": "node", "id": 12846730850, "lat": 50.0160084, "lon": 19.9506289, "tags": {"amenity": "pharmacy", "name": "Ziko Dermo"}}, {"type": "way", "id": 151506049, "nodes": [1643189705, 1643189698, 1643189699, 12247116019, 10016079163, 1643189718, 1643189716, 1643189705], "tags": {"addr:city": "Krak\u00f3w", "addr:housenumber": "10a", "addr:street": "Bia\u0142oruska", "amenity": "pharmacy", "building": "retail", "dispensing": "yes", "name": "S\u0142oneczna", "official_name": "Apteka S\u0142oneczna", "ref:csioz": "1190773", "source:addr": "EMUiA (emuia.gugik.gov.pl)"}}, {"type": "way", "id": 156530560, "nodes": [9592171983, 3426407329, 3736668970, 3736668969, 3736668967, 3736668968, 9592171983], "tags": {"addr:city": "Krak\u00f3w", "addr:country": "PL", "addr:housenumber": "61a", "addr:postcode": "31-436", "addr:street": "Henryka Wieniawskiego", "amenity": "pharmacy", "building": "retail", "dispensing": "yes", "healthcare": "pharmacy", "name": "Centrum", "opening_hours": "Mo-Fr 7:00-22:00;Sa 8:00-22:00;Su 9:00-20:00", "ref:csioz": "1036917"}}, {"type": "way", "id": 274858461, "nodes": [2795276889, 2795276887, 2795276888, 2795276891, 2879888186, 3015118475, 2795276889], "tags": {"addr:city": "Krak\u00f3w", "addr:housenumber": "1", "addr:postcode": "30-376", "addr:street": "Norymberska", "amenity": "pharmacy", "brand": "Dr. Max", "brand:wikidata": "Q56317371", "building": "yes", "building:use": "shop", "check_date:opening_hours": "2024-06-13", "dispensing": "yes", "healthcare": "pharmacy", "name": "Dr. Max", "opening_hours": "Mo-Fr 09:00-21:00, Su 09:00-19:00; Sa 09:00-21:00", "ref:csioz": "1170068"}}, {"type": "way", "id": 301663354, "nodes": [3057515578, 3009553773, 3057515584, 3057515574, 3057515578], "tags": {"amenity": "pharmacy", "buildingpart": "room", "dispensing": "yes", "healthcare": "pharmacy", "indoor": "yes", "name": "Apteka Hygieia", "official_name": "Hygieia", "ref:csioz": "1035612"}}, {"type": "way", "id": 338064728, "nodes": [3451250654, 6537146940, 3451250651, 3451250652, 3451254304, 3451250654], "tags": {"addr:city": "Krak\u00f3w", "addr:housenumber": "35", "addr:postcode": "30-898", "addr:street": "Ksi\u0119dza Jerzego Popie\u0142uszki", "amenity": "pharmacy", "building": "yes", "dispensing": "yes", "healthcare": "pharmacy", "name": "DOZ - Apteka pod Wie\u017c\u0105", "ref:csioz": "1074825", "short_name": "DOZ"}}, {"type": "way", "id": 766326105, "nodes": [7157205278, 7157205277, 7157205276, 7157205275, 7157205259, 7157205263, 7157205282, 7157205280, 7157205278], "tags": {"amenity": "pharmacy", "brand": "Dr. Max", "brand:wikidata": "Q56317371", "brand:wikipedia": "fr:Dr.Max", "dispensing": "yes", "healthcare": "pharmacy", "indoor": "room", "level": "0", "name": "Dr. Max", "ref": "133", "ref:csioz": "1211351"}}, {"type": "way", "id": 766326243, "nodes": [7157205735, 7157205727, 7157205734, 7157205733, 7157205732, 7157205731, 7157205730, 7157205735], "tags": {"amenity": "pharmacy", "brand": "Dbam o Zdrowie", "brand:wikidata": "Q62563833", "dispensing": "yes", "healthcare": "pharmacy", "indoor": "room", "level": "-1", "name": "Dbam o Zdrowie", "ref:csioz": "1119912", "short_name": "DOZ"}}, {"type": "way", "id": 870393743, "nodes": [8108432120, 8108432123, 8108432124, 8108432119, 8108432120], "tags": {"addr:city": "Krak\u00f3w", "addr:housenumber": "38", "addr:place": "Osiedle Kazimierzowskie", "addr:postcode": "31-844", "amenity": "pharmacy", "building": "yes", "healthcare": "pharmacy", "name": "Niezapominajka", "opening_hours": "Mo-Fr 08:00-20:00; Sa 08:00-18:00"}}, {"type": "way", "id": 1089404503, "nodes": [1758992018, 9979343534, 9979343725, 9979343436, 9979343437, 1758992018], "tags": {"addr:city": "Krak\u00f3w", "addr:country": "PL", "addr:housenumber": "67", "addr:postcode": "31-580", "addr:street": "Aleja Pokoju", "amenity": "pharmacy", "brand": "Dr. Max", "brand:wikidata": "Q56317371", "dispensing": "yes", "healthcare": "pharmacy", "indoor": "room", "level": "0", "name": "Dr. Max", "opening_hours": "Mo-Fr 08:00-21:00; Sa 09:00-21:00; Su 10:00-20:00", "ref:csioz": "1034975", "room": "shop", "website": "https://www.drmax.pl/"}}, {"type": "way", "id": 1089809201, "nodes": [9982944622, 6632953787, 6632953786, 9982905428, 1898465760, 1898465762, 9982963118, 9982963217, 9982963117, 9982944622], "tags": {"access": "customers", "addr:city": "Krak\u00f3w", "addr:housenumber": "2", "addr:postcode": "31-870", "addr:street": "Mieczys\u0142awa Medweckiego", "amenity": "pharmacy", "brand": "Dbam o Zdrowie", "brand:wikidata": "Q62563833", "dispensing": "yes", "healthcare": "pharmacy", "indoor": "room", "level": "0", "name": "Dbam o Zdrowie", "opening_hours": "Mo-Sa 09:00-21:00; Su 10:00-20:00", "phone": "+48 800 110 110", "ref:csioz": "1038270", "room": "shop", "short_name": "DOZ"}}, {"type": "way", "id": 1327828641, "nodes": [9164818279, 12285056752, 12285056770, 12285056766, 12285056765, 9164818279], "tags": {"amenity": "pharmacy", "brand": "Ziko Apteka", "brand:wikidata": "Q63432892", "dispensing": "yes", "healthcare": "pharmacy", "indoor": "room", "level": "0", "name": "Ziko Apteka", "ref:csioz": "1231516", "room": "shop", "short_name": "Ziko"}}, {"type": "way", "id": 1359385914, "nodes": [12582787593, 12582787594, 12582787592, 12582787591, 12582787593], "tags": {"amenity": "pharmacy", "dispensing": "yes", "healthcare": "pharmacy", "indoor": "room", "level": "0", "name": "Apteka Naturfarm", "opening_hours": "Mo-Sa 08:00-21:00; Su 09:00-20:00", "ref:csioz": "1076648"}}, {"type": "way", "id": 1385129226, "nodes": [12823874551, 12823874542, 12823874541, 2983071006, 12823874540, 12823874539, 12823874538, 12823874537, 12823874536, 9595935857, 12823874543, 12823874552, 12823874551], "tags": {"amenity": "pharmacy", "brand": "Super-Pharm", "brand:en": "Super-Pharm", "brand:he": "\u05e1\u05d5\u05e4\u05e8-\u05e4\u05d0\u05e8\u05dd", "brand:wikidata": "Q13220217", "dispensing": "yes", "healthcare": "pharmacy", "indoor": "room", "level": "0", "name": "Super-Pharm", "name:ar": "\u0633\u0648\u0628\u064a\u0631 \u0641\u0627\u0631\u0645", "name:en": "Super-Pharm", "name:he": "\u05e1\u05d5\u05e4\u05e8-\u05e4\u05d0\u05e8\u05dd", "name:ru": "\u0421\u0443\u043f\u0435\u0440-\u0424\u0430\u0440\u043c", "ref:csioz": "1224580"}}]}